<?xml version="1.0" encoding="UTF-8"?>
<gpx creator="https://gpx.studio" version="1.1" xmlns="http://www.topografix.com/GPX/1/1" xmlns:xsi="http://www.w3.org/2001/XMLSchema-instance" xsi:schemaLocation="http://www.topografix.com/GPX/1/1 http://www.topografix.com/GPX/1/1/gpx.xsd http://www.garmin.com/xmlschemas/GpxExtensions/v3 http://www.garmin.com/xmlschemas/GpxExtensionsv3.xsd http://www.garmin.com/xmlschemas/TrackPointExtension/v1 http://www.garmin.com/xmlschemas/TrackPointExtensionv1.xsd http://www.garmin.com/xmlschemas/PowerExtension/v1 http://www.garmin.com/xmlschemas/PowerExtensionv1.xsd http://www.topografix.com/GPX/gpx_style/0/2 http://www.topografix.com/GPX/gpx_style/0/2/gpx_style.xsd" xmlns:gpxtpx="http://www.garmin.com/xmlschemas/TrackPointExtension/v1" xmlns:gpxx="http://www.garmin.com/xmlschemas/GpxExtensions/v3" xmlns:gpxpx="http://www.garmin.com/xmlschemas/PowerExtension/v1" xmlns:gpx_style="http://www.topografix.com/GPX/gpx_style/0/2">
  <metadata>
    <name>New file 2</name>
    <author>
      <name>gpx.studio</name>
      <link href="https://gpx.studio"/>
    </author>
  </metadata>
  <trk>
    <name>New file 2</name>
    <trkseg>
      <trkpt lat="45.636787" lon="15.216653">
        <ele>161.33</ele>
      </trkpt>
      <trkpt lat="45.63669" lon="15.216759">
        <ele>160.82</ele>
      </trkpt>
      <trkpt lat="45.636554" lon="15.216886">
        <ele>160.27</ele>
      </trkpt>
      <trkpt lat="45.636471" lon="15.216987">
        <ele>159.75</ele>
      </trkpt>
      <trkpt lat="45.636296" lon="15.217279">
        <ele>158.01</ele>
      </trkpt>
      <trkpt lat="45.636129" lon="15.217518">
        <ele>156.35</ele>
      </trkpt>
      <trkpt lat="45.636084" lon="15.217623">
        <ele>156.57</ele>
      </trkpt>
      <trkpt lat="45.636048" lon="15.217808">
        <ele>157.39</ele>
      </trkpt>
      <trkpt lat="45.636024" lon="15.217896">
        <ele>157.79</ele>
      </trkpt>
      <trkpt lat="45.635872" lon="15.218191">
        <ele>159.11</ele>
      </trkpt>
      <trkpt lat="45.635838" lon="15.218284">
        <ele>159.57</ele>
      </trkpt>
      <trkpt lat="45.635823" lon="15.218379">
        <ele>160.02</ele>
      </trkpt>
      <trkpt lat="45.635774" lon="15.218892">
        <ele>161.13</ele>
      </trkpt>
      <trkpt lat="45.635717" lon="15.219183">
        <ele>161.69</ele>
      </trkpt>
      <trkpt lat="45.635684" lon="15.219297">
        <ele>161.57</ele>
      </trkpt>
      <trkpt lat="45.635605" lon="15.219482">
        <ele>161.33</ele>
      </trkpt>
      <trkpt lat="45.635606" lon="15.219479">
        <ele>161.34</ele>
      </trkpt>
      <trkpt lat="45.635568" lon="15.219432">
        <ele>161.37</ele>
      </trkpt>
      <trkpt lat="45.635512" lon="15.219396">
        <ele>161.38</ele>
      </trkpt>
      <trkpt lat="45.635456" lon="15.219366">
        <ele>161.37</ele>
      </trkpt>
      <trkpt lat="45.635398" lon="15.219353">
        <ele>161.34</ele>
      </trkpt>
      <trkpt lat="45.635179" lon="15.219462">
        <ele>161.32</ele>
      </trkpt>
      <trkpt lat="45.635082" lon="15.219492">
        <ele>161.24</ele>
      </trkpt>
      <trkpt lat="45.634845" lon="15.219505">
        <ele>160.16</ele>
      </trkpt>
      <trkpt lat="45.634702" lon="15.219478">
        <ele>159.38</ele>
      </trkpt>
      <trkpt lat="45.63441" lon="15.219379">
        <ele>157.26</ele>
      </trkpt>
      <trkpt lat="45.634311" lon="15.219316">
        <ele>156.18</ele>
      </trkpt>
      <trkpt lat="45.634208" lon="15.219298">
        <ele>155.48</ele>
      </trkpt>
      <trkpt lat="45.634125" lon="15.219306">
        <ele>155.15</ele>
      </trkpt>
      <trkpt lat="45.634049" lon="15.219335">
        <ele>155.03</ele>
      </trkpt>
      <trkpt lat="45.633979" lon="15.219394">
        <ele>155.2</ele>
      </trkpt>
      <trkpt lat="45.633847" lon="15.21953">
        <ele>155.7</ele>
      </trkpt>
      <trkpt lat="45.633749" lon="15.219664">
        <ele>156.36</ele>
      </trkpt>
      <trkpt lat="45.633696" lon="15.219761">
        <ele>156.92</ele>
      </trkpt>
      <trkpt lat="45.63368" lon="15.219791">
        <ele>157.09</ele>
      </trkpt>
      <trkpt lat="45.633637" lon="15.21992">
        <ele>157.97</ele>
      </trkpt>
      <trkpt lat="45.633525" lon="15.220079">
        <ele>158.51</ele>
      </trkpt>
      <trkpt lat="45.633396" lon="15.220155">
        <ele>157.94</ele>
      </trkpt>
      <trkpt lat="45.63324" lon="15.220209">
        <ele>156.73</ele>
      </trkpt>
      <trkpt lat="45.633165" lon="15.220262">
        <ele>156.13</ele>
      </trkpt>
      <trkpt lat="45.633115" lon="15.220322">
        <ele>155.68</ele>
      </trkpt>
      <trkpt lat="45.633076" lon="15.220392">
        <ele>155.3</ele>
      </trkpt>
      <trkpt lat="45.632911" lon="15.220767">
        <ele>153.18</ele>
      </trkpt>
      <trkpt lat="45.632877" lon="15.220866">
        <ele>152.59</ele>
      </trkpt>
      <trkpt lat="45.632862" lon="15.220948">
        <ele>152.51</ele>
      </trkpt>
      <trkpt lat="45.632857" lon="15.221017">
        <ele>152.57</ele>
      </trkpt>
      <trkpt lat="45.63287" lon="15.221125">
        <ele>152.9</ele>
      </trkpt>
      <trkpt lat="45.633013" lon="15.22174">
        <ele>155.43</ele>
      </trkpt>
      <trkpt lat="45.633121" lon="15.222062">
        <ele>156.43</ele>
      </trkpt>
      <trkpt lat="45.633214" lon="15.222284">
        <ele>156.8</ele>
      </trkpt>
      <trkpt lat="45.633373" lon="15.222607">
        <ele>156.76</ele>
      </trkpt>
      <trkpt lat="45.633448" lon="15.223075">
        <ele>156.39</ele>
      </trkpt>
      <trkpt lat="45.633456" lon="15.223803">
        <ele>154.01</ele>
      </trkpt>
      <trkpt lat="45.633494" lon="15.22406">
        <ele>153.05</ele>
      </trkpt>
      <trkpt lat="45.633636" lon="15.224443">
        <ele>152.19</ele>
      </trkpt>
      <trkpt lat="45.633709" lon="15.224766">
        <ele>151.22</ele>
      </trkpt>
      <trkpt lat="45.633712" lon="15.225013">
        <ele>150.07</ele>
      </trkpt>
      <trkpt lat="45.633651" lon="15.225297">
        <ele>151</ele>
      </trkpt>
      <trkpt lat="45.633571" lon="15.22562">
        <ele>152.65</ele>
      </trkpt>
      <trkpt lat="45.633471" lon="15.225856">
        <ele>153.99</ele>
      </trkpt>
      <trkpt lat="45.633372" lon="15.225992">
        <ele>155.29</ele>
      </trkpt>
      <trkpt lat="45.633157" lon="15.226244">
        <ele>156.93</ele>
      </trkpt>
      <trkpt lat="45.633062" lon="15.226332">
        <ele>157.12</ele>
      </trkpt>
      <trkpt lat="45.632916" lon="15.226441">
        <ele>156.93</ele>
      </trkpt>
      <trkpt lat="45.632794" lon="15.226567">
        <ele>156.92</ele>
      </trkpt>
      <trkpt lat="45.632618" lon="15.226715">
        <ele>156.31</ele>
      </trkpt>
      <trkpt lat="45.632457" lon="15.226912">
        <ele>157.9</ele>
      </trkpt>
      <trkpt lat="45.63217" lon="15.227306">
        <ele>160.97</ele>
      </trkpt>
      <trkpt lat="45.63207" lon="15.227394">
        <ele>161.19</ele>
      </trkpt>
      <trkpt lat="45.631917" lon="15.22747">
        <ele>160.65</ele>
      </trkpt>
      <trkpt lat="45.63178" lon="15.22752">
        <ele>159.84</ele>
      </trkpt>
      <trkpt lat="45.631581" lon="15.227651">
        <ele>158.14</ele>
      </trkpt>
      <trkpt lat="45.631393" lon="15.227755">
        <ele>156.67</ele>
      </trkpt>
      <trkpt lat="45.631232" lon="15.227821">
        <ele>155.46</ele>
      </trkpt>
      <trkpt lat="45.631047" lon="15.227864">
        <ele>153.91</ele>
      </trkpt>
      <trkpt lat="45.631216" lon="15.227636">
        <ele>153.23</ele>
      </trkpt>
      <trkpt lat="45.631503" lon="15.227153">
        <ele>153.13</ele>
      </trkpt>
      <trkpt lat="45.631563" lon="15.227031">
        <ele>152.43</ele>
      </trkpt>
      <trkpt lat="45.631655" lon="15.226925">
        <ele>151.67</ele>
      </trkpt>
      <trkpt lat="45.631701" lon="15.226853">
        <ele>150.92</ele>
      </trkpt>
      <trkpt lat="45.632018" lon="15.226588">
        <ele>151.17</ele>
      </trkpt>
      <trkpt lat="45.632284" lon="15.22639">
        <ele>152.26</ele>
      </trkpt>
      <trkpt lat="45.632304" lon="15.226325">
        <ele>152.09</ele>
      </trkpt>
      <trkpt lat="45.632337" lon="15.226093">
        <ele>151.21</ele>
      </trkpt>
      <trkpt lat="45.632359" lon="15.226048">
        <ele>150.98</ele>
      </trkpt>
      <trkpt lat="45.632581" lon="15.225884">
        <ele>149.22</ele>
      </trkpt>
      <trkpt lat="45.632614" lon="15.22585">
        <ele>149.42</ele>
      </trkpt>
      <trkpt lat="45.632581" lon="15.225884">
        <ele>149.22</ele>
      </trkpt>
      <trkpt lat="45.632692" lon="15.225914">
        <ele>149.91</ele>
      </trkpt>
      <trkpt lat="45.632849" lon="15.225763">
        <ele>150.84</ele>
      </trkpt>
      <trkpt lat="45.632994" lon="15.225647">
        <ele>151.46</ele>
      </trkpt>
      <trkpt lat="45.63318" lon="15.225452">
        <ele>151.11</ele>
      </trkpt>
      <trkpt lat="45.633271" lon="15.225269">
        <ele>149.97</ele>
      </trkpt>
      <trkpt lat="45.633242" lon="15.224963">
        <ele>149.47</ele>
      </trkpt>
      <trkpt lat="45.632903" lon="15.223548">
        <ele>155.19</ele>
      </trkpt>
      <trkpt lat="45.632849" lon="15.223212">
        <ele>155.35</ele>
      </trkpt>
      <trkpt lat="45.63264" lon="15.222578">
        <ele>155.08</ele>
      </trkpt>
      <trkpt lat="45.632358" lon="15.221881">
        <ele>153.02</ele>
      </trkpt>
      <trkpt lat="45.632293" lon="15.221683">
        <ele>152.84</ele>
      </trkpt>
      <trkpt lat="45.632109" lon="15.221239">
        <ele>153.52</ele>
      </trkpt>
      <trkpt lat="45.6319" lon="15.220605">
        <ele>155.34</ele>
      </trkpt>
      <trkpt lat="45.631826" lon="15.220227">
        <ele>156.42</ele>
      </trkpt>
      <trkpt lat="45.63185" lon="15.219932">
        <ele>156.99</ele>
      </trkpt>
      <trkpt lat="45.631844" lon="15.21979">
        <ele>157.65</ele>
      </trkpt>
      <trkpt lat="45.631957" lon="15.219385">
        <ele>158.32</ele>
      </trkpt>
      <trkpt lat="45.632056" lon="15.219221">
        <ele>157.88</ele>
      </trkpt>
      <trkpt lat="45.63218" lon="15.219137">
        <ele>157.02</ele>
      </trkpt>
      <trkpt lat="45.632406" lon="15.219101">
        <ele>154.99</ele>
      </trkpt>
      <trkpt lat="45.632583" lon="15.219152">
        <ele>152.73</ele>
      </trkpt>
      <trkpt lat="45.632954" lon="15.219202">
        <ele>151.59</ele>
      </trkpt>
      <trkpt lat="45.633141" lon="15.219171">
        <ele>151.53</ele>
      </trkpt>
      <trkpt lat="45.633141" lon="15.219171">
        <ele>151.53</ele>
      </trkpt>
      <trkpt lat="45.633324" lon="15.219141">
        <ele>151.48</ele>
      </trkpt>
      <trkpt lat="45.633483" lon="15.219071">
        <ele>151.77</ele>
      </trkpt>
      <trkpt lat="45.633554" lon="15.218835">
        <ele>152.77</ele>
      </trkpt>
      <trkpt lat="45.633642" lon="15.218736">
        <ele>152.99</ele>
      </trkpt>
      <trkpt lat="45.63378" lon="15.218926">
        <ele>152.74</ele>
      </trkpt>
      <trkpt lat="45.633847" lon="15.218697">
        <ele>152.71</ele>
      </trkpt>
      <trkpt lat="45.633926" lon="15.218511">
        <ele>152.29</ele>
      </trkpt>
      <trkpt lat="45.633998" lon="15.218171">
        <ele>151.47</ele>
      </trkpt>
      <trkpt lat="45.633982" lon="15.218032">
        <ele>151.55</ele>
      </trkpt>
      <trkpt lat="45.634015" lon="15.217807">
        <ele>150.88</ele>
      </trkpt>
      <trkpt lat="45.634065" lon="15.217659">
        <ele>149.74</ele>
      </trkpt>
      <trkpt lat="45.634172" lon="15.217568">
        <ele>147.3</ele>
      </trkpt>
      <trkpt lat="45.634297" lon="15.217511">
        <ele>145.54</ele>
      </trkpt>
      <trkpt lat="45.634355" lon="15.217467">
        <ele>146.54</ele>
      </trkpt>
      <trkpt lat="45.634451" lon="15.217396">
        <ele>148.19</ele>
      </trkpt>
      <trkpt lat="45.634551" lon="15.217365">
        <ele>149.38</ele>
      </trkpt>
      <trkpt lat="45.634732" lon="15.217348">
        <ele>151.12</ele>
      </trkpt>
      <trkpt lat="45.634897" lon="15.217451">
        <ele>152.13</ele>
      </trkpt>
      <trkpt lat="45.635076" lon="15.21749">
        <ele>153.8</ele>
      </trkpt>
      <trkpt lat="45.635233" lon="15.217412">
        <ele>154.69</ele>
      </trkpt>
      <trkpt lat="45.635422" lon="15.217234">
        <ele>156.03</ele>
      </trkpt>
      <trkpt lat="45.63556" lon="15.217032">
        <ele>157.62</ele>
      </trkpt>
      <trkpt lat="45.635658" lon="15.216963">
        <ele>158.52</ele>
      </trkpt>
      <trkpt lat="45.635754" lon="15.216944">
        <ele>159.18</ele>
      </trkpt>
      <trkpt lat="45.635985" lon="15.217033">
        <ele>159.61</ele>
      </trkpt>
      <trkpt lat="45.636067" lon="15.217038">
        <ele>159.56</ele>
      </trkpt>
      <trkpt lat="45.636176" lon="15.217009">
        <ele>159.72</ele>
      </trkpt>
      <trkpt lat="45.636262" lon="15.21696">
        <ele>160</ele>
      </trkpt>
      <trkpt lat="45.636343" lon="15.21694">
        <ele>160.08</ele>
      </trkpt>
      <trkpt lat="45.636417" lon="15.216955">
        <ele>159.96</ele>
      </trkpt>
      <trkpt lat="45.636471" lon="15.216987">
        <ele>159.75</ele>
      </trkpt>
      <trkpt lat="45.636554" lon="15.216886">
        <ele>160.27</ele>
      </trkpt>
      <trkpt lat="45.63669" lon="15.216759">
        <ele>160.82</ele>
      </trkpt>
      <trkpt lat="45.636804" lon="15.216635">
        <ele>161.42</ele>
      </trkpt>
    </trkseg>
  </trk>
</gpx>
