<?xml version="1.0" encoding="UTF-8" standalone="no" ?>
<gpx xmlns="http://www.topografix.com/GPX/1/1"
creator="OCAD 2020.5.5.3227" version="1.1"
xmlns:xsi="http://www.w3.org/2001/XMLSchema-instance" 
xsi:schemaLocation="http://www.topografix.com/GPX/1/1 
http://www.topografix.com/GPX/1/1/gpx.xsd">

  <metadata>
    <name>Z:\PROJEKTI\druge_pogodbe\bela krajina pohodna\paket za splet\Bela krajina pohodne poti - pot 14 - gozdna zeleznica.gpx</name>
    <desc>Bela krajina - pohodna pot 14 - gozdna zeleznica</desc>
    <author><name>Kartografija d.o.o.</name></author>
    <link href="http://www.ocad.com">
      <text>OCAD AG</text>
    </link>
    <time>2020-11-05T09:55:02</time>
    <bounds maxlat="45.86687249" maxlon="15.60571704" minlat="45.32979540" minlon="14.93303760"/>
  </metadata>

  <rte>
    <name>rte1</name>
    <cmt>pohodne poti za izris profilov</cmt>
    <rtept lat="45.60766953" lon="15.08617761" >
      <name>rte1_0</name>
      <ele>760.00</ele>
    </rtept>
    <rtept lat="45.60749870" lon="15.08599786" >
      <name>rte1_1</name>
      <ele>758.04</ele>
    </rtept>
    <rtept lat="45.60744035" lon="15.08581187" >
      <name>rte1_2</name>
      <ele>755.00</ele>
    </rtept>
    <rtept lat="45.60726056" lon="15.08558723" >
      <name>rte1_3</name>
      <ele>751.79</ele>
    </rtept>
    <rtept lat="45.60699065" lon="15.08552271" >
      <name>rte1_4</name>
      <ele>750.00</ele>
    </rtept>
    <rtept lat="45.60685590" lon="15.08523405" >
      <name>rte1_5</name>
      <ele>748.16</ele>
    </rtept>
    <rtept lat="45.60680658" lon="15.08500962" >
      <name>rte1_6</name>
      <ele>744.09</ele>
    </rtept>
    <rtept lat="45.60680215" lon="15.08491346" >
      <name>rte1_7</name>
      <ele>743.17</ele>
    </rtept>
    <rtept lat="45.60690122" lon="15.08479823" >
      <name>rte1_8</name>
      <ele>745.00</ele>
    </rtept>
    <rtept lat="45.60694625" lon="15.08475343" >
      <name>rte1_9</name>
      <ele>745.00</ele>
    </rtept>
    <rtept lat="45.60699577" lon="15.08471504" >
      <name>rte1_10</name>
      <ele>745.00</ele>
    </rtept>
    <rtept lat="45.60704079" lon="15.08467024" >
      <name>rte1_11</name>
      <ele>745.00</ele>
    </rtept>
    <rtept lat="45.60708581" lon="15.08463185" >
      <name>rte1_12</name>
      <ele>740.10</ele>
    </rtept>
    <rtept lat="45.60713084" lon="15.08458704" >
      <name>rte1_13</name>
      <ele>740.10</ele>
    </rtept>
    <rtept lat="45.60717136" lon="15.08454865" >
      <name>rte1_14</name>
      <ele>740.10</ele>
    </rtept>
    <rtept lat="45.60721189" lon="15.08450384" >
      <name>rte1_15</name>
      <ele>740.10</ele>
    </rtept>
    <rtept lat="45.60725242" lon="15.08445903" >
      <name>rte1_16</name>
      <ele>740.10</ele>
    </rtept>
    <rtept lat="45.60729294" lon="15.08441422" >
      <name>rte1_17</name>
      <ele>743.43</ele>
    </rtept>
    <rtept lat="45.60732897" lon="15.08436940" >
      <name>rte1_18</name>
      <ele>743.43</ele>
    </rtept>
    <rtept lat="45.60736500" lon="15.08432459" >
      <name>rte1_19</name>
      <ele>739.61</ele>
    </rtept>
    <rtept lat="45.60740102" lon="15.08427977" >
      <name>rte1_20</name>
      <ele>739.61</ele>
    </rtept>
    <rtept lat="45.60743255" lon="15.08423495" >
      <name>rte1_21</name>
      <ele>739.61</ele>
    </rtept>
    <rtept lat="45.60746408" lon="15.08418371" >
      <name>rte1_22</name>
      <ele>739.61</ele>
    </rtept>
    <rtept lat="45.60749562" lon="15.08413248" >
      <name>rte1_23</name>
      <ele>739.61</ele>
    </rtept>
    <rtept lat="45.60752714" lon="15.08408766" >
      <name>rte1_24</name>
      <ele>742.32</ele>
    </rtept>
    <rtept lat="45.60755868" lon="15.08403642" >
      <name>rte1_25</name>
      <ele>742.32</ele>
    </rtept>
    <rtept lat="45.60759022" lon="15.08397878" >
      <name>rte1_26</name>
      <ele>740.54</ele>
    </rtept>
    <rtept lat="45.60761725" lon="15.08392754" >
      <name>rte1_27</name>
      <ele>740.54</ele>
    </rtept>
    <rtept lat="45.60764429" lon="15.08386989" >
      <name>rte1_28</name>
      <ele>740.54</ele>
    </rtept>
    <rtept lat="45.60767133" lon="15.08381224" >
      <name>rte1_29</name>
      <ele>740.54</ele>
    </rtept>
    <rtept lat="45.60770286" lon="15.08375459" >
      <name>rte1_30</name>
      <ele>740.54</ele>
    </rtept>
    <rtept lat="45.60772540" lon="15.08369694" >
      <name>rte1_31</name>
      <ele>740.54</ele>
    </rtept>
    <rtept lat="45.60775244" lon="15.08363287" >
      <name>rte1_32</name>
      <ele>745.59</ele>
    </rtept>
    <rtept lat="45.60777949" lon="15.08356881" >
      <name>rte1_33</name>
      <ele>745.59</ele>
    </rtept>
    <rtept lat="45.60780653" lon="15.08350475" >
      <name>rte1_34</name>
      <ele>745.59</ele>
    </rtept>
    <rtept lat="45.60782907" lon="15.08344068" >
      <name>rte1_35</name>
      <ele>745.59</ele>
    </rtept>
    <rtept lat="45.60785612" lon="15.08337021" >
      <name>rte1_36</name>
      <ele>745.00</ele>
    </rtept>
    <rtept lat="45.60787867" lon="15.08329973" >
      <name>rte1_37</name>
      <ele>745.00</ele>
    </rtept>
    <rtept lat="45.60790572" lon="15.08322285" >
      <name>rte1_38</name>
      <ele>745.00</ele>
    </rtept>
    <rtept lat="45.60792827" lon="15.08315237" >
      <name>rte1_39</name>
      <ele>745.00</ele>
    </rtept>
    <rtept lat="45.60795532" lon="15.08307549" >
      <name>rte1_40</name>
      <ele>745.00</ele>
    </rtept>
    <rtept lat="45.60798689" lon="15.08297938" >
      <name>rte1_41</name>
      <ele>743.93</ele>
    </rtept>
    <rtept lat="45.60802293" lon="15.08290893" >
      <name>rte1_42</name>
      <ele>743.93</ele>
    </rtept>
    <rtept lat="45.60806797" lon="15.08284489" >
      <name>rte1_43</name>
      <ele>743.93</ele>
    </rtept>
    <rtept lat="45.60811300" lon="15.08279368" >
      <name>rte1_44</name>
      <ele>743.93</ele>
    </rtept>
    <rtept lat="45.60816253" lon="15.08274888" >
      <name>rte1_45</name>
      <ele>743.93</ele>
    </rtept>
    <rtept lat="45.60821654" lon="15.08271691" >
      <name>rte1_46</name>
      <ele>739.21</ele>
    </rtept>
    <rtept lat="45.60827505" lon="15.08269136" >
      <name>rte1_47</name>
      <ele>739.21</ele>
    </rtept>
    <rtept lat="45.60833355" lon="15.08267221" >
      <name>rte1_48</name>
      <ele>739.21</ele>
    </rtept>
    <rtept lat="45.60839656" lon="15.08265308" >
      <name>rte1_49</name>
      <ele>739.21</ele>
    </rtept>
    <rtept lat="45.60845955" lon="15.08264035" >
      <name>rte1_50</name>
      <ele>742.64</ele>
    </rtept>
    <rtept lat="45.60852705" lon="15.08262763" >
      <name>rte1_51</name>
      <ele>742.64</ele>
    </rtept>
    <rtept lat="45.60859905" lon="15.08261492" >
      <name>rte1_52</name>
      <ele>742.64</ele>
    </rtept>
    <rtept lat="45.60866654" lon="15.08260220" >
      <name>rte1_53</name>
      <ele>747.12</ele>
    </rtept>
    <rtept lat="45.60873855" lon="15.08258308" >
      <name>rte1_54</name>
      <ele>747.12</ele>
    </rtept>
    <rtept lat="45.60881055" lon="15.08256395" >
      <name>rte1_55</name>
      <ele>747.12</ele>
    </rtept>
    <rtept lat="45.60888255" lon="15.08253842" >
      <name>rte1_56</name>
      <ele>750.00</ele>
    </rtept>
    <rtept lat="45.60892756" lon="15.08251285" >
      <name>rte1_57</name>
      <ele>750.00</ele>
    </rtept>
    <rtept lat="45.60897257" lon="15.08249368" >
      <name>rte1_58</name>
      <ele>750.00</ele>
    </rtept>
    <rtept lat="45.60901758" lon="15.08246811" >
      <name>rte1_59</name>
      <ele>750.00</ele>
    </rtept>
    <rtept lat="45.60905809" lon="15.08244253" >
      <name>rte1_60</name>
      <ele>750.00</ele>
    </rtept>
    <rtept lat="45.60913911" lon="15.08239136" >
      <name>rte1_61</name>
      <ele>749.36</ele>
    </rtept>
    <rtept lat="45.60921564" lon="15.08233379" >
      <name>rte1_62</name>
      <ele>749.36</ele>
    </rtept>
    <rtept lat="45.60928318" lon="15.08226978" >
      <name>rte1_63</name>
      <ele>749.36</ele>
    </rtept>
    <rtept lat="45.60935072" lon="15.08219937" >
      <name>rte1_64</name>
      <ele>755.65</ele>
    </rtept>
    <rtept lat="45.60940926" lon="15.08212253" >
      <name>rte1_65</name>
      <ele>755.65</ele>
    </rtept>
    <rtept lat="45.60946781" lon="15.08204569" >
      <name>rte1_66</name>
      <ele>748.34</ele>
    </rtept>
    <rtept lat="45.60951736" lon="15.08195602" >
      <name>rte1_67</name>
      <ele>748.34</ele>
    </rtept>
    <rtept lat="45.60956693" lon="15.08185994" >
      <name>rte1_68</name>
      <ele>754.21</ele>
    </rtept>
    <rtept lat="45.60961199" lon="15.08176385" >
      <name>rte1_69</name>
      <ele>750.00</ele>
    </rtept>
    <rtept lat="45.60965256" lon="15.08165493" >
      <name>rte1_70</name>
      <ele>750.00</ele>
    </rtept>
    <rtept lat="45.60969313" lon="15.08154601" >
      <name>rte1_71</name>
      <ele>750.00</ele>
    </rtept>
    <rtept lat="45.60971117" lon="15.08148835" >
      <name>rte1_72</name>
      <ele>750.00</ele>
    </rtept>
    <rtept lat="45.60972921" lon="15.08142427" >
      <name>rte1_73</name>
      <ele>751.59</ele>
    </rtept>
    <rtept lat="45.60974725" lon="15.08136660" >
      <name>rte1_74</name>
      <ele>751.59</ele>
    </rtept>
    <rtept lat="45.60976080" lon="15.08130252" >
      <name>rte1_75</name>
      <ele>751.59</ele>
    </rtept>
    <rtept lat="45.60977884" lon="15.08123844" >
      <name>rte1_76</name>
      <ele>752.08</ele>
    </rtept>
    <rtept lat="45.60979688" lon="15.08117436" >
      <name>rte1_77</name>
      <ele>752.08</ele>
    </rtept>
    <rtept lat="45.60982396" lon="15.08105901" >
      <name>rte1_78</name>
      <ele>755.06</ele>
    </rtept>
    <rtept lat="45.60985553" lon="15.08095649" >
      <name>rte1_79</name>
      <ele>755.06</ele>
    </rtept>
    <rtept lat="45.60988710" lon="15.08085397" >
      <name>rte1_80</name>
      <ele>755.06</ele>
    </rtept>
    <rtept lat="45.60991866" lon="15.08076427" >
      <name>rte1_81</name>
      <ele>757.84</ele>
    </rtept>
    <rtept lat="45.60995471" lon="15.08068099" >
      <name>rte1_82</name>
      <ele>757.84</ele>
    </rtept>
    <rtept lat="45.60999527" lon="15.08059771" >
      <name>rte1_83</name>
      <ele>759.58</ele>
    </rtept>
    <rtept lat="45.61003131" lon="15.08052084" >
      <name>rte1_84</name>
      <ele>759.58</ele>
    </rtept>
    <rtept lat="45.61007636" lon="15.08045039" >
      <name>rte1_85</name>
      <ele>757.24</ele>
    </rtept>
    <rtept lat="45.61011690" lon="15.08037352" >
      <name>rte1_86</name>
      <ele>757.24</ele>
    </rtept>
    <rtept lat="45.61016195" lon="15.08030307" >
      <name>rte1_87</name>
      <ele>757.24</ele>
    </rtept>
    <rtept lat="45.61021149" lon="15.08023263" >
      <name>rte1_88</name>
      <ele>757.24</ele>
    </rtept>
    <rtept lat="45.61026103" lon="15.08015577" >
      <name>rte1_89</name>
      <ele>757.62</ele>
    </rtept>
    <rtept lat="45.61031058" lon="15.08007892" >
      <name>rte1_90</name>
      <ele>757.62</ele>
    </rtept>
    <rtept lat="45.61036463" lon="15.08000207" >
      <name>rte1_91</name>
      <ele>757.62</ele>
    </rtept>
    <rtept lat="45.61042318" lon="15.07991241" >
      <name>rte1_92</name>
      <ele>757.62</ele>
    </rtept>
    <rtept lat="45.61048173" lon="15.07982916" >
      <name>rte1_93</name>
      <ele>761.51</ele>
    </rtept>
    <rtept lat="45.61053579" lon="15.07973308" >
      <name>rte1_94</name>
      <ele>761.51</ele>
    </rtept>
    <rtept lat="45.61058084" lon="15.07964339" >
      <name>rte1_95</name>
      <ele>761.51</ele>
    </rtept>
    <rtept lat="45.61062140" lon="15.07955371" >
      <name>rte1_96</name>
      <ele>761.51</ele>
    </rtept>
    <rtept lat="45.61065746" lon="15.07946401" >
      <name>rte1_97</name>
      <ele>760.00</ele>
    </rtept>
    <rtept lat="45.61068902" lon="15.07936790" >
      <name>rte1_98</name>
      <ele>765.14</ele>
    </rtept>
    <rtept lat="45.61071158" lon="15.07927818" >
      <name>rte1_99</name>
      <ele>765.14</ele>
    </rtept>
    <rtept lat="45.61072964" lon="15.07918205" >
      <name>rte1_100</name>
      <ele>767.80</ele>
    </rtept>
    <rtept lat="45.61074321" lon="15.07908591" >
      <name>rte1_101</name>
      <ele>767.80</ele>
    </rtept>
    <rtept lat="45.61075228" lon="15.07898335" >
      <name>rte1_102</name>
      <ele>767.80</ele>
    </rtept>
    <rtept lat="45.61075685" lon="15.07888720" >
      <name>rte1_103</name>
      <ele>770.00</ele>
    </rtept>
    <rtept lat="45.61075692" lon="15.07878463" >
      <name>rte1_104</name>
      <ele>770.00</ele>
    </rtept>
    <rtept lat="45.61075250" lon="15.07867565" >
      <name>rte1_105</name>
      <ele>770.00</ele>
    </rtept>
    <rtept lat="45.61074358" lon="15.07856665" >
      <name>rte1_106</name>
      <ele>765.71</ele>
    </rtept>
    <rtept lat="45.61073016" lon="15.07845765" >
      <name>rte1_107</name>
      <ele>765.71</ele>
    </rtept>
    <rtept lat="45.61071223" lon="15.07834865" >
      <name>rte1_108</name>
      <ele>765.71</ele>
    </rtept>
    <rtept lat="45.61069432" lon="15.07823323" >
      <name>rte1_109</name>
      <ele>764.54</ele>
    </rtept>
    <rtept lat="45.61067189" lon="15.07814345" >
      <name>rte1_110</name>
      <ele>764.54</ele>
    </rtept>
    <rtept lat="45.61064944" lon="15.07806649" >
      <name>rte1_111</name>
      <ele>760.23</ele>
    </rtept>
    <rtept lat="45.61061800" lon="15.07798952" >
      <name>rte1_112</name>
      <ele>760.23</ele>
    </rtept>
    <rtept lat="45.61058655" lon="15.07793178" >
      <name>rte1_113</name>
      <ele>760.23</ele>
    </rtept>
    <rtept lat="45.61055510" lon="15.07787404" >
      <name>rte1_114</name>
      <ele>765.44</ele>
    </rtept>
    <rtept lat="45.61051464" lon="15.07782270" >
      <name>rte1_115</name>
      <ele>765.44</ele>
    </rtept>
    <rtept lat="45.61047418" lon="15.07777136" >
      <name>rte1_116</name>
      <ele>765.44</ele>
    </rtept>
    <rtept lat="45.61042922" lon="15.07773283" >
      <name>rte1_117</name>
      <ele>761.17</ele>
    </rtept>
    <rtept lat="45.61037976" lon="15.07768789" >
      <name>rte1_118</name>
      <ele>761.17</ele>
    </rtept>
    <rtept lat="45.61033029" lon="15.07765577" >
      <name>rte1_119</name>
      <ele>761.17</ele>
    </rtept>
    <rtept lat="45.61028083" lon="15.07761723" >
      <name>rte1_120</name>
      <ele>761.17</ele>
    </rtept>
    <rtept lat="45.61022686" lon="15.07757870" >
      <name>rte1_121</name>
      <ele>765.23</ele>
    </rtept>
    <rtept lat="45.61016840" lon="15.07754656" >
      <name>rte1_122</name>
      <ele>767.75</ele>
    </rtept>
    <rtept lat="45.61011443" lon="15.07750802" >
      <name>rte1_123</name>
      <ele>767.75</ele>
    </rtept>
    <rtept lat="45.61005597" lon="15.07746948" >
      <name>rte1_124</name>
      <ele>767.75</ele>
    </rtept>
    <rtept lat="45.60999751" lon="15.07743093" >
      <name>rte1_125</name>
      <ele>767.75</ele>
    </rtept>
    <rtept lat="45.60993905" lon="15.07738597" >
      <name>rte1_126</name>
      <ele>769.15</ele>
    </rtept>
    <rtept lat="45.60988509" lon="15.07734103" >
      <name>rte1_127</name>
      <ele>769.15</ele>
    </rtept>
    <rtept lat="45.60984012" lon="15.07730250" >
      <name>rte1_128</name>
      <ele>769.15</ele>
    </rtept>
    <rtept lat="45.60979517" lon="15.07725115" >
      <name>rte1_129</name>
      <ele>767.22</ele>
    </rtept>
    <rtept lat="45.60975921" lon="15.07719982" >
      <name>rte1_130</name>
      <ele>763.68</ele>
    </rtept>
    <rtept lat="45.60972326" lon="15.07714207" >
      <name>rte1_131</name>
      <ele>763.68</ele>
    </rtept>
    <rtept lat="45.60968731" lon="15.07707151" >
      <name>rte1_132</name>
      <ele>763.68</ele>
    </rtept>
    <rtept lat="45.60966037" lon="15.07699454" >
      <name>rte1_133</name>
      <ele>763.68</ele>
    </rtept>
    <rtept lat="45.60961095" lon="15.07689191" >
      <name>rte1_134</name>
      <ele>761.05</ele>
    </rtept>
    <rtept lat="45.60955701" lon="15.07681491" >
      <name>rte1_135</name>
      <ele>761.05</ele>
    </rtept>
    <rtept lat="45.60949406" lon="15.07676354" >
      <name>rte1_136</name>
      <ele>763.74</ele>
    </rtept>
    <rtept lat="45.60942660" lon="15.07672498" >
      <name>rte1_137</name>
      <ele>763.74</ele>
    </rtept>
    <rtept lat="45.60935013" lon="15.07670564" >
      <name>rte1_138</name>
      <ele>763.74</ele>
    </rtept>
    <rtept lat="45.60926915" lon="15.07669271" >
      <name>rte1_139</name>
      <ele>764.56</ele>
    </rtept>
    <rtept lat="45.60918367" lon="15.07669259" >
      <name>rte1_140</name>
      <ele>764.56</ele>
    </rtept>
    <rtept lat="45.60909818" lon="15.07669247" >
      <name>rte1_141</name>
      <ele>764.56</ele>
    </rtept>
    <rtept lat="45.60903519" lon="15.07669238" >
      <name>rte1_142</name>
      <ele>766.33</ele>
    </rtept>
    <rtept lat="45.60897670" lon="15.07669871" >
      <name>rte1_143</name>
      <ele>766.33</ele>
    </rtept>
    <rtept lat="45.60892270" lon="15.07671146" >
      <name>rte1_144</name>
      <ele>766.33</ele>
    </rtept>
    <rtept lat="45.60886870" lon="15.07672420" >
      <name>rte1_145</name>
      <ele>766.33</ele>
    </rtept>
    <rtept lat="45.60881920" lon="15.07674336" >
      <name>rte1_146</name>
      <ele>774.00</ele>
    </rtept>
    <rtept lat="45.60876969" lon="15.07676252" >
      <name>rte1_147</name>
      <ele>774.00</ele>
    </rtept>
    <rtept lat="45.60872468" lon="15.07679451" >
      <name>rte1_148</name>
      <ele>774.00</ele>
    </rtept>
    <rtept lat="45.60867967" lon="15.07682650" >
      <name>rte1_149</name>
      <ele>774.00</ele>
    </rtept>
    <rtept lat="45.60863465" lon="15.07685849" >
      <name>rte1_150</name>
      <ele>777.14</ele>
    </rtept>
    <rtept lat="45.60859413" lon="15.07689690" >
      <name>rte1_151</name>
      <ele>777.14</ele>
    </rtept>
    <rtept lat="45.60855361" lon="15.07694171" >
      <name>rte1_152</name>
      <ele>777.14</ele>
    </rtept>
    <rtept lat="45.60850859" lon="15.07698652" >
      <name>rte1_153</name>
      <ele>770.00</ele>
    </rtept>
    <rtept lat="45.60846806" lon="15.07703775" >
      <name>rte1_154</name>
      <ele>770.00</ele>
    </rtept>
    <rtept lat="45.60842303" lon="15.07708897" >
      <name>rte1_155</name>
      <ele>770.00</ele>
    </rtept>
    <rtept lat="45.60837800" lon="15.07714660" >
      <name>rte1_156</name>
      <ele>772.38</ele>
    </rtept>
    <rtept lat="45.60833746" lon="15.07721064" >
      <name>rte1_157</name>
      <ele>772.38</ele>
    </rtept>
    <rtept lat="45.60829694" lon="15.07725546" >
      <name>rte1_158</name>
      <ele>772.38</ele>
    </rtept>
    <rtept lat="45.60825642" lon="15.07729386" >
      <name>rte1_159</name>
      <ele>765.49</ele>
    </rtept>
    <rtept lat="45.60821590" lon="15.07733227" >
      <name>rte1_160</name>
      <ele>765.49</ele>
    </rtept>
    <rtept lat="45.60817539" lon="15.07735785" >
      <name>rte1_161</name>
      <ele>766.72</ele>
    </rtept>
    <rtept lat="45.60809438" lon="15.07738979" >
      <name>rte1_162</name>
      <ele>766.72</ele>
    </rtept>
    <rtept lat="45.60800889" lon="15.07740249" >
      <name>rte1_163</name>
      <ele>766.72</ele>
    </rtept>
    <rtept lat="45.60796390" lon="15.07740242" >
      <name>rte1_164</name>
      <ele>767.00</ele>
    </rtept>
    <rtept lat="45.60791891" lon="15.07739595" >
      <name>rte1_165</name>
      <ele>767.00</ele>
    </rtept>
    <rtept lat="45.60786943" lon="15.07738947" >
      <name>rte1_166</name>
      <ele>767.00</ele>
    </rtept>
    <rtept lat="45.60782444" lon="15.07737659" >
      <name>rte1_167</name>
      <ele>767.00</ele>
    </rtept>
    <rtept lat="45.60777496" lon="15.07736370" >
      <name>rte1_168</name>
      <ele>767.00</ele>
    </rtept>
    <rtept lat="45.60772548" lon="15.07735081" >
      <name>rte1_169</name>
      <ele>770.00</ele>
    </rtept>
    <rtept lat="45.60767600" lon="15.07733151" >
      <name>rte1_170</name>
      <ele>770.00</ele>
    </rtept>
    <rtept lat="45.60762652" lon="15.07731862" >
      <name>rte1_171</name>
      <ele>770.00</ele>
    </rtept>
    <rtept lat="45.60756355" lon="15.07729289" >
      <name>rte1_172</name>
      <ele>770.00</ele>
    </rtept>
    <rtept lat="45.60750957" lon="15.07727358" >
      <name>rte1_173</name>
      <ele>775.14</ele>
    </rtept>
    <rtept lat="45.60745559" lon="15.07725427" >
      <name>rte1_174</name>
      <ele>775.14</ele>
    </rtept>
    <rtept lat="45.60740612" lon="15.07722856" >
      <name>rte1_175</name>
      <ele>775.14</ele>
    </rtept>
    <rtept lat="45.60735664" lon="15.07720926" >
      <name>rte1_176</name>
      <ele>775.14</ele>
    </rtept>
    <rtept lat="45.60731167" lon="15.07718356" >
      <name>rte1_177</name>
      <ele>775.14</ele>
    </rtept>
    <rtept lat="45.60726670" lon="15.07715786" >
      <name>rte1_178</name>
      <ele>775.13</ele>
    </rtept>
    <rtept lat="45.60722172" lon="15.07713215" >
      <name>rte1_179</name>
      <ele>775.13</ele>
    </rtept>
    <rtept lat="45.60717675" lon="15.07710004" >
      <name>rte1_180</name>
      <ele>775.13</ele>
    </rtept>
    <rtept lat="45.60713628" lon="15.07706793" >
      <name>rte1_181</name>
      <ele>775.13</ele>
    </rtept>
    <rtept lat="45.60709131" lon="15.07703582" >
      <name>rte1_182</name>
      <ele>775.13</ele>
    </rtept>
    <rtept lat="45.60705085" lon="15.07699730" >
      <name>rte1_183</name>
      <ele>775.00</ele>
    </rtept>
    <rtept lat="45.60700588" lon="15.07695878" >
      <name>rte1_184</name>
      <ele>780.00</ele>
    </rtept>
    <rtept lat="45.60696092" lon="15.07691384" >
      <name>rte1_185</name>
      <ele>780.00</ele>
    </rtept>
    <rtept lat="45.60691146" lon="15.07686890" >
      <name>rte1_186</name>
      <ele>780.00</ele>
    </rtept>
    <rtept lat="45.60686650" lon="15.07681756" >
      <name>rte1_187</name>
      <ele>780.00</ele>
    </rtept>
    <rtept lat="45.60679906" lon="15.07675336" >
      <name>rte1_188</name>
      <ele>780.00</ele>
    </rtept>
    <rtept lat="45.60674060" lon="15.07670841" >
      <name>rte1_189</name>
      <ele>780.00</ele>
    </rtept>
    <rtept lat="45.60667764" lon="15.07667627" >
      <name>rte1_190</name>
      <ele>780.00</ele>
    </rtept>
    <rtept lat="45.60661466" lon="15.07665054" >
      <name>rte1_191</name>
      <ele>777.56</ele>
    </rtept>
    <rtept lat="45.60655168" lon="15.07664404" >
      <name>rte1_192</name>
      <ele>777.56</ele>
    </rtept>
    <rtept lat="45.60648419" lon="15.07664395" >
      <name>rte1_193</name>
      <ele>777.56</ele>
    </rtept>
    <rtept lat="45.60641220" lon="15.07665026" >
      <name>rte1_194</name>
      <ele>777.56</ele>
    </rtept>
    <rtept lat="45.60633571" lon="15.07666297" >
      <name>rte1_195</name>
      <ele>769.48</ele>
    </rtept>
    <rtept lat="45.60628621" lon="15.07666931" >
      <name>rte1_196</name>
      <ele>769.48</ele>
    </rtept>
    <rtept lat="45.60623672" lon="15.07667566" >
      <name>rte1_197</name>
      <ele>769.48</ele>
    </rtept>
    <rtept lat="45.60615123" lon="15.07667554" >
      <name>rte1_198</name>
      <ele>764.08</ele>
    </rtept>
    <rtept lat="45.60607025" lon="15.07666901" >
      <name>rte1_199</name>
      <ele>764.08</ele>
    </rtept>
    <rtept lat="45.60599377" lon="15.07665609" >
      <name>rte1_200</name>
      <ele>764.08</ele>
    </rtept>
    <rtept lat="45.60591731" lon="15.07663034" >
      <name>rte1_201</name>
      <ele>775.85</ele>
    </rtept>
    <rtept lat="45.60584084" lon="15.07660459" >
      <name>rte1_202</name>
      <ele>775.85</ele>
    </rtept>
    <rtept lat="45.60575538" lon="15.07656601" >
      <name>rte1_203</name>
      <ele>775.85</ele>
    </rtept>
    <rtept lat="45.60571040" lon="15.07654672" >
      <name>rte1_204</name>
      <ele>775.66</ele>
    </rtept>
    <rtept lat="45.60566542" lon="15.07653384" >
      <name>rte1_205</name>
      <ele>775.66</ele>
    </rtept>
    <rtept lat="45.60561594" lon="15.07651454" >
      <name>rte1_206</name>
      <ele>775.66</ele>
    </rtept>
    <rtept lat="45.60557096" lon="15.07649525" >
      <name>rte1_207</name>
      <ele>775.66</ele>
    </rtept>
    <rtept lat="45.60552598" lon="15.07648236" >
      <name>rte1_208</name>
      <ele>775.66</ele>
    </rtept>
    <rtept lat="45.60548100" lon="15.07646948" >
      <name>rte1_209</name>
      <ele>770.87</ele>
    </rtept>
    <rtept lat="45.60539553" lon="15.07645013" >
      <name>rte1_210</name>
      <ele>770.87</ele>
    </rtept>
    <rtept lat="45.60531455" lon="15.07643720" >
      <name>rte1_211</name>
      <ele>770.87</ele>
    </rtept>
    <rtept lat="45.60523357" lon="15.07643068" >
      <name>rte1_212</name>
      <ele>770.26</ele>
    </rtept>
    <rtept lat="45.60515708" lon="15.07643057" >
      <name>rte1_213</name>
      <ele>770.26</ele>
    </rtept>
    <rtept lat="45.60508059" lon="15.07643688" >
      <name>rte1_214</name>
      <ele>770.26</ele>
    </rtept>
    <rtept lat="45.60500410" lon="15.07644959" >
      <name>rte1_215</name>
      <ele>773.78</ele>
    </rtept>
    <rtept lat="45.60492760" lon="15.07646230" >
      <name>rte1_216</name>
      <ele>773.78</ele>
    </rtept>
    <rtept lat="45.60485110" lon="15.07648784" >
      <name>rte1_217</name>
      <ele>773.78</ele>
    </rtept>
    <rtept lat="45.60477460" lon="15.07651337" >
      <name>rte1_218</name>
      <ele>775.91</ele>
    </rtept>
    <rtept lat="45.60469359" lon="15.07653890" >
      <name>rte1_219</name>
      <ele>775.91</ele>
    </rtept>
    <rtept lat="45.60461708" lon="15.07657725" >
      <name>rte1_220</name>
      <ele>775.91</ele>
    </rtept>
    <rtept lat="45.60453157" lon="15.07661559" >
      <name>rte1_221</name>
      <ele>776.05</ele>
    </rtept>
    <rtept lat="45.60444606" lon="15.07665393" >
      <name>rte1_222</name>
      <ele>770.32</ele>
    </rtept>
    <rtept lat="45.60440105" lon="15.07667950" >
      <name>rte1_223</name>
      <ele>770.32</ele>
    </rtept>
    <rtept lat="45.60435604" lon="15.07670508" >
      <name>rte1_224</name>
      <ele>774.59</ele>
    </rtept>
    <rtept lat="45.60430204" lon="15.07672424" >
      <name>rte1_225</name>
      <ele>774.59</ele>
    </rtept>
    <rtept lat="45.60425253" lon="15.07674340" >
      <name>rte1_226</name>
      <ele>774.59</ele>
    </rtept>
    <rtept lat="45.60421202" lon="15.07676898" >
      <name>rte1_227</name>
      <ele>774.59</ele>
    </rtept>
    <rtept lat="45.60416701" lon="15.07679455" >
      <name>rte1_228</name>
      <ele>774.59</ele>
    </rtept>
    <rtept lat="45.60409049" lon="15.07684573" >
      <name>rte1_229</name>
      <ele>779.09</ele>
    </rtept>
    <rtept lat="45.60401397" lon="15.07690331" >
      <name>rte1_230</name>
      <ele>779.09</ele>
    </rtept>
    <rtept lat="45.60394194" lon="15.07696090" >
      <name>rte1_231</name>
      <ele>776.79</ele>
    </rtept>
    <rtept lat="45.60386541" lon="15.07701848" >
      <name>rte1_232</name>
      <ele>775.58</ele>
    </rtept>
    <rtept lat="45.60382490" lon="15.07705047" >
      <name>rte1_233</name>
      <ele>775.58</ele>
    </rtept>
    <rtept lat="45.60377988" lon="15.07708886" >
      <name>rte1_234</name>
      <ele>775.58</ele>
    </rtept>
    <rtept lat="45.60373487" lon="15.07712085" >
      <name>rte1_235</name>
      <ele>775.58</ele>
    </rtept>
    <rtept lat="45.60368985" lon="15.07715925" >
      <name>rte1_236</name>
      <ele>775.59</ele>
    </rtept>
    <rtept lat="45.60363584" lon="15.07719122" >
      <name>rte1_237</name>
      <ele>775.59</ele>
    </rtept>
    <rtept lat="45.60358633" lon="15.07721038" >
      <name>rte1_238</name>
      <ele>775.59</ele>
    </rtept>
    <rtept lat="45.60353233" lon="15.07722312" >
      <name>rte1_239</name>
      <ele>775.59</ele>
    </rtept>
    <rtept lat="45.60348284" lon="15.07722946" >
      <name>rte1_240</name>
      <ele>775.59</ele>
    </rtept>
    <rtept lat="45.60343785" lon="15.07721658" >
      <name>rte1_241</name>
      <ele>778.54</ele>
    </rtept>
    <rtept lat="45.60339288" lon="15.07719088" >
      <name>rte1_242</name>
      <ele>778.54</ele>
    </rtept>
    <rtept lat="45.60335241" lon="15.07715236" >
      <name>rte1_243</name>
      <ele>778.54</ele>
    </rtept>
    <rtept lat="45.60332546" lon="15.07709464" >
      <name>rte1_244</name>
      <ele>778.54</ele>
    </rtept>
    <rtept lat="45.60330302" lon="15.07701769" >
      <name>rte1_245</name>
      <ele>778.54</ele>
    </rtept>
    <rtept lat="45.60329407" lon="15.07694717" >
      <name>rte1_246</name>
      <ele>779.04</ele>
    </rtept>
    <rtept lat="45.60329861" lon="15.07687667" >
      <name>rte1_247</name>
      <ele>779.04</ele>
    </rtept>
    <rtept lat="45.60331216" lon="15.07681259" >
      <name>rte1_248</name>
      <ele>779.04</ele>
    </rtept>
    <rtept lat="45.60333920" lon="15.07674853" >
      <name>rte1_249</name>
      <ele>779.04</ele>
    </rtept>
    <rtept lat="45.60337073" lon="15.07668448" >
      <name>rte1_250</name>
      <ele>779.04</ele>
    </rtept>
    <rtept lat="45.60341126" lon="15.07663326" >
      <name>rte1_251</name>
      <ele>800.00</ele>
    </rtept>
    <rtept lat="45.60346078" lon="15.07659487" >
      <name>rte1_252</name>
      <ele>800.00</ele>
    </rtept>
    <rtept lat="45.60350130" lon="15.07655646" >
      <name>rte1_253</name>
      <ele>790.53</ele>
    </rtept>
    <rtept lat="45.60354631" lon="15.07653089" >
      <name>rte1_254</name>
      <ele>790.53</ele>
    </rtept>
    <rtept lat="45.60362733" lon="15.07647972" >
      <name>rte1_255</name>
      <ele>790.53</ele>
    </rtept>
    <rtept lat="45.60370384" lon="15.07644137" >
      <name>rte1_256</name>
      <ele>787.14</ele>
    </rtept>
    <rtept lat="45.60378035" lon="15.07640302" >
      <name>rte1_257</name>
      <ele>787.14</ele>
    </rtept>
    <rtept lat="45.60385686" lon="15.07636467" >
      <name>rte1_258</name>
      <ele>787.14</ele>
    </rtept>
    <rtept lat="45.60393338" lon="15.07631990" >
      <name>rte1_259</name>
      <ele>787.44</ele>
    </rtept>
    <rtept lat="45.60400991" lon="15.07626232" >
      <name>rte1_260</name>
      <ele>797.68</ele>
    </rtept>
    <rtept lat="45.60405042" lon="15.07623033" >
      <name>rte1_261</name>
      <ele>797.68</ele>
    </rtept>
    <rtept lat="45.60409544" lon="15.07619193" >
      <name>rte1_262</name>
      <ele>797.68</ele>
    </rtept>
    <rtept lat="45.60412697" lon="15.07614070" >
      <name>rte1_263</name>
      <ele>797.68</ele>
    </rtept>
    <rtept lat="45.60417197" lon="15.07612153" >
      <name>rte1_264</name>
      <ele>791.64</ele>
    </rtept>
    <rtept lat="45.60422147" lon="15.07611519" >
      <name>rte1_265</name>
      <ele>791.64</ele>
    </rtept>
    <rtept lat="45.60427547" lon="15.07609603" >
      <name>rte1_266</name>
      <ele>791.64</ele>
    </rtept>
    <rtept lat="45.60433400" lon="15.07604484" >
      <name>rte1_267</name>
      <ele>791.64</ele>
    </rtept>
    <rtept lat="45.60438352" lon="15.07600004" >
      <name>rte1_268</name>
      <ele>786.12</ele>
    </rtept>
    <rtept lat="45.60443303" lon="15.07596165" >
      <name>rte1_269</name>
      <ele>796.54</ele>
    </rtept>
    <rtept lat="45.60450054" lon="15.07592969" >
      <name>rte1_270</name>
      <ele>796.54</ele>
    </rtept>
    <rtept lat="45.60456354" lon="15.07592337" >
      <name>rte1_271</name>
      <ele>796.54</ele>
    </rtept>
    <rtept lat="45.60462651" lon="15.07594268" >
      <name>rte1_272</name>
      <ele>790.00</ele>
    </rtept>
    <rtept lat="45.60468499" lon="15.07595558" >
      <name>rte1_273</name>
      <ele>790.00</ele>
    </rtept>
    <rtept lat="45.60474800" lon="15.07593003" >
      <name>rte1_274</name>
      <ele>790.00</ele>
    </rtept>
    <rtept lat="45.60477953" lon="15.07587239" >
      <name>rte1_275</name>
      <ele>790.00</ele>
    </rtept>
    <rtept lat="45.60479307" lon="15.07581472" >
      <name>rte1_276</name>
      <ele>790.00</ele>
    </rtept>
    <rtept lat="45.60479312" lon="15.07574421" >
      <name>rte1_277</name>
      <ele>790.00</ele>
    </rtept>
    <rtept lat="45.60478867" lon="15.07567369" >
      <name>rte1_278</name>
      <ele>798.93</ele>
    </rtept>
    <rtept lat="45.60478421" lon="15.07560318" >
      <name>rte1_279</name>
      <ele>798.93</ele>
    </rtept>
    <rtept lat="45.60478876" lon="15.07553267" >
      <name>rte1_280</name>
      <ele>798.93</ele>
    </rtept>
    <rtept lat="45.60480230" lon="15.07547500" >
      <name>rte1_281</name>
      <ele>798.93</ele>
    </rtept>
    <rtept lat="45.60483833" lon="15.07542377" >
      <name>rte1_282</name>
      <ele>794.17</ele>
    </rtept>
    <rtept lat="45.60489234" lon="15.07539180" >
      <name>rte1_283</name>
      <ele>794.17</ele>
    </rtept>
    <rtept lat="45.60494632" lon="15.07540469" >
      <name>rte1_284</name>
      <ele>794.17</ele>
    </rtept>
    <rtept lat="45.60500027" lon="15.07545605" >
      <name>rte1_285</name>
      <ele>794.17</ele>
    </rtept>
    <rtept lat="45.60504972" lon="15.07552021" >
      <name>rte1_286</name>
      <ele>795.12</ele>
    </rtept>
    <rtept lat="45.60509916" lon="15.07559720" >
      <name>rte1_287</name>
      <ele>795.12</ele>
    </rtept>
    <rtept lat="45.60515761" lon="15.07566138" >
      <name>rte1_288</name>
      <ele>795.12</ele>
    </rtept>
    <rtept lat="45.60521607" lon="15.07570633" >
      <name>rte1_289</name>
      <ele>780.61</ele>
    </rtept>
    <rtept lat="45.60528805" lon="15.07571284" >
      <name>rte1_290</name>
      <ele>780.03</ele>
    </rtept>
    <rtept lat="45.60533305" lon="15.07569367" >
      <name>rte1_291</name>
      <ele>780.03</ele>
    </rtept>
    <rtept lat="45.60537357" lon="15.07566168" >
      <name>rte1_292</name>
      <ele>796.36</ele>
    </rtept>
    <rtept lat="45.60544111" lon="15.07558485" >
      <name>rte1_293</name>
      <ele>796.36</ele>
    </rtept>
    <rtept lat="45.60550865" lon="15.07550161" >
      <name>rte1_294</name>
      <ele>797.69</ele>
    </rtept>
    <rtept lat="45.60554916" lon="15.07546962" >
      <name>rte1_295</name>
      <ele>797.69</ele>
    </rtept>
    <rtept lat="45.60559867" lon="15.07545046" >
      <name>rte1_296</name>
      <ele>797.69</ele>
    </rtept>
    <rtept lat="45.60567517" lon="15.07543133" >
      <name>rte1_297</name>
      <ele>797.69</ele>
    </rtept>
    <rtept lat="45.60574266" lon="15.07543143" >
      <name>rte1_298</name>
      <ele>795.28</ele>
    </rtept>
    <rtept lat="45.60581013" lon="15.07544434" >
      <name>rte1_299</name>
      <ele>795.28</ele>
    </rtept>
    <rtept lat="45.60587311" lon="15.07545724" >
      <name>rte1_300</name>
      <ele>795.28</ele>
    </rtept>
    <rtept lat="45.60594059" lon="15.07547657" >
      <name>rte1_301</name>
      <ele>795.28</ele>
    </rtept>
    <rtept lat="45.60600357" lon="15.07548306" >
      <name>rte1_302</name>
      <ele>790.00</ele>
    </rtept>
    <rtept lat="45.60607556" lon="15.07547675" >
      <name>rte1_303</name>
      <ele>790.00</ele>
    </rtept>
    <rtept lat="45.60615207" lon="15.07545122" >
      <name>rte1_304</name>
      <ele>790.00</ele>
    </rtept>
    <rtept lat="45.60621058" lon="15.07541925" >
      <name>rte1_305</name>
      <ele>790.00</ele>
    </rtept>
    <rtept lat="45.60626459" lon="15.07538727" >
      <name>rte1_306</name>
      <ele>790.00</ele>
    </rtept>
    <rtept lat="45.60631861" lon="15.07534889" >
      <name>rte1_307</name>
      <ele>800.00</ele>
    </rtept>
    <rtept lat="45.60636812" lon="15.07531690" >
      <name>rte1_308</name>
      <ele>800.00</ele>
    </rtept>
    <rtept lat="45.60641314" lon="15.07527850" >
      <name>rte1_309</name>
      <ele>796.55</ele>
    </rtept>
    <rtept lat="45.60645815" lon="15.07524011" >
      <name>rte1_310</name>
      <ele>796.55</ele>
    </rtept>
    <rtept lat="45.60649867" lon="15.07520170" >
      <name>rte1_311</name>
      <ele>796.55</ele>
    </rtept>
    <rtept lat="45.60654369" lon="15.07516330" >
      <name>rte1_312</name>
      <ele>796.55</ele>
    </rtept>
    <rtept lat="45.60658421" lon="15.07512490" >
      <name>rte1_313</name>
      <ele>796.55</ele>
    </rtept>
    <rtept lat="45.60662922" lon="15.07509291" >
      <name>rte1_314</name>
      <ele>793.10</ele>
    </rtept>
    <rtept lat="45.60667424" lon="15.07506092" >
      <name>rte1_315</name>
      <ele>793.10</ele>
    </rtept>
    <rtept lat="45.60672375" lon="15.07502893" >
      <name>rte1_316</name>
      <ele>800.00</ele>
    </rtept>
    <rtept lat="45.60677326" lon="15.07500336" >
      <name>rte1_317</name>
      <ele>800.00</ele>
    </rtept>
    <rtept lat="45.60682726" lon="15.07497780" >
      <name>rte1_318</name>
      <ele>800.00</ele>
    </rtept>
    <rtept lat="45.60688577" lon="15.07495864" >
      <name>rte1_319</name>
      <ele>800.00</ele>
    </rtept>
    <rtept lat="45.60694876" lon="15.07494591" >
      <name>rte1_320</name>
      <ele>800.00</ele>
    </rtept>
    <rtept lat="45.60700726" lon="15.07493317" >
      <name>rte1_321</name>
      <ele>800.00</ele>
    </rtept>
    <rtept lat="45.60707025" lon="15.07493326" >
      <name>rte1_322</name>
      <ele>800.00</ele>
    </rtept>
    <rtept lat="45.60712423" lon="15.07493974" >
      <name>rte1_323</name>
      <ele>800.00</ele>
    </rtept>
    <rtept lat="45.60717822" lon="15.07494622" >
      <name>rte1_324</name>
      <ele>800.00</ele>
    </rtept>
    <rtept lat="45.60722770" lon="15.07496552" >
      <name>rte1_325</name>
      <ele>800.00</ele>
    </rtept>
    <rtept lat="45.60727718" lon="15.07498482" >
      <name>rte1_326</name>
      <ele>800.00</ele>
    </rtept>
    <rtept lat="45.60732665" lon="15.07500412" >
      <name>rte1_327</name>
      <ele>801.23</ele>
    </rtept>
    <rtept lat="45.60737613" lon="15.07502983" >
      <name>rte1_328</name>
      <ele>801.23</ele>
    </rtept>
    <rtept lat="45.60742110" lon="15.07505553" >
      <name>rte1_329</name>
      <ele>800.00</ele>
    </rtept>
    <rtept lat="45.60747058" lon="15.07508124" >
      <name>rte1_330</name>
      <ele>800.00</ele>
    </rtept>
    <rtept lat="45.60752005" lon="15.07510053" >
      <name>rte1_331</name>
      <ele>800.00</ele>
    </rtept>
    <rtept lat="45.60757403" lon="15.07511984" >
      <name>rte1_332</name>
      <ele>800.00</ele>
    </rtept>
    <rtept lat="45.60762801" lon="15.07513914" >
      <name>rte1_333</name>
      <ele>800.00</ele>
    </rtept>
    <rtept lat="45.60768199" lon="15.07515204" >
      <name>rte1_334</name>
      <ele>800.00</ele>
    </rtept>
    <rtept lat="45.60774047" lon="15.07515853" >
      <name>rte1_335</name>
      <ele>800.00</ele>
    </rtept>
    <rtept lat="45.60780796" lon="15.07516503" >
      <name>rte1_336</name>
      <ele>800.00</ele>
    </rtept>
    <rtept lat="45.60787995" lon="15.07515872" >
      <name>rte1_337</name>
      <ele>800.00</ele>
    </rtept>
    <rtept lat="45.60794745" lon="15.07514599" >
      <name>rte1_338</name>
      <ele>800.00</ele>
    </rtept>
    <rtept lat="45.60801495" lon="15.07512685" >
      <name>rte1_339</name>
      <ele>800.00</ele>
    </rtept>
    <rtept lat="45.60807345" lon="15.07510770" >
      <name>rte1_340</name>
      <ele>800.00</ele>
    </rtept>
    <rtept lat="45.60813195" lon="15.07508214" >
      <name>rte1_341</name>
      <ele>800.00</ele>
    </rtept>
    <rtept lat="45.60819046" lon="15.07505658" >
      <name>rte1_342</name>
      <ele>800.00</ele>
    </rtept>
    <rtept lat="45.60824447" lon="15.07503101" >
      <name>rte1_343</name>
      <ele>800.00</ele>
    </rtept>
    <rtept lat="45.60830297" lon="15.07500545" >
      <name>rte1_344</name>
      <ele>800.00</ele>
    </rtept>
    <rtept lat="45.60835698" lon="15.07497988" >
      <name>rte1_345</name>
      <ele>800.00</ele>
    </rtept>
    <rtept lat="45.60841099" lon="15.07494791" >
      <name>rte1_346</name>
      <ele>800.00</ele>
    </rtept>
    <rtept lat="45.60846950" lon="15.07492875" >
      <name>rte1_347</name>
      <ele>800.00</ele>
    </rtept>
    <rtept lat="45.60852800" lon="15.07490960" >
      <name>rte1_348</name>
      <ele>800.00</ele>
    </rtept>
    <rtept lat="45.60858650" lon="15.07489045" >
      <name>rte1_349</name>
      <ele>800.00</ele>
    </rtept>
    <rtept lat="45.60865400" lon="15.07487772" >
      <name>rte1_350</name>
      <ele>804.78</ele>
    </rtept>
    <rtept lat="45.60872149" lon="15.07487141" >
      <name>rte1_351</name>
      <ele>804.78</ele>
    </rtept>
    <rtept lat="45.60879797" lon="15.07487792" >
      <name>rte1_352</name>
      <ele>804.78</ele>
    </rtept>
    <rtept lat="45.60887895" lon="15.07489085" >
      <name>rte1_353</name>
      <ele>810.00</ele>
    </rtept>
    <rtept lat="45.60895541" lon="15.07492301" >
      <name>rte1_354</name>
      <ele>810.00</ele>
    </rtept>
    <rtept lat="45.60902287" lon="15.07496156" >
      <name>rte1_355</name>
      <ele>810.00</ele>
    </rtept>
    <rtept lat="45.60908583" lon="15.07500652" >
      <name>rte1_356</name>
      <ele>810.00</ele>
    </rtept>
    <rtept lat="45.60915329" lon="15.07505148" >
      <name>rte1_357</name>
      <ele>800.00</ele>
    </rtept>
    <rtept lat="45.60922075" lon="15.07508363" >
      <name>rte1_358</name>
      <ele>800.00</ele>
    </rtept>
    <rtept lat="45.60929273" lon="15.07510296" >
      <name>rte1_359</name>
      <ele>800.00</ele>
    </rtept>
    <rtept lat="45.60937821" lon="15.07510949" >
      <name>rte1_360</name>
      <ele>800.00</ele>
    </rtept>
    <rtept lat="45.60943671" lon="15.07509675" >
      <name>rte1_361</name>
      <ele>800.00</ele>
    </rtept>
    <rtept lat="45.60949070" lon="15.07508400" >
      <name>rte1_362</name>
      <ele>800.00</ele>
    </rtept>
    <rtept lat="45.60954020" lon="15.07507124" >
      <name>rte1_363</name>
      <ele>800.00</ele>
    </rtept>
    <rtept lat="45.60958521" lon="15.07505208" >
      <name>rte1_364</name>
      <ele>800.00</ele>
    </rtept>
    <rtept lat="45.60963472" lon="15.07502650" >
      <name>rte1_365</name>
      <ele>806.88</ele>
    </rtept>
    <rtept lat="45.60967973" lon="15.07499451" >
      <name>rte1_366</name>
      <ele>806.88</ele>
    </rtept>
    <rtept lat="45.60972925" lon="15.07495612" >
      <name>rte1_367</name>
      <ele>806.88</ele>
    </rtept>
    <rtept lat="45.60978326" lon="15.07491773" >
      <name>rte1_368</name>
      <ele>802.70</ele>
    </rtept>
    <rtept lat="45.60984629" lon="15.07485371" >
      <name>rte1_369</name>
      <ele>802.70</ele>
    </rtept>
    <rtept lat="45.60990033" lon="15.07478968" >
      <name>rte1_370</name>
      <ele>802.70</ele>
    </rtept>
    <rtept lat="45.60994537" lon="15.07471922" >
      <name>rte1_371</name>
      <ele>810.30</ele>
    </rtept>
    <rtept lat="45.60999041" lon="15.07464877" >
      <name>rte1_372</name>
      <ele>810.30</ele>
    </rtept>
    <rtept lat="45.61003544" lon="15.07458472" >
      <name>rte1_373</name>
      <ele>815.00</ele>
    </rtept>
    <rtept lat="45.61008497" lon="15.07452710" >
      <name>rte1_374</name>
      <ele>815.00</ele>
    </rtept>
    <rtept lat="45.61014349" lon="15.07447589" >
      <name>rte1_375</name>
      <ele>815.00</ele>
    </rtept>
    <rtept lat="45.61021551" lon="15.07443753" >
      <name>rte1_376</name>
      <ele>815.00</ele>
    </rtept>
    <rtept lat="45.61027400" lon="15.07442479" >
      <name>rte1_377</name>
      <ele>811.45</ele>
    </rtept>
    <rtept lat="45.61032349" lon="15.07443126" >
      <name>rte1_378</name>
      <ele>811.45</ele>
    </rtept>
    <rtept lat="45.61037747" lon="15.07445057" >
      <name>rte1_379</name>
      <ele>811.45</ele>
    </rtept>
    <rtept lat="45.61044044" lon="15.07446988" >
      <name>rte1_380</name>
      <ele>811.45</ele>
    </rtept>
    <rtept lat="45.61049443" lon="15.07446996" >
      <name>rte1_381</name>
      <ele>809.68</ele>
    </rtept>
    <rtept lat="45.61054843" lon="15.07446362" >
      <name>rte1_382</name>
      <ele>809.68</ele>
    </rtept>
    <rtept lat="45.61059342" lon="15.07446368" >
      <name>rte1_383</name>
      <ele>809.68</ele>
    </rtept>
    <rtept lat="45.61064291" lon="15.07445734" >
      <name>rte1_384</name>
      <ele>809.68</ele>
    </rtept>
    <rtept lat="45.61073290" lon="15.07445746" >
      <name>rte1_385</name>
      <ele>811.48</ele>
    </rtept>
    <rtept lat="45.61078689" lon="15.07445753" >
      <name>rte1_386</name>
      <ele>811.48</ele>
    </rtept>
    <rtept lat="45.61084537" lon="15.07447043" >
      <name>rte1_387</name>
      <ele>811.48</ele>
    </rtept>
    <rtept lat="45.61089485" lon="15.07447691" >
      <name>rte1_388</name>
      <ele>816.73</ele>
    </rtept>
    <rtept lat="45.61094434" lon="15.07448980" >
      <name>rte1_389</name>
      <ele>816.73</ele>
    </rtept>
    <rtept lat="45.61098932" lon="15.07450268" >
      <name>rte1_390</name>
      <ele>816.73</ele>
    </rtept>
    <rtept lat="45.61103430" lon="15.07451556" >
      <name>rte1_391</name>
      <ele>816.73</ele>
    </rtept>
    <rtept lat="45.61111527" lon="15.07454773" >
      <name>rte1_392</name>
      <ele>816.73</ele>
    </rtept>
    <rtept lat="45.61119173" lon="15.07458629" >
      <name>rte1_393</name>
      <ele>820.00</ele>
    </rtept>
    <rtept lat="45.61126818" lon="15.07463768" >
      <name>rte1_394</name>
      <ele>820.00</ele>
    </rtept>
    <rtept lat="45.61134463" lon="15.07468907" >
      <name>rte1_395</name>
      <ele>820.00</ele>
    </rtept>
    <rtept lat="45.61138510" lon="15.07472118" >
      <name>rte1_396</name>
      <ele>820.00</ele>
    </rtept>
    <rtept lat="45.61143007" lon="15.07475330" >
      <name>rte1_397</name>
      <ele>817.14</ele>
    </rtept>
    <rtept lat="45.61147054" lon="15.07478540" >
      <name>rte1_398</name>
      <ele>817.14</ele>
    </rtept>
    <rtept lat="45.61152001" lon="15.07482394" >
      <name>rte1_399</name>
      <ele>817.14</ele>
    </rtept>
    <rtept lat="45.61157397" lon="15.07486247" >
      <name>rte1_400</name>
      <ele>820.00</ele>
    </rtept>
    <rtept lat="45.61162343" lon="15.07490741" >
      <name>rte1_401</name>
      <ele>820.00</ele>
    </rtept>
    <rtept lat="45.61167739" lon="15.07495236" >
      <name>rte1_402</name>
      <ele>820.00</ele>
    </rtept>
    <rtept lat="45.61172686" lon="15.07499089" >
      <name>rte1_403</name>
      <ele>820.00</ele>
    </rtept>
    <rtept lat="45.61177182" lon="15.07503583" >
      <name>rte1_404</name>
      <ele>820.00</ele>
    </rtept>
    <rtept lat="45.61181678" lon="15.07507436" >
      <name>rte1_405</name>
      <ele>820.00</ele>
    </rtept>
    <rtept lat="45.61186175" lon="15.07511929" >
      <name>rte1_406</name>
      <ele>820.00</ele>
    </rtept>
    <rtept lat="45.61190671" lon="15.07515782" >
      <name>rte1_407</name>
      <ele>820.00</ele>
    </rtept>
    <rtept lat="45.61194718" lon="15.07519634" >
      <name>rte1_408</name>
      <ele>820.00</ele>
    </rtept>
    <rtept lat="45.61199214" lon="15.07524128" >
      <name>rte1_409</name>
      <ele>820.00</ele>
    </rtept>
    <rtept lat="45.61203261" lon="15.07527979" >
      <name>rte1_410</name>
      <ele>824.55</ele>
    </rtept>
    <rtept lat="45.61207307" lon="15.07531831" >
      <name>rte1_411</name>
      <ele>824.55</ele>
    </rtept>
    <rtept lat="45.61210904" lon="15.07536324" >
      <name>rte1_412</name>
      <ele>824.55</ele>
    </rtept>
    <rtept lat="45.61214950" lon="15.07540176" >
      <name>rte1_413</name>
      <ele>820.00</ele>
    </rtept>
    <rtept lat="45.61218997" lon="15.07544028" >
      <name>rte1_414</name>
      <ele>820.00</ele>
    </rtept>
    <rtept lat="45.61223044" lon="15.07547880" >
      <name>rte1_415</name>
      <ele>820.00</ele>
    </rtept>
    <rtept lat="45.61226640" lon="15.07551731" >
      <name>rte1_416</name>
      <ele>822.90</ele>
    </rtept>
    <rtept lat="45.61230687" lon="15.07555583" >
      <name>rte1_417</name>
      <ele>822.90</ele>
    </rtept>
    <rtept lat="45.61234733" lon="15.07560076" >
      <name>rte1_418</name>
      <ele>822.90</ele>
    </rtept>
    <rtept lat="45.61238780" lon="15.07563928" >
      <name>rte1_419</name>
      <ele>822.90</ele>
    </rtept>
    <rtept lat="45.61242826" lon="15.07567780" >
      <name>rte1_420</name>
      <ele>822.90</ele>
    </rtept>
    <rtept lat="45.61246873" lon="15.07571633" >
      <name>rte1_421</name>
      <ele>817.76</ele>
    </rtept>
    <rtept lat="45.61250920" lon="15.07575485" >
      <name>rte1_422</name>
      <ele>817.76</ele>
    </rtept>
    <rtept lat="45.61255416" lon="15.07579337" >
      <name>rte1_423</name>
      <ele>817.76</ele>
    </rtept>
    <rtept lat="45.61259913" lon="15.07583190" >
      <name>rte1_424</name>
      <ele>817.76</ele>
    </rtept>
    <rtept lat="45.61264409" lon="15.07587043" >
      <name>rte1_425</name>
      <ele>817.76</ele>
    </rtept>
    <rtept lat="45.61268906" lon="15.07590895" >
      <name>rte1_426</name>
      <ele>817.76</ele>
    </rtept>
    <rtept lat="45.61273852" lon="15.07594749" >
      <name>rte1_427</name>
      <ele>819.91</ele>
    </rtept>
    <rtept lat="45.61278799" lon="15.07598602" >
      <name>rte1_428</name>
      <ele>819.91</ele>
    </rtept>
    <rtept lat="45.61284195" lon="15.07602456" >
      <name>rte1_429</name>
      <ele>809.32</ele>
    </rtept>
    <rtept lat="45.61289592" lon="15.07606310" >
      <name>rte1_430</name>
      <ele>809.32</ele>
    </rtept>
    <rtept lat="45.61295437" lon="15.07610806" >
      <name>rte1_431</name>
      <ele>812.50</ele>
    </rtept>
    <rtept lat="45.61299935" lon="15.07613376" >
      <name>rte1_432</name>
      <ele>812.50</ele>
    </rtept>
    <rtept lat="45.61304432" lon="15.07615947" >
      <name>rte1_433</name>
      <ele>812.50</ele>
    </rtept>
    <rtept lat="45.61312979" lon="15.07618523" >
      <name>rte1_434</name>
      <ele>812.50</ele>
    </rtept>
    <rtept lat="45.61321527" lon="15.07619176" >
      <name>rte1_435</name>
      <ele>810.00</ele>
    </rtept>
    <rtept lat="45.61326476" lon="15.07618542" >
      <name>rte1_436</name>
      <ele>810.00</ele>
    </rtept>
    <rtept lat="45.61331876" lon="15.07617267" >
      <name>rte1_437</name>
      <ele>810.00</ele>
    </rtept>
    <rtept lat="45.61313859" lon="15.07647373" >
      <name>rte1_438</name>
      <ele>805.21</ele>
    </rtept>
    <rtept lat="45.61259828" lon="15.07706918" >
      <name>rte1_439</name>
      <ele>800.00</ele>
    </rtept>
    <rtept lat="45.61223804" lon="15.07751743" >
      <name>rte1_440</name>
      <ele>800.00</ele>
    </rtept>
    <rtept lat="45.61199022" lon="15.07802993" >
      <name>rte1_441</name>
      <ele>795.19</ele>
    </rtept>
    <rtept lat="45.61178731" lon="15.07867072" >
      <name>rte1_442</name>
      <ele>788.58</ele>
    </rtept>
    <rtept lat="45.61151691" lon="15.07930498" >
      <name>rte1_443</name>
      <ele>785.52</ele>
    </rtept>
    <rtept lat="45.61106171" lon="15.08040054" >
      <name>rte1_444</name>
      <ele>777.33</ele>
    </rtept>
    <rtept lat="45.61068332" lon="15.08103464" >
      <name>rte1_445</name>
      <ele>767.22</ele>
    </rtept>
    <rtept lat="45.61045332" lon="15.08177792" >
      <name>rte1_446</name>
      <ele>770.00</ele>
    </rtept>
    <rtept lat="45.61016509" lon="15.08216212" >
      <name>rte1_447</name>
      <ele>764.35</ele>
    </rtept>
    <rtept lat="45.60944018" lon="15.08289824" >
      <name>rte1_448</name>
      <ele>770.00</ele>
    </rtept>
    <rtept lat="45.60910239" lon="15.08337851" >
      <name>rte1_449</name>
      <ele>773.44</ele>
    </rtept>
    <rtept lat="45.60899429" lon="15.08353219" >
      <name>rte1_450</name>
      <ele>767.04</ele>
    </rtept>
    <rtept lat="45.60892668" lon="15.08369876" >
      <name>rte1_451</name>
      <ele>770.00</ele>
    </rtept>
    <rtept lat="45.60888157" lon="15.08385895" >
      <name>rte1_452</name>
      <ele>770.00</ele>
    </rtept>
    <rtept lat="45.60869662" lon="15.08449329" >
      <name>rte1_453</name>
      <ele>768.86</ele>
    </rtept>
    <rtept lat="45.60865596" lon="15.08472400" >
      <name>rte1_454</name>
      <ele>767.68</ele>
    </rtept>
    <rtept lat="45.60854331" lon="15.08494819" >
      <name>rte1_455</name>
      <ele>765.00</ele>
    </rtept>
    <rtept lat="45.60847565" lon="15.08516604" >
      <name>rte1_456</name>
      <ele>765.00</ele>
    </rtept>
    <rtept lat="45.60840806" lon="15.08530055" >
      <name>rte1_457</name>
      <ele>760.00</ele>
    </rtept>
    <rtept lat="45.60825030" lon="15.08568492" >
      <name>rte1_458</name>
      <ele>765.00</ele>
    </rtept>
    <rtept lat="45.60811523" lon="15.08581292" >
      <name>rte1_459</name>
      <ele>760.00</ele>
    </rtept>
    <rtept lat="45.60802072" lon="15.08583841" >
      <name>rte1_460</name>
      <ele>760.00</ele>
    </rtept>
    <rtept lat="45.60784508" lon="15.08606891" >
      <name>rte1_461</name>
      <ele>761.61</ele>
    </rtept>
    <rtept lat="45.60779993" lon="15.08627397" >
      <name>rte1_462</name>
      <ele>765.00</ele>
    </rtept>
  </rte>
</gpx>
