<?xml version="1.0" encoding="UTF-8" standalone="no" ?>
<gpx xmlns="http://www.topografix.com/GPX/1/1"
creator="OCAD 2020.5.5.3227" version="1.1"
xmlns:xsi="http://www.w3.org/2001/XMLSchema-instance" 
xsi:schemaLocation="http://www.topografix.com/GPX/1/1 
http://www.topografix.com/GPX/1/1/gpx.xsd">

  <metadata>
    <name>Pot na Smuk – Gornje Laze</name>
    <desc>Bela krajina - Pot na Smuk – Gornje Laze</desc>
    <time>2020-11-05T08:42:39</time>
    <bounds maxlat="45.86687249" maxlon="15.60571704" minlat="45.32979540" minlon="14.93303760"/>
  </metadata>

  <rte>
    <name>rte1</name>
    <cmt>pohodne poti za izris profilov</cmt>
    <rtept lat="45.65213627" lon="15.18007094" >
      <name>rte1_0</name>
      <ele>244.30</ele>
    </rtept>
    <rtept lat="45.65227587" lon="15.17999441" >
      <name>rte1_1</name>
      <ele>250.00</ele>
    </rtept>
    <rtept lat="45.65247844" lon="15.17992450" >
      <name>rte1_2</name>
      <ele>255.67</ele>
    </rtept>
    <rtept lat="45.65263625" lon="15.17970688" >
      <name>rte1_3</name>
      <ele>260.00</ele>
    </rtept>
    <rtept lat="45.65288382" lon="15.17963712" >
      <name>rte1_4</name>
      <ele>270.00</ele>
    </rtept>
    <rtept lat="45.65315365" lon="15.17970856" >
      <name>rte1_5</name>
      <ele>270.00</ele>
    </rtept>
    <rtept lat="45.65335616" lon="15.17967713" >
      <name>rte1_6</name>
      <ele>273.93</ele>
    </rtept>
    <rtept lat="45.65351400" lon="15.17944669" >
      <name>rte1_7</name>
      <ele>280.00</ele>
    </rtept>
    <rtept lat="45.65364453" lon="15.17941503" >
      <name>rte1_8</name>
      <ele>282.94</ele>
    </rtept>
    <rtept lat="45.65373455" lon="15.17938966" >
      <name>rte1_9</name>
      <ele>282.94</ele>
    </rtept>
    <rtept lat="45.65389647" lon="15.17942226" >
      <name>rte1_10</name>
      <ele>290.00</ele>
    </rtept>
    <rtept lat="45.65405383" lon="15.17948692" >
      <name>rte1_11</name>
      <ele>293.03</ele>
    </rtept>
    <rtept lat="45.65418856" lon="15.17964133" >
      <name>rte1_12</name>
      <ele>293.03</ele>
    </rtept>
    <rtept lat="45.65445829" lon="15.17977693" >
      <name>rte1_13</name>
      <ele>297.75</ele>
    </rtept>
    <rtept lat="45.65446306" lon="15.17961014" >
      <name>rte1_14</name>
      <ele>300.00</ele>
    </rtept>
    <rtept lat="45.65447706" lon="15.17929582" >
      <name>rte1_15</name>
      <ele>310.00</ele>
    </rtept>
    <rtept lat="45.65454506" lon="15.17896885" >
      <name>rte1_16</name>
      <ele>315.67</ele>
    </rtept>
    <rtept lat="45.65466265" lon="15.17858429" >
      <name>rte1_17</name>
      <ele>320.00</ele>
    </rtept>
    <rtept lat="45.65496926" lon="15.17815543" >
      <name>rte1_18</name>
      <ele>334.39</ele>
    </rtept>
    <rtept lat="45.65501883" lon="15.17810426" >
      <name>rte1_19</name>
      <ele>334.39</ele>
    </rtept>
    <rtept lat="45.65506390" lon="15.17805950" >
      <name>rte1_20</name>
      <ele>337.27</ele>
    </rtept>
    <rtept lat="45.65510895" lon="15.17802115" >
      <name>rte1_21</name>
      <ele>344.50</ele>
    </rtept>
    <rtept lat="45.65515400" lon="15.17798280" >
      <name>rte1_22</name>
      <ele>344.50</ele>
    </rtept>
    <rtept lat="45.65519905" lon="15.17794445" >
      <name>rte1_23</name>
      <ele>344.50</ele>
    </rtept>
    <rtept lat="45.65524408" lon="15.17791893" >
      <name>rte1_24</name>
      <ele>344.50</ele>
    </rtept>
    <rtept lat="45.65528913" lon="15.17788699" >
      <name>rte1_25</name>
      <ele>344.50</ele>
    </rtept>
    <rtept lat="45.65533416" lon="15.17786148" >
      <name>rte1_26</name>
      <ele>350.00</ele>
    </rtept>
    <rtept lat="45.65537918" lon="15.17784237" >
      <name>rte1_27</name>
      <ele>350.00</ele>
    </rtept>
    <rtept lat="45.65542420" lon="15.17782327" >
      <name>rte1_28</name>
      <ele>350.00</ele>
    </rtept>
    <rtept lat="45.65546922" lon="15.17780417" >
      <name>rte1_29</name>
      <ele>350.00</ele>
    </rtept>
    <rtept lat="45.65551873" lon="15.17779149" >
      <name>rte1_30</name>
      <ele>350.00</ele>
    </rtept>
    <rtept lat="45.65557275" lon="15.17777242" >
      <name>rte1_31</name>
      <ele>363.90</ele>
    </rtept>
    <rtept lat="45.65562675" lon="15.17776618" >
      <name>rte1_32</name>
      <ele>363.90</ele>
    </rtept>
    <rtept lat="45.65568076" lon="15.17775352" >
      <name>rte1_33</name>
      <ele>370.90</ele>
    </rtept>
    <rtept lat="45.65574376" lon="15.17774730" >
      <name>rte1_34</name>
      <ele>370.90</ele>
    </rtept>
    <rtept lat="45.65578876" lon="15.17774103" >
      <name>rte1_35</name>
      <ele>384.33</ele>
    </rtept>
    <rtept lat="45.65583376" lon="15.17773476" >
      <name>rte1_36</name>
      <ele>384.33</ele>
    </rtept>
    <rtept lat="45.65587876" lon="15.17772849" >
      <name>rte1_37</name>
      <ele>384.33</ele>
    </rtept>
    <rtept lat="45.65592375" lon="15.17772863" >
      <name>rte1_38</name>
      <ele>384.33</ele>
    </rtept>
    <rtept lat="45.65600475" lon="15.17772248" >
      <name>rte1_39</name>
      <ele>381.41</ele>
    </rtept>
    <rtept lat="45.65608124" lon="15.17771630" >
      <name>rte1_40</name>
      <ele>381.41</ele>
    </rtept>
    <rtept lat="45.65615777" lon="15.17769089" >
      <name>rte1_41</name>
      <ele>381.41</ele>
    </rtept>
    <rtept lat="45.65622980" lon="15.17765904" >
      <name>rte1_42</name>
      <ele>394.23</ele>
    </rtept>
    <rtept lat="45.65630637" lon="15.17760796" >
      <name>rte1_43</name>
      <ele>394.23</ele>
    </rtept>
    <rtept lat="45.65634242" lon="15.17756958" >
      <name>rte1_44</name>
      <ele>394.23</ele>
    </rtept>
    <rtept lat="45.65638298" lon="15.17753121" >
      <name>rte1_45</name>
      <ele>394.23</ele>
    </rtept>
    <rtept lat="45.65641905" lon="15.17748000" >
      <name>rte1_46</name>
      <ele>394.23</ele>
    </rtept>
    <rtept lat="45.65645511" lon="15.17743520" >
      <name>rte1_47</name>
      <ele>410.28</ele>
    </rtept>
    <rtept lat="45.65651823" lon="15.17735200" >
      <name>rte1_48</name>
      <ele>410.28</ele>
    </rtept>
    <rtept lat="45.65657685" lon="15.17726878" >
      <name>rte1_49</name>
      <ele>410.28</ele>
    </rtept>
    <rtept lat="45.65662648" lon="15.17717912" >
      <name>rte1_50</name>
      <ele>410.28</ele>
    </rtept>
    <rtept lat="45.65667161" lon="15.17708944" >
      <name>rte1_51</name>
      <ele>434.77</ele>
    </rtept>
    <rtept lat="45.65671676" lon="15.17698693" >
      <name>rte1_52</name>
      <ele>434.77</ele>
    </rtept>
    <rtept lat="45.65676193" lon="15.17687801" >
      <name>rte1_53</name>
      <ele>434.77</ele>
    </rtept>
    <rtept lat="45.65678452" lon="15.17681392" >
      <name>rte1_54</name>
      <ele>434.77</ele>
    </rtept>
    <rtept lat="45.65680711" lon="15.17675625" >
      <name>rte1_55</name>
      <ele>438.72</ele>
    </rtept>
    <rtept lat="45.65681164" lon="15.17673702" >
      <name>rte1_56</name>
      <ele>438.72</ele>
    </rtept>
    <rtept lat="45.65681616" lon="15.17672420" >
      <name>rte1_57</name>
      <ele>438.72</ele>
    </rtept>
    <rtept lat="45.65685229" lon="15.17663449" >
      <name>rte1_58</name>
      <ele>438.72</ele>
    </rtept>
    <rtept lat="45.65690636" lon="15.17658334" >
      <name>rte1_59</name>
      <ele>453.41</ele>
    </rtept>
    <rtept lat="45.65697386" lon="15.17657714" >
      <name>rte1_60</name>
      <ele>453.41</ele>
    </rtept>
    <rtept lat="45.65705032" lon="15.17659021" >
      <name>rte1_61</name>
      <ele>453.41</ele>
    </rtept>
    <rtept lat="45.65713124" lon="15.17663538" >
      <name>rte1_62</name>
      <ele>463.92</ele>
    </rtept>
    <rtept lat="45.65717169" lon="15.17666117" >
      <name>rte1_63</name>
      <ele>463.92</ele>
    </rtept>
    <rtept lat="45.65721213" lon="15.17669338" >
      <name>rte1_64</name>
      <ele>463.92</ele>
    </rtept>
    <rtept lat="45.65724807" lon="15.17672557" >
      <name>rte1_65</name>
      <ele>463.92</ele>
    </rtept>
    <rtept lat="45.65728850" lon="15.17676420" >
      <name>rte1_66</name>
      <ele>463.92</ele>
    </rtept>
    <rtept lat="45.65735587" lon="15.17684140" >
      <name>rte1_67</name>
      <ele>465.00</ele>
    </rtept>
    <rtept lat="45.65741425" lon="15.17691216" >
      <name>rte1_68</name>
      <ele>465.00</ele>
    </rtept>
    <rtept lat="45.65747714" lon="15.17697652" >
      <name>rte1_69</name>
      <ele>465.00</ele>
    </rtept>
    <rtept lat="45.65754003" lon="15.17703446" >
      <name>rte1_70</name>
      <ele>465.00</ele>
    </rtept>
    <rtept lat="45.65760294" lon="15.17708599" >
      <name>rte1_71</name>
      <ele>475.00</ele>
    </rtept>
    <rtept lat="45.65766587" lon="15.17712469" >
      <name>rte1_72</name>
      <ele>470.00</ele>
    </rtept>
    <rtept lat="45.65772880" lon="15.17715697" >
      <name>rte1_73</name>
      <ele>470.00</ele>
    </rtept>
    <rtept lat="45.65779175" lon="15.17718283" >
      <name>rte1_74</name>
      <ele>470.00</ele>
    </rtept>
    <rtept lat="45.65785920" lon="15.17720871" >
      <name>rte1_75</name>
      <ele>470.00</ele>
    </rtept>
    <rtept lat="45.65792217" lon="15.17722174" >
      <name>rte1_76</name>
      <ele>470.00</ele>
    </rtept>
    <rtept lat="45.65798963" lon="15.17723479" >
      <name>rte1_77</name>
      <ele>470.00</ele>
    </rtept>
    <rtept lat="45.65806161" lon="15.17724144" >
      <name>rte1_78</name>
      <ele>495.00</ele>
    </rtept>
    <rtept lat="45.65813359" lon="15.17724166" >
      <name>rte1_79</name>
      <ele>495.00</ele>
    </rtept>
    <rtept lat="45.65820558" lon="15.17724189" >
      <name>rte1_80</name>
      <ele>495.00</ele>
    </rtept>
    <rtept lat="45.65828206" lon="15.17724214" >
      <name>rte1_81</name>
      <ele>495.00</ele>
    </rtept>
    <rtept lat="45.65836306" lon="15.17723598" >
      <name>rte1_82</name>
      <ele>495.00</ele>
    </rtept>
    <rtept lat="45.65844854" lon="15.17723625" >
      <name>rte1_83</name>
      <ele>495.00</ele>
    </rtept>
    <rtept lat="45.65849354" lon="15.17722998" >
      <name>rte1_84</name>
      <ele>495.00</ele>
    </rtept>
    <rtept lat="45.65854304" lon="15.17722372" >
      <name>rte1_85</name>
      <ele>495.00</ele>
    </rtept>
    <rtept lat="45.65858804" lon="15.17721745" >
      <name>rte1_86</name>
      <ele>495.00</ele>
    </rtept>
    <rtept lat="45.65863305" lon="15.17721118" >
      <name>rte1_87</name>
      <ele>495.00</ele>
    </rtept>
    <rtept lat="45.65871856" lon="15.17719220" >
      <name>rte1_88</name>
      <ele>499.35</ele>
    </rtept>
    <rtept lat="45.65879957" lon="15.17717321" >
      <name>rte1_89</name>
      <ele>499.35</ele>
    </rtept>
    <rtept lat="45.65888058" lon="15.17716064" >
      <name>rte1_90</name>
      <ele>499.35</ele>
    </rtept>
    <rtept lat="45.65896159" lon="15.17714165" >
      <name>rte1_91</name>
      <ele>504.57</ele>
    </rtept>
    <rtept lat="45.65903811" lon="15.17712264" >
      <name>rte1_92</name>
      <ele>506.68</ele>
    </rtept>
    <rtept lat="45.65911461" lon="15.17711005" >
      <name>rte1_93</name>
      <ele>506.68</ele>
    </rtept>
    <rtept lat="45.65918661" lon="15.17710387" >
      <name>rte1_94</name>
      <ele>510.00</ele>
    </rtept>
    <rtept lat="45.65926310" lon="15.17709770" >
      <name>rte1_95</name>
      <ele>510.00</ele>
    </rtept>
    <rtept lat="45.65933508" lon="15.17710434" >
      <name>rte1_96</name>
      <ele>510.00</ele>
    </rtept>
    <rtept lat="45.65941154" lon="15.17711742" >
      <name>rte1_97</name>
      <ele>515.00</ele>
    </rtept>
    <rtept lat="45.65949250" lon="15.17713692" >
      <name>rte1_98</name>
      <ele>513.55</ele>
    </rtept>
    <rtept lat="45.65956894" lon="15.17716283" >
      <name>rte1_99</name>
      <ele>513.55</ele>
    </rtept>
    <rtept lat="45.65960940" lon="15.17718221" >
      <name>rte1_100</name>
      <ele>515.00</ele>
    </rtept>
    <rtept lat="45.65965435" lon="15.17720802" >
      <name>rte1_101</name>
      <ele>515.00</ele>
    </rtept>
    <rtept lat="45.65969481" lon="15.17723381" >
      <name>rte1_102</name>
      <ele>515.00</ele>
    </rtept>
    <rtept lat="45.65973975" lon="15.17726603" >
      <name>rte1_103</name>
      <ele>515.00</ele>
    </rtept>
    <rtept lat="45.65978918" lon="15.17730469" >
      <name>rte1_104</name>
      <ele>515.00</ele>
    </rtept>
    <rtept lat="45.65983860" lon="15.17734976" >
      <name>rte1_105</name>
      <ele>520.00</ele>
    </rtept>
    <rtept lat="45.65988802" lon="15.17739483" >
      <name>rte1_106</name>
      <ele>520.00</ele>
    </rtept>
    <rtept lat="45.65993293" lon="15.17744630" >
      <name>rte1_107</name>
      <ele>520.00</ele>
    </rtept>
    <rtept lat="45.65997783" lon="15.17750419" >
      <name>rte1_108</name>
      <ele>518.26</ele>
    </rtept>
    <rtept lat="45.66001823" lon="15.17756207" >
      <name>rte1_109</name>
      <ele>518.26</ele>
    </rtept>
    <rtept lat="45.66005862" lon="15.17762636" >
      <name>rte1_110</name>
      <ele>520.00</ele>
    </rtept>
    <rtept lat="45.66009901" lon="15.17769065" >
      <name>rte1_111</name>
      <ele>520.00</ele>
    </rtept>
    <rtept lat="45.66013490" lon="15.17775493" >
      <name>rte1_112</name>
      <ele>520.00</ele>
    </rtept>
    <rtept lat="45.66017080" lon="15.17781920" >
      <name>rte1_113</name>
      <ele>520.00</ele>
    </rtept>
    <rtept lat="45.66020669" lon="15.17788348" >
      <name>rte1_114</name>
      <ele>520.00</ele>
    </rtept>
    <rtept lat="45.66024257" lon="15.17795417" >
      <name>rte1_115</name>
      <ele>520.00</ele>
    </rtept>
    <rtept lat="45.66027846" lon="15.17801845" >
      <name>rte1_116</name>
      <ele>520.00</ele>
    </rtept>
    <rtept lat="45.66031435" lon="15.17808273" >
      <name>rte1_117</name>
      <ele>520.00</ele>
    </rtept>
    <rtept lat="45.66034575" lon="15.17814699" >
      <name>rte1_118</name>
      <ele>520.00</ele>
    </rtept>
    <rtept lat="45.66038164" lon="15.17821127" >
      <name>rte1_119</name>
      <ele>520.00</ele>
    </rtept>
    <rtept lat="45.66041304" lon="15.17826911" >
      <name>rte1_120</name>
      <ele>520.00</ele>
    </rtept>
    <rtept lat="45.66044894" lon="15.17832698" >
      <name>rte1_121</name>
      <ele>520.00</ele>
    </rtept>
    <rtept lat="45.66048036" lon="15.17837841" >
      <name>rte1_122</name>
      <ele>520.00</ele>
    </rtept>
    <rtept lat="45.66051627" lon="15.17842985" >
      <name>rte1_123</name>
      <ele>524.02</ele>
    </rtept>
    <rtept lat="45.66055219" lon="15.17847488" >
      <name>rte1_124</name>
      <ele>524.02</ele>
    </rtept>
    <rtept lat="45.66058812" lon="15.17851349" >
      <name>rte1_125</name>
      <ele>524.02</ele>
    </rtept>
    <rtept lat="45.66066451" lon="15.17857790" >
      <name>rte1_126</name>
      <ele>524.02</ele>
    </rtept>
    <rtept lat="45.66074542" lon="15.17862308" >
      <name>rte1_127</name>
      <ele>530.29</ele>
    </rtept>
    <rtept lat="45.66083088" lon="15.17863618" >
      <name>rte1_128</name>
      <ele>530.29</ele>
    </rtept>
    <rtept lat="45.66087588" lon="15.17862991" >
      <name>rte1_129</name>
      <ele>530.29</ele>
    </rtept>
    <rtept lat="45.66092539" lon="15.17861724" >
      <name>rte1_130</name>
      <ele>530.29</ele>
    </rtept>
    <rtept lat="45.66097492" lon="15.17859173" >
      <name>rte1_131</name>
      <ele>537.80</ele>
    </rtept>
    <rtept lat="45.66102895" lon="15.17856624" >
      <name>rte1_132</name>
      <ele>537.80</ele>
    </rtept>
    <rtept lat="45.66166008" lon="15.17777264" >
      <name>rte1_133</name>
      <ele>523.81</ele>
    </rtept>
    <rtept lat="45.66170505" lon="15.17778561" >
      <name>rte1_134</name>
      <ele>526.01</ele>
    </rtept>
    <rtept lat="45.66175450" lon="15.17781144" >
      <name>rte1_135</name>
      <ele>526.01</ele>
    </rtept>
    <rtept lat="45.66180395" lon="15.17783726" >
      <name>rte1_136</name>
      <ele>526.01</ele>
    </rtept>
    <rtept lat="45.66184890" lon="15.17786307" >
      <name>rte1_137</name>
      <ele>518.37</ele>
    </rtept>
    <rtept lat="45.66189385" lon="15.17789529" >
      <name>rte1_138</name>
      <ele>518.37</ele>
    </rtept>
    <rtept lat="45.66193429" lon="15.17792751" >
      <name>rte1_139</name>
      <ele>518.37</ele>
    </rtept>
    <rtept lat="45.66197473" lon="15.17795972" >
      <name>rte1_140</name>
      <ele>518.37</ele>
    </rtept>
    <rtept lat="45.66201066" lon="15.17799833" >
      <name>rte1_141</name>
      <ele>518.37</ele>
    </rtept>
    <rtept lat="45.66208704" lon="15.17806274" >
      <name>rte1_142</name>
      <ele>510.95</ele>
    </rtept>
    <rtept lat="45.66212298" lon="15.17810135" >
      <name>rte1_143</name>
      <ele>516.72</ele>
    </rtept>
    <rtept lat="45.66216342" lon="15.17813357" >
      <name>rte1_144</name>
      <ele>516.72</ele>
    </rtept>
    <rtept lat="45.66224432" lon="15.17818516" >
      <name>rte1_145</name>
      <ele>516.72</ele>
    </rtept>
    <rtept lat="45.66228927" lon="15.17821097" >
      <name>rte1_146</name>
      <ele>516.72</ele>
    </rtept>
    <rtept lat="45.66233873" lon="15.17823037" >
      <name>rte1_147</name>
      <ele>515.14</ele>
    </rtept>
    <rtept lat="45.66238819" lon="15.17824978" >
      <name>rte1_148</name>
      <ele>515.14</ele>
    </rtept>
    <rtept lat="45.66244666" lon="15.17826280" >
      <name>rte1_149</name>
      <ele>515.14</ele>
    </rtept>
    <rtept lat="45.66249165" lon="15.17826295" >
      <name>rte1_150</name>
      <ele>515.14</ele>
    </rtept>
    <rtept lat="45.66253663" lon="15.17826951" >
      <name>rte1_151</name>
      <ele>518.33</ele>
    </rtept>
    <rtept lat="45.66262211" lon="15.17826978" >
      <name>rte1_152</name>
      <ele>518.33</ele>
    </rtept>
    <rtept lat="45.66270311" lon="15.17826362" >
      <name>rte1_153</name>
      <ele>518.33</ele>
    </rtept>
    <rtept lat="45.66278411" lon="15.17825105" >
      <name>rte1_154</name>
      <ele>524.05</ele>
    </rtept>
    <rtept lat="45.66285613" lon="15.17823203" >
      <name>rte1_155</name>
      <ele>524.05</ele>
    </rtept>
    <rtept lat="45.66293264" lon="15.17821303" >
      <name>rte1_156</name>
      <ele>524.05</ele>
    </rtept>
    <rtept lat="45.66300466" lon="15.17819401" >
      <name>rte1_157</name>
      <ele>528.17</ele>
    </rtept>
    <rtept lat="45.66307668" lon="15.17817499" >
      <name>rte1_158</name>
      <ele>528.17</ele>
    </rtept>
    <rtept lat="45.66314870" lon="15.17814956" >
      <name>rte1_159</name>
      <ele>528.17</ele>
    </rtept>
    <rtept lat="45.66322072" lon="15.17813054" >
      <name>rte1_160</name>
      <ele>530.00</ele>
    </rtept>
    <rtept lat="45.66329722" lon="15.17811795" >
      <name>rte1_161</name>
      <ele>530.00</ele>
    </rtept>
    <rtept lat="45.66337373" lon="15.17810536" >
      <name>rte1_162</name>
      <ele>530.00</ele>
    </rtept>
    <rtept lat="45.66345472" lon="15.17809920" >
      <name>rte1_163</name>
      <ele>540.00</ele>
    </rtept>
    <rtept lat="45.66353571" lon="15.17809946" >
      <name>rte1_164</name>
      <ele>540.00</ele>
    </rtept>
    <rtept lat="45.66358069" lon="15.17810602" >
      <name>rte1_165</name>
      <ele>540.00</ele>
    </rtept>
    <rtept lat="45.66362567" lon="15.17811258" >
      <name>rte1_166</name>
      <ele>540.00</ele>
    </rtept>
    <rtept lat="45.66367065" lon="15.17811915" >
      <name>rte1_167</name>
      <ele>540.00</ele>
    </rtept>
    <rtept lat="45.66372012" lon="15.17813214" >
      <name>rte1_168</name>
      <ele>540.00</ele>
    </rtept>
    <rtept lat="45.66380557" lon="15.17815166" >
      <name>rte1_169</name>
      <ele>540.00</ele>
    </rtept>
    <rtept lat="45.66389102" lon="15.17817760" >
      <name>rte1_170</name>
      <ele>541.57</ele>
    </rtept>
    <rtept lat="45.66397196" lon="15.17820353" >
      <name>rte1_171</name>
      <ele>541.57</ele>
    </rtept>
    <rtept lat="45.66404840" lon="15.17822944" >
      <name>rte1_172</name>
      <ele>541.57</ele>
    </rtept>
    <rtept lat="45.66412035" lon="15.17825534" >
      <name>rte1_173</name>
      <ele>544.00</ele>
    </rtept>
    <rtept lat="45.66419228" lon="15.17828765" >
      <name>rte1_174</name>
      <ele>544.00</ele>
    </rtept>
    <rtept lat="45.66425972" lon="15.17831995" >
      <name>rte1_175</name>
      <ele>544.00</ele>
    </rtept>
    <rtept lat="45.66432716" lon="15.17835225" >
      <name>rte1_176</name>
      <ele>545.00</ele>
    </rtept>
    <rtept lat="45.66439459" lon="15.17838455" >
      <name>rte1_177</name>
      <ele>545.00</ele>
    </rtept>
    <rtept lat="45.66446652" lon="15.17842328" >
      <name>rte1_178</name>
      <ele>545.00</ele>
    </rtept>
    <rtept lat="45.66453394" lon="15.17846200" >
      <name>rte1_179</name>
      <ele>542.56</ele>
    </rtept>
    <rtept lat="45.66460587" lon="15.17850073" >
      <name>rte1_180</name>
      <ele>542.82</ele>
    </rtept>
    <rtept lat="45.66468229" lon="15.17853947" >
      <name>rte1_181</name>
      <ele>542.82</ele>
    </rtept>
    <rtept lat="45.66475871" lon="15.17858464" >
      <name>rte1_182</name>
      <ele>542.82</ele>
    </rtept>
    <rtept lat="45.66484413" lon="15.17862341" >
      <name>rte1_183</name>
      <ele>543.68</ele>
    </rtept>
    <rtept lat="45.66488908" lon="15.17864922" >
      <name>rte1_184</name>
      <ele>543.68</ele>
    </rtept>
    <rtept lat="45.66493403" lon="15.17867503" >
      <name>rte1_185</name>
      <ele>543.68</ele>
    </rtept>
    <rtept lat="45.66497899" lon="15.17869443" >
      <name>rte1_186</name>
      <ele>543.68</ele>
    </rtept>
    <rtept lat="45.66502394" lon="15.17872024" >
      <name>rte1_187</name>
      <ele>542.89</ele>
    </rtept>
    <rtept lat="45.66506888" lon="15.17875247" >
      <name>rte1_188</name>
      <ele>538.53</ele>
    </rtept>
    <rtept lat="45.66510933" lon="15.17877827" >
      <name>rte1_189</name>
      <ele>538.53</ele>
    </rtept>
    <rtept lat="45.66518572" lon="15.17884268" >
      <name>rte1_190</name>
      <ele>538.53</ele>
    </rtept>
    <rtept lat="45.66525759" lon="15.17891350" >
      <name>rte1_191</name>
      <ele>535.98</ele>
    </rtept>
    <rtept lat="45.66532047" lon="15.17898428" >
      <name>rte1_192</name>
      <ele>535.98</ele>
    </rtept>
    <rtept lat="45.66537883" lon="15.17906147" >
      <name>rte1_193</name>
      <ele>535.98</ele>
    </rtept>
    <rtept lat="45.66543269" lon="15.17914506" >
      <name>rte1_194</name>
      <ele>533.04</ele>
    </rtept>
    <rtept lat="45.66549104" lon="15.17923509" >
      <name>rte1_195</name>
      <ele>530.89</ele>
    </rtept>
    <rtept lat="45.66606131" lon="15.17993637" >
      <name>rte1_196</name>
      <ele>522.90</ele>
    </rtept>
    <rtept lat="45.66611536" lon="15.17989804" >
      <name>rte1_197</name>
      <ele>524.08</ele>
    </rtept>
    <rtept lat="45.66617394" lon="15.17984048" >
      <name>rte1_198</name>
      <ele>524.08</ele>
    </rtept>
    <rtept lat="45.66623702" lon="15.17978293" >
      <name>rte1_199</name>
      <ele>524.08</ele>
    </rtept>
    <rtept lat="45.66630906" lon="15.17975108" >
      <name>rte1_200</name>
      <ele>524.08</ele>
    </rtept>
    <rtept lat="45.66638560" lon="15.17971282" >
      <name>rte1_201</name>
      <ele>520.00</ele>
    </rtept>
    <rtept lat="45.66645762" lon="15.17969381" >
      <name>rte1_202</name>
      <ele>520.00</ele>
    </rtept>
    <rtept lat="45.66652512" lon="15.17968761" >
      <name>rte1_203</name>
      <ele>520.00</ele>
    </rtept>
    <rtept lat="45.66659261" lon="15.17968141" >
      <name>rte1_204</name>
      <ele>520.00</ele>
    </rtept>
    <rtept lat="45.66665560" lon="15.17968161" >
      <name>rte1_205</name>
      <ele>520.00</ele>
    </rtept>
    <rtept lat="45.66672759" lon="15.17968185" >
      <name>rte1_206</name>
      <ele>520.00</ele>
    </rtept>
    <rtept lat="45.66680408" lon="15.17967568" >
      <name>rte1_207</name>
      <ele>520.00</ele>
    </rtept>
    <rtept lat="45.66688960" lon="15.17965670" >
      <name>rte1_208</name>
      <ele>520.00</ele>
    </rtept>
    <rtept lat="45.66694813" lon="15.17963122" >
      <name>rte1_209</name>
      <ele>520.00</ele>
    </rtept>
    <rtept lat="45.66700216" lon="15.17960573" >
      <name>rte1_210</name>
      <ele>520.00</ele>
    </rtept>
    <rtept lat="45.66705620" lon="15.17957382" >
      <name>rte1_211</name>
      <ele>521.12</ele>
    </rtept>
    <rtept lat="45.66710124" lon="15.17954188" >
      <name>rte1_212</name>
      <ele>521.12</ele>
    </rtept>
    <rtept lat="45.66715078" lon="15.17950995" >
      <name>rte1_213</name>
      <ele>521.12</ele>
    </rtept>
    <rtept lat="45.66719582" lon="15.17947801" >
      <name>rte1_214</name>
      <ele>521.12</ele>
    </rtept>
    <rtept lat="45.66724085" lon="15.17945249" >
      <name>rte1_215</name>
      <ele>525.00</ele>
    </rtept>
    <rtept lat="45.66728589" lon="15.17942055" >
      <name>rte1_216</name>
      <ele>525.00</ele>
    </rtept>
    <rtept lat="45.66732644" lon="15.17938860" >
      <name>rte1_217</name>
      <ele>525.00</ele>
    </rtept>
    <rtept lat="45.66737597" lon="15.17936309" >
      <name>rte1_218</name>
      <ele>525.00</ele>
    </rtept>
    <rtept lat="45.66742100" lon="15.17933757" >
      <name>rte1_219</name>
      <ele>525.00</ele>
    </rtept>
    <rtept lat="45.66747052" lon="15.17931848" >
      <name>rte1_220</name>
      <ele>525.00</ele>
    </rtept>
    <rtept lat="45.66752004" lon="15.17929938" >
      <name>rte1_221</name>
      <ele>525.00</ele>
    </rtept>
    <rtept lat="45.66757405" lon="15.17928672" >
      <name>rte1_222</name>
      <ele>525.00</ele>
    </rtept>
    <rtept lat="45.66763256" lon="15.17927408" >
      <name>rte1_223</name>
      <ele>525.00</ele>
    </rtept>
    <rtept lat="45.66770005" lon="15.17927430" >
      <name>rte1_224</name>
      <ele>521.13</ele>
    </rtept>
    <rtept lat="45.66774955" lon="15.17926804" >
      <name>rte1_225</name>
      <ele>521.13</ele>
    </rtept>
    <rtept lat="45.66779454" lon="15.17926818" >
      <name>rte1_226</name>
      <ele>521.13</ele>
    </rtept>
    <rtept lat="45.66783953" lon="15.17926833" >
      <name>rte1_227</name>
      <ele>521.13</ele>
    </rtept>
    <rtept lat="45.66788450" lon="15.17928131" >
      <name>rte1_228</name>
      <ele>521.13</ele>
    </rtept>
    <rtept lat="45.66796540" lon="15.17933291" >
      <name>rte1_229</name>
      <ele>515.55</ele>
    </rtept>
    <rtept lat="45.66800583" lon="15.17937154" >
      <name>rte1_230</name>
      <ele>515.55</ele>
    </rtept>
    <rtept lat="45.66805073" lon="15.17942944" >
      <name>rte1_231</name>
      <ele>520.00</ele>
    </rtept>
    <rtept lat="45.66809114" lon="15.17948091" >
      <name>rte1_232</name>
      <ele>520.00</ele>
    </rtept>
    <rtept lat="45.66812704" lon="15.17953878" >
      <name>rte1_233</name>
      <ele>520.00</ele>
    </rtept>
    <rtept lat="45.66815846" lon="15.17959021" >
      <name>rte1_234</name>
      <ele>520.00</ele>
    </rtept>
    <rtept lat="45.66818986" lon="15.17964807" >
      <name>rte1_235</name>
      <ele>520.00</ele>
    </rtept>
    <rtept lat="45.66822126" lon="15.17970592" >
      <name>rte1_236</name>
      <ele>520.00</ele>
    </rtept>
    <rtept lat="45.66824815" lon="15.17977018" >
      <name>rte1_237</name>
      <ele>520.00</ele>
    </rtept>
    <rtept lat="45.66827953" lon="15.17984087" >
      <name>rte1_238</name>
      <ele>520.00</ele>
    </rtept>
    <rtept lat="45.66831990" lon="15.17991801" >
      <name>rte1_239</name>
      <ele>520.00</ele>
    </rtept>
    <rtept lat="45.66844143" lon="15.17988632" >
      <name>rte1_240</name>
      <ele>520.00</ele>
    </rtept>
    <rtept lat="45.66847746" lon="15.17986077" >
      <name>rte1_241</name>
      <ele>520.00</ele>
    </rtept>
    <rtept lat="45.66859903" lon="15.17980340" >
      <name>rte1_242</name>
      <ele>520.00</ele>
    </rtept>
    <rtept lat="45.66872060" lon="15.17974604" >
      <name>rte1_243</name>
      <ele>520.00</ele>
    </rtept>
    <rtept lat="45.66877018" lon="15.17968845" >
      <name>rte1_244</name>
      <ele>520.00</ele>
    </rtept>
    <rtept lat="45.66879759" lon="15.17942543" >
      <name>rte1_245</name>
      <ele>520.00</ele>
    </rtept>
    <rtept lat="45.66893730" lon="15.17927829" >
      <name>rte1_246</name>
      <ele>514.04</ele>
    </rtept>
    <rtept lat="45.66901828" lon="15.17927855" >
      <name>rte1_247</name>
      <ele>514.04</ele>
    </rtept>
    <rtept lat="45.66909944" lon="15.17916972" >
      <name>rte1_248</name>
      <ele>510.00</ele>
    </rtept>
    <rtept lat="45.66913560" lon="15.17906716" >
      <name>rte1_249</name>
      <ele>513.67</ele>
    </rtept>
    <rtept lat="45.66917188" lon="15.17888117" >
      <name>rte1_250</name>
      <ele>513.67</ele>
    </rtept>
    <rtept lat="45.66920361" lon="15.17873368" >
      <name>rte1_251</name>
      <ele>520.18</ele>
    </rtept>
    <rtept lat="45.66933444" lon="15.17850950" >
      <name>rte1_252</name>
      <ele>515.68</ele>
    </rtept>
    <rtept lat="45.66948313" lon="15.17836879" >
      <name>rte1_253</name>
      <ele>517.87</ele>
    </rtept>
    <rtept lat="45.66958672" lon="15.17829854" >
      <name>rte1_254</name>
      <ele>510.00</ele>
    </rtept>
    <rtept lat="45.66995151" lon="15.17807510" >
      <name>rte1_255</name>
      <ele>510.89</ele>
    </rtept>
    <rtept lat="45.67019012" lon="15.17797319" >
      <name>rte1_256</name>
      <ele>514.21</ele>
    </rtept>
    <rtept lat="45.67033859" lon="15.17797366" >
      <name>rte1_257</name>
      <ele>514.21</ele>
    </rtept>
    <rtept lat="45.67050056" lon="15.17797418" >
      <name>rte1_258</name>
      <ele>516.44</ele>
    </rtept>
    <rtept lat="45.67078395" lon="15.17800718" >
      <name>rte1_259</name>
      <ele>515.71</ele>
    </rtept>
    <rtept lat="45.67099076" lon="15.17810410" >
      <name>rte1_260</name>
      <ele>513.57</ele>
    </rtept>
    <rtept lat="45.67125610" lon="15.17816912" >
      <name>rte1_261</name>
      <ele>520.00</ele>
    </rtept>
    <rtept lat="45.67145397" lon="15.17822752" >
      <name>rte1_262</name>
      <ele>513.00</ele>
    </rtept>
    <rtept lat="45.67180484" lon="15.17826715" >
      <name>rte1_263</name>
      <ele>500.00</ele>
    </rtept>
    <rtept lat="45.67198481" lon="15.17826772" >
      <name>rte1_264</name>
      <ele>500.00</ele>
    </rtept>
    <rtept lat="45.67213328" lon="15.17826820" >
      <name>rte1_265</name>
      <ele>500.00</ele>
    </rtept>
    <rtept lat="45.67234930" lon="15.17823039" >
      <name>rte1_266</name>
      <ele>500.00</ele>
    </rtept>
    <rtept lat="45.67249781" lon="15.17820519" >
      <name>rte1_267</name>
      <ele>505.56</ele>
    </rtept>
    <rtept lat="45.67266447" lon="15.17808379" >
      <name>rte1_268</name>
      <ele>498.54</ele>
    </rtept>
    <rtept lat="45.67286709" lon="15.17798176" >
      <name>rte1_269</name>
      <ele>496.51</ele>
    </rtept>
    <rtept lat="45.67299756" lon="15.17798218" >
      <name>rte1_270</name>
      <ele>496.51</ele>
    </rtept>
    <rtept lat="45.67313289" lon="15.17775799" >
      <name>rte1_271</name>
      <ele>500.00</ele>
    </rtept>
    <rtept lat="45.67316894" lon="15.17771960" >
      <name>rte1_272</name>
      <ele>500.00</ele>
    </rtept>
    <rtept lat="45.67321399" lon="15.17768124" >
      <name>rte1_273</name>
      <ele>500.00</ele>
    </rtept>
    <rtept lat="45.67325904" lon="15.17764288" >
      <name>rte1_274</name>
      <ele>500.00</ele>
    </rtept>
    <rtept lat="45.67331308" lon="15.17761096" >
      <name>rte1_275</name>
      <ele>500.00</ele>
    </rtept>
    <rtept lat="45.67338065" lon="15.17755983" >
      <name>rte1_276</name>
      <ele>505.88</ele>
    </rtept>
    <rtept lat="45.67344821" lon="15.17751513" >
      <name>rte1_277</name>
      <ele>505.88</ele>
    </rtept>
    <rtept lat="45.67351575" lon="15.17747684" >
      <name>rte1_278</name>
      <ele>500.00</ele>
    </rtept>
    <rtept lat="45.67357880" lon="15.17743853" >
      <name>rte1_279</name>
      <ele>497.41</ele>
    </rtept>
    <rtept lat="45.67364184" lon="15.17740664" >
      <name>rte1_280</name>
      <ele>497.41</ele>
    </rtept>
    <rtept lat="45.67370037" lon="15.17738116" >
      <name>rte1_281</name>
      <ele>497.41</ele>
    </rtept>
    <rtept lat="45.67375891" lon="15.17734926" >
      <name>rte1_282</name>
      <ele>497.41</ele>
    </rtept>
    <rtept lat="45.67381744" lon="15.17732377" >
      <name>rte1_283</name>
      <ele>498.00</ele>
    </rtept>
    <rtept lat="45.67387596" lon="15.17729829" >
      <name>rte1_284</name>
      <ele>498.00</ele>
    </rtept>
    <rtept lat="45.67393450" lon="15.17726639" >
      <name>rte1_285</name>
      <ele>498.00</ele>
    </rtept>
    <rtept lat="45.67399304" lon="15.17723448" >
      <name>rte1_286</name>
      <ele>500.00</ele>
    </rtept>
    <rtept lat="45.67405608" lon="15.17720260" >
      <name>rte1_287</name>
      <ele>500.00</ele>
    </rtept>
    <rtept lat="45.67411463" lon="15.17716428" >
      <name>rte1_288</name>
      <ele>499.18</ele>
    </rtept>
    <rtept lat="45.67418218" lon="15.17711957" >
      <name>rte1_289</name>
      <ele>499.18</ele>
    </rtept>
    <rtept lat="45.67424525" lon="15.17706842" >
      <name>rte1_290</name>
      <ele>500.00</ele>
    </rtept>
    <rtept lat="45.67431733" lon="15.17701089" >
      <name>rte1_291</name>
      <ele>500.00</ele>
    </rtept>
    <rtept lat="45.67437142" lon="15.17694689" >
      <name>rte1_292</name>
      <ele>500.00</ele>
    </rtept>
    <rtept lat="45.67441650" lon="15.17688927" >
      <name>rte1_293</name>
      <ele>500.00</ele>
    </rtept>
    <rtept lat="45.67445709" lon="15.17682522" >
      <name>rte1_294</name>
      <ele>505.83</ele>
    </rtept>
    <rtept lat="45.67449319" lon="15.17676116" >
      <name>rte1_295</name>
      <ele>505.83</ele>
    </rtept>
    <rtept lat="45.67452479" lon="15.17669066" >
      <name>rte1_296</name>
      <ele>505.83</ele>
    </rtept>
    <rtept lat="45.67455188" lon="15.17662657" >
      <name>rte1_297</name>
      <ele>505.83</ele>
    </rtept>
    <rtept lat="45.67457449" lon="15.17655605" >
      <name>rte1_298</name>
      <ele>505.83</ele>
    </rtept>
    <rtept lat="45.67460159" lon="15.17648553" >
      <name>rte1_299</name>
      <ele>499.26</ele>
    </rtept>
    <rtept lat="45.67462420" lon="15.17641501" >
      <name>rte1_300</name>
      <ele>499.26</ele>
    </rtept>
    <rtept lat="45.67465131" lon="15.17634450" >
      <name>rte1_301</name>
      <ele>499.26</ele>
    </rtept>
    <rtept lat="45.67467841" lon="15.17627399" >
      <name>rte1_302</name>
      <ele>505.22</ele>
    </rtept>
    <rtept lat="45.67470551" lon="15.17620348" >
      <name>rte1_303</name>
      <ele>500.00</ele>
    </rtept>
    <rtept lat="45.67474162" lon="15.17613300" >
      <name>rte1_304</name>
      <ele>500.00</ele>
    </rtept>
    <rtept lat="45.67478221" lon="15.17606895" >
      <name>rte1_305</name>
      <ele>500.00</ele>
    </rtept>
    <rtept lat="45.67482730" lon="15.17600491" >
      <name>rte1_306</name>
      <ele>500.00</ele>
    </rtept>
    <rtept lat="45.67488138" lon="15.17594732" >
      <name>rte1_307</name>
      <ele>500.00</ele>
    </rtept>
    <rtept lat="45.67492194" lon="15.17590252" >
      <name>rte1_308</name>
      <ele>500.00</ele>
    </rtept>
    <rtept lat="45.67496249" lon="15.17586414" >
      <name>rte1_309</name>
      <ele>493.83</ele>
    </rtept>
    <rtept lat="45.67504355" lon="15.17581948" >
      <name>rte1_310</name>
      <ele>493.83</ele>
    </rtept>
    <rtept lat="45.67512908" lon="15.17578766" >
      <name>rte1_311</name>
      <ele>490.00</ele>
    </rtept>
    <rtept lat="45.67521009" lon="15.17576866" >
      <name>rte1_312</name>
      <ele>490.00</ele>
    </rtept>
    <rtept lat="45.67529560" lon="15.17575609" >
      <name>rte1_313</name>
      <ele>490.00</ele>
    </rtept>
    <rtept lat="45.67538111" lon="15.17573711" >
      <name>rte1_314</name>
      <ele>493.15</ele>
    </rtept>
    <rtept lat="45.67542612" lon="15.17572442" >
      <name>rte1_315</name>
      <ele>493.15</ele>
    </rtept>
    <rtept lat="45.67547114" lon="15.17570531" >
      <name>rte1_316</name>
      <ele>493.15</ele>
    </rtept>
    <rtept lat="45.67551617" lon="15.17567978" >
      <name>rte1_317</name>
      <ele>493.15</ele>
    </rtept>
    <rtept lat="45.67556570" lon="15.17565426" >
      <name>rte1_318</name>
      <ele>493.15</ele>
    </rtept>
    <rtept lat="45.67561977" lon="15.17560309" >
      <name>rte1_319</name>
      <ele>498.52</ele>
    </rtept>
    <rtept lat="45.67567833" lon="15.17555835" >
      <name>rte1_320</name>
      <ele>489.78</ele>
    </rtept>
    <rtept lat="45.67572789" lon="15.17551358" >
      <name>rte1_321</name>
      <ele>489.78</ele>
    </rtept>
    <rtept lat="45.67578194" lon="15.17547524" >
      <name>rte1_322</name>
      <ele>489.78</ele>
    </rtept>
    <rtept lat="45.67582700" lon="15.17543046" >
      <name>rte1_323</name>
      <ele>495.94</ele>
    </rtept>
    <rtept lat="45.67587655" lon="15.17539211" >
      <name>rte1_324</name>
      <ele>495.94</ele>
    </rtept>
    <rtept lat="45.67591711" lon="15.17534731" >
      <name>rte1_325</name>
      <ele>495.94</ele>
    </rtept>
    <rtept lat="45.67596216" lon="15.17530894" >
      <name>rte1_326</name>
      <ele>495.94</ele>
    </rtept>
    <rtept lat="45.67600722" lon="15.17526416" >
      <name>rte1_327</name>
      <ele>495.94</ele>
    </rtept>
    <rtept lat="45.67604778" lon="15.17521936" >
      <name>rte1_328</name>
      <ele>495.77</ele>
    </rtept>
    <rtept lat="45.67608835" lon="15.17516814" >
      <name>rte1_329</name>
      <ele>495.77</ele>
    </rtept>
    <rtept lat="45.67612893" lon="15.17511693" >
      <name>rte1_330</name>
      <ele>495.77</ele>
    </rtept>
    <rtept lat="45.67616951" lon="15.17505929" >
      <name>rte1_331</name>
      <ele>495.77</ele>
    </rtept>
    <rtept lat="45.67621009" lon="15.17500166" >
      <name>rte1_332</name>
      <ele>495.77</ele>
    </rtept>
    <rtept lat="45.67625518" lon="15.17493762" >
      <name>rte1_333</name>
      <ele>505.59</ele>
    </rtept>
    <rtept lat="45.67630028" lon="15.17486716" >
      <name>rte1_334</name>
      <ele>499.71</ele>
    </rtept>
    <rtept lat="45.67634542" lon="15.17477103" >
      <name>rte1_335</name>
      <ele>499.71</ele>
    </rtept>
    <rtept lat="45.67638606" lon="15.17467489" >
      <name>rte1_336</name>
      <ele>499.71</ele>
    </rtept>
    <rtept lat="45.67641769" lon="15.17458514" >
      <name>rte1_337</name>
      <ele>493.85</ele>
    </rtept>
    <rtept lat="45.67644034" lon="15.17448894" >
      <name>rte1_338</name>
      <ele>493.85</ele>
    </rtept>
    <rtept lat="45.67646298" lon="15.17439274" >
      <name>rte1_339</name>
      <ele>493.85</ele>
    </rtept>
    <rtept lat="45.67647663" lon="15.17429651" >
      <name>rte1_340</name>
      <ele>507.27</ele>
    </rtept>
    <rtept lat="45.67648576" lon="15.17420668" >
      <name>rte1_341</name>
      <ele>505.83</ele>
    </rtept>
    <rtept lat="45.67649491" lon="15.17411044" >
      <name>rte1_342</name>
      <ele>505.83</ele>
    </rtept>
    <rtept lat="45.67649506" lon="15.17401417" >
      <name>rte1_343</name>
      <ele>505.83</ele>
    </rtept>
    <rtept lat="45.67649521" lon="15.17391790" >
      <name>rte1_344</name>
      <ele>510.00</ele>
    </rtept>
    <rtept lat="45.67649535" lon="15.17382163" >
      <name>rte1_345</name>
      <ele>510.00</ele>
    </rtept>
    <rtept lat="45.67649100" lon="15.17372534" >
      <name>rte1_346</name>
      <ele>510.00</ele>
    </rtept>
    <rtept lat="45.67648665" lon="15.17362906" >
      <name>rte1_347</name>
      <ele>510.00</ele>
    </rtept>
    <rtept lat="45.67647780" lon="15.17353276" >
      <name>rte1_348</name>
      <ele>510.00</ele>
    </rtept>
    <rtept lat="45.67647345" lon="15.17343648" >
      <name>rte1_349</name>
      <ele>510.00</ele>
    </rtept>
    <rtept lat="45.67647360" lon="15.17334021" >
      <name>rte1_350</name>
      <ele>510.00</ele>
    </rtept>
    <rtept lat="45.67646921" lon="15.17326959" >
      <name>rte1_351</name>
      <ele>505.26</ele>
    </rtept>
    <rtept lat="45.67646931" lon="15.17320541" >
      <name>rte1_352</name>
      <ele>505.26</ele>
    </rtept>
    <rtept lat="45.67646941" lon="15.17313481" >
      <name>rte1_353</name>
      <ele>505.26</ele>
    </rtept>
    <rtept lat="45.67647401" lon="15.17307065" >
      <name>rte1_354</name>
      <ele>510.00</ele>
    </rtept>
    <rtept lat="45.67647412" lon="15.17300005" >
      <name>rte1_355</name>
      <ele>510.00</ele>
    </rtept>
    <rtept lat="45.67647872" lon="15.17293588" >
      <name>rte1_356</name>
      <ele>510.00</ele>
    </rtept>
    <rtept lat="45.67648781" lon="15.17287173" >
      <name>rte1_357</name>
      <ele>510.00</ele>
    </rtept>
    <rtept lat="45.67649692" lon="15.17280116" >
      <name>rte1_358</name>
      <ele>510.00</ele>
    </rtept>
    <rtept lat="45.67651051" lon="15.17273702" >
      <name>rte1_359</name>
      <ele>510.00</ele>
    </rtept>
    <rtept lat="45.67652411" lon="15.17267288" >
      <name>rte1_360</name>
      <ele>504.10</ele>
    </rtept>
    <rtept lat="45.67653770" lon="15.17260874" >
      <name>rte1_361</name>
      <ele>504.10</ele>
    </rtept>
    <rtept lat="45.67656030" lon="15.17254463" >
      <name>rte1_362</name>
      <ele>504.10</ele>
    </rtept>
    <rtept lat="45.67658289" lon="15.17248052" >
      <name>rte1_363</name>
      <ele>504.10</ele>
    </rtept>
    <rtept lat="45.67660549" lon="15.17240999" >
      <name>rte1_364</name>
      <ele>504.10</ele>
    </rtept>
    <rtept lat="45.67663709" lon="15.17234591" >
      <name>rte1_365</name>
      <ele>500.00</ele>
    </rtept>
    <rtept lat="45.67667317" lon="15.17228826" >
      <name>rte1_366</name>
      <ele>500.00</ele>
    </rtept>
    <rtept lat="45.67672280" lon="15.17219214" >
      <name>rte1_367</name>
      <ele>500.00</ele>
    </rtept>
    <rtept lat="45.67678140" lon="15.17212172" >
      <name>rte1_368</name>
      <ele>500.00</ele>
    </rtept>
    <rtept lat="45.67684448" lon="15.17206416" >
      <name>rte1_369</name>
      <ele>500.00</ele>
    </rtept>
    <rtept lat="45.67690753" lon="15.17201943" >
      <name>rte1_370</name>
      <ele>495.50</ele>
    </rtept>
    <rtept lat="45.67697506" lon="15.17199396" >
      <name>rte1_371</name>
      <ele>494.40</ele>
    </rtept>
    <rtept lat="45.67704708" lon="15.17196851" >
      <name>rte1_372</name>
      <ele>494.40</ele>
    </rtept>
    <rtept lat="45.67711909" lon="15.17195590" >
      <name>rte1_373</name>
      <ele>494.40</ele>
    </rtept>
    <rtept lat="45.67719109" lon="15.17194329" >
      <name>rte1_374</name>
      <ele>496.81</ele>
    </rtept>
    <rtept lat="45.67726310" lon="15.17193067" >
      <name>rte1_375</name>
      <ele>496.81</ele>
    </rtept>
    <rtept lat="45.67733960" lon="15.17191807" >
      <name>rte1_376</name>
      <ele>496.81</ele>
    </rtept>
    <rtept lat="45.67741162" lon="15.17189904" >
      <name>rte1_377</name>
      <ele>501.75</ele>
    </rtept>
    <rtept lat="45.67748814" lon="15.17187361" >
      <name>rte1_378</name>
      <ele>501.75</ele>
    </rtept>
    <rtept lat="45.67756017" lon="15.17184174" >
      <name>rte1_379</name>
      <ele>501.75</ele>
    </rtept>
    <rtept lat="45.67762773" lon="15.17179702" >
      <name>rte1_380</name>
      <ele>505.88</ele>
    </rtept>
    <rtept lat="45.67769980" lon="15.17173948" >
      <name>rte1_381</name>
      <ele>505.88</ele>
    </rtept>
    <rtept lat="45.67776741" lon="15.17166267" >
      <name>rte1_382</name>
      <ele>500.00</ele>
    </rtept>
    <rtept lat="45.67781701" lon="15.17158580" >
      <name>rte1_383</name>
      <ele>500.00</ele>
    </rtept>
    <rtept lat="45.67786662" lon="15.17150894" >
      <name>rte1_384</name>
      <ele>520.00</ele>
    </rtept>
    <rtept lat="45.67790722" lon="15.17143846" >
      <name>rte1_385</name>
      <ele>520.00</ele>
    </rtept>
    <rtept lat="45.67794782" lon="15.17136799" >
      <name>rte1_386</name>
      <ele>495.62</ele>
    </rtept>
    <rtept lat="45.67798392" lon="15.17129750" >
      <name>rte1_387</name>
      <ele>495.62</ele>
    </rtept>
    <rtept lat="45.67802002" lon="15.17122701" >
      <name>rte1_388</name>
      <ele>495.62</ele>
    </rtept>
    <rtept lat="45.67805612" lon="15.17115652" >
      <name>rte1_389</name>
      <ele>510.48</ele>
    </rtept>
    <rtept lat="45.67808771" lon="15.17109243" >
      <name>rte1_390</name>
      <ele>510.48</ele>
    </rtept>
    <rtept lat="45.67812381" lon="15.17102194" >
      <name>rte1_391</name>
      <ele>503.24</ele>
    </rtept>
    <rtept lat="45.67815541" lon="15.17095144" >
      <name>rte1_392</name>
      <ele>503.24</ele>
    </rtept>
    <rtept lat="45.67819151" lon="15.17088095" >
      <name>rte1_393</name>
      <ele>503.24</ele>
    </rtept>
    <rtept lat="45.67822761" lon="15.17081046" >
      <name>rte1_394</name>
      <ele>503.24</ele>
    </rtept>
    <rtept lat="45.67826821" lon="15.17073998" >
      <name>rte1_395</name>
      <ele>490.00</ele>
    </rtept>
    <rtept lat="45.67831330" lon="15.17066952" >
      <name>rte1_396</name>
      <ele>510.00</ele>
    </rtept>
    <rtept lat="45.67836291" lon="15.17059265" >
      <name>rte1_397</name>
      <ele>510.00</ele>
    </rtept>
    <rtept lat="45.67841701" lon="15.17052222" >
      <name>rte1_398</name>
      <ele>510.00</ele>
    </rtept>
    <rtept lat="45.67847562" lon="15.17043896" >
      <name>rte1_399</name>
      <ele>505.00</ele>
    </rtept>
    <rtept lat="45.67853869" lon="15.17038139" >
      <name>rte1_400</name>
      <ele>505.24</ele>
    </rtept>
    <rtept lat="45.67859726" lon="15.17033022" >
      <name>rte1_401</name>
      <ele>505.24</ele>
    </rtept>
    <rtept lat="45.67866031" lon="15.17028549" >
      <name>rte1_402</name>
      <ele>505.24</ele>
    </rtept>
    <rtept lat="45.67872336" lon="15.17024717" >
      <name>rte1_403</name>
      <ele>505.24</ele>
    </rtept>
    <rtept lat="45.67878193" lon="15.17019600" >
      <name>rte1_404</name>
      <ele>510.00</ele>
    </rtept>
    <rtept lat="45.67884051" lon="15.17013200" >
      <name>rte1_405</name>
      <ele>510.00</ele>
    </rtept>
    <rtept lat="45.67889912" lon="15.17005516" >
      <name>rte1_406</name>
      <ele>510.00</ele>
    </rtept>
    <rtept lat="45.67893073" lon="15.16997182" >
      <name>rte1_407</name>
      <ele>510.00</ele>
    </rtept>
    <rtept lat="45.67895336" lon="15.16988845" >
      <name>rte1_408</name>
      <ele>510.00</ele>
    </rtept>
    <rtept lat="45.67896698" lon="15.16980505" >
      <name>rte1_409</name>
      <ele>510.00</ele>
    </rtept>
    <rtept lat="45.67897609" lon="15.16972806" >
      <name>rte1_410</name>
      <ele>510.00</ele>
    </rtept>
    <rtept lat="45.67898072" lon="15.16964463" >
      <name>rte1_411</name>
      <ele>510.00</ele>
    </rtept>
    <rtept lat="45.67899433" lon="15.16956766" >
      <name>rte1_412</name>
      <ele>510.00</ele>
    </rtept>
    <rtept lat="45.67901245" lon="15.16948427" >
      <name>rte1_413</name>
      <ele>500.00</ele>
    </rtept>
    <rtept lat="45.67904857" lon="15.16940094" >
      <name>rte1_414</name>
      <ele>500.00</ele>
    </rtept>
    <rtept lat="45.67907116" lon="15.16933683" >
      <name>rte1_415</name>
      <ele>500.00</ele>
    </rtept>
    <rtept lat="45.67909373" lon="15.16928555" >
      <name>rte1_416</name>
      <ele>500.00</ele>
    </rtept>
    <rtept lat="45.67913889" lon="15.16917658" >
      <name>rte1_417</name>
      <ele>500.00</ele>
    </rtept>
    <rtept lat="45.67918403" lon="15.16907402" >
      <name>rte1_418</name>
      <ele>500.00</ele>
    </rtept>
    <rtept lat="45.67922467" lon="15.16897787" >
      <name>rte1_419</name>
      <ele>500.00</ele>
    </rtept>
    <rtept lat="45.67926529" lon="15.16888813" >
      <name>rte1_420</name>
      <ele>500.00</ele>
    </rtept>
    <rtept lat="45.67931042" lon="15.16879841" >
      <name>rte1_421</name>
      <ele>500.00</ele>
    </rtept>
    <rtept lat="45.67935104" lon="15.16871510" >
      <name>rte1_422</name>
      <ele>500.00</ele>
    </rtept>
    <rtept lat="45.67939165" lon="15.16863178" >
      <name>rte1_423</name>
      <ele>500.00</ele>
    </rtept>
    <rtept lat="45.67943677" lon="15.16854848" >
      <name>rte1_424</name>
      <ele>500.00</ele>
    </rtept>
    <rtept lat="45.67948188" lon="15.16846518" >
      <name>rte1_425</name>
      <ele>500.00</ele>
    </rtept>
    <rtept lat="45.67952699" lon="15.16838829" >
      <name>rte1_426</name>
      <ele>500.00</ele>
    </rtept>
    <rtept lat="45.67957661" lon="15.16829858" >
      <name>rte1_427</name>
      <ele>500.00</ele>
    </rtept>
    <rtept lat="45.67962623" lon="15.16821529" >
      <name>rte1_428</name>
      <ele>500.00</ele>
    </rtept>
    <rtept lat="45.67968035" lon="15.16812560" >
      <name>rte1_429</name>
      <ele>497.19</ele>
    </rtept>
    <rtept lat="45.67973898" lon="15.16802950" >
      <name>rte1_430</name>
      <ele>497.19</ele>
    </rtept>
    <rtept lat="45.67977055" lon="15.16797825" >
      <name>rte1_431</name>
      <ele>497.19</ele>
    </rtept>
    <rtept lat="45.67980211" lon="15.16793342" >
      <name>rte1_432</name>
      <ele>497.19</ele>
    </rtept>
    <rtept lat="45.67985624" lon="15.16783730" >
      <name>rte1_433</name>
      <ele>492.89</ele>
    </rtept>
    <rtept lat="45.67991485" lon="15.16776046" >
      <name>rte1_434</name>
      <ele>492.89</ele>
    </rtept>
    <rtept lat="45.67996895" lon="15.16768360" >
      <name>rte1_435</name>
      <ele>492.89</ele>
    </rtept>
    <rtept lat="45.68002754" lon="15.16761317" >
      <name>rte1_436</name>
      <ele>492.89</ele>
    </rtept>
    <rtept lat="45.68008162" lon="15.16755557" >
      <name>rte1_437</name>
      <ele>491.75</ele>
    </rtept>
    <rtept lat="45.68014019" lon="15.16749798" >
      <name>rte1_438</name>
      <ele>491.75</ele>
    </rtept>
    <rtept lat="45.68019427" lon="15.16744038" >
      <name>rte1_439</name>
      <ele>491.75</ele>
    </rtept>
    <rtept lat="45.68025284" lon="15.16738279" >
      <name>rte1_440</name>
      <ele>491.75</ele>
    </rtept>
    <rtept lat="45.68030692" lon="15.16732518" >
      <name>rte1_441</name>
      <ele>499.60</ele>
    </rtept>
    <rtept lat="45.68036099" lon="15.16726758" >
      <name>rte1_442</name>
      <ele>499.60</ele>
    </rtept>
    <rtept lat="45.68041507" lon="15.16720356" >
      <name>rte1_443</name>
      <ele>491.15</ele>
    </rtept>
    <rtept lat="45.68046916" lon="15.16713953" >
      <name>rte1_444</name>
      <ele>491.15</ele>
    </rtept>
    <rtept lat="45.68051875" lon="15.16706908" >
      <name>rte1_445</name>
      <ele>491.15</ele>
    </rtept>
    <rtept lat="45.68057287" lon="15.16698580" >
      <name>rte1_446</name>
      <ele>500.00</ele>
    </rtept>
    <rtept lat="45.68062249" lon="15.16689609" >
      <name>rte1_447</name>
      <ele>497.74</ele>
    </rtept>
    <rtept lat="45.68067212" lon="15.16679996" >
      <name>rte1_448</name>
      <ele>497.74</ele>
    </rtept>
    <rtept lat="45.68069472" lon="15.16672943" >
      <name>rte1_449</name>
      <ele>497.74</ele>
    </rtept>
    <rtept lat="45.68072181" lon="15.16666532" >
      <name>rte1_450</name>
      <ele>497.74</ele>
    </rtept>
    <rtept lat="45.68073990" lon="15.16660119" >
      <name>rte1_451</name>
      <ele>496.03</ele>
    </rtept>
    <rtept lat="45.68075798" lon="15.16654348" >
      <name>rte1_452</name>
      <ele>500.00</ele>
    </rtept>
    <rtept lat="45.68077607" lon="15.16647935" >
      <name>rte1_453</name>
      <ele>500.00</ele>
    </rtept>
    <rtept lat="45.68078967" lon="15.16641520" >
      <name>rte1_454</name>
      <ele>500.00</ele>
    </rtept>
    <rtept lat="45.68081233" lon="15.16629973" >
      <name>rte1_455</name>
      <ele>500.00</ele>
    </rtept>
    <rtept lat="45.68083051" lon="15.16617784" >
      <name>rte1_456</name>
      <ele>500.00</ele>
    </rtept>
    <rtept lat="45.68084417" lon="15.16606234" >
      <name>rte1_457</name>
      <ele>500.00</ele>
    </rtept>
    <rtept lat="45.68085335" lon="15.16594042" >
      <name>rte1_458</name>
      <ele>500.00</ele>
    </rtept>
    <rtept lat="45.68085802" lon="15.16582490" >
      <name>rte1_459</name>
      <ele>500.00</ele>
    </rtept>
    <rtept lat="45.68086269" lon="15.16570938" >
      <name>rte1_460</name>
      <ele>500.00</ele>
    </rtept>
    <rtept lat="45.68087187" lon="15.16558745" >
      <name>rte1_461</name>
      <ele>500.00</ele>
    </rtept>
    <rtept lat="45.68088104" lon="15.16546553" >
      <name>rte1_462</name>
      <ele>500.00</ele>
    </rtept>
    <rtept lat="45.68089472" lon="15.16534361" >
      <name>rte1_463</name>
      <ele>500.00</ele>
    </rtept>
    <rtept lat="45.68091289" lon="15.16522171" >
      <name>rte1_464</name>
      <ele>497.44</ele>
    </rtept>
    <rtept lat="45.68092199" lon="15.16515756" >
      <name>rte1_465</name>
      <ele>497.44</ele>
    </rtept>
    <rtept lat="45.68093558" lon="15.16509341" >
      <name>rte1_466</name>
      <ele>497.44</ele>
    </rtept>
    <rtept lat="45.68095367" lon="15.16502928" >
      <name>rte1_467</name>
      <ele>497.44</ele>
    </rtept>
    <rtept lat="45.68096726" lon="15.16496513" >
      <name>rte1_468</name>
      <ele>491.82</ele>
    </rtept>
    <rtept lat="45.68098986" lon="15.16489459" >
      <name>rte1_469</name>
      <ele>495.12</ele>
    </rtept>
    <rtept lat="45.68101245" lon="15.16483048" >
      <name>rte1_470</name>
      <ele>495.12</ele>
    </rtept>
    <rtept lat="45.68105759" lon="15.16472791" >
      <name>rte1_471</name>
      <ele>495.12</ele>
    </rtept>
    <rtept lat="45.68111618" lon="15.16465748" >
      <name>rte1_472</name>
      <ele>490.00</ele>
    </rtept>
    <rtept lat="45.68118824" lon="15.16460635" >
      <name>rte1_473</name>
      <ele>490.00</ele>
    </rtept>
    <rtept lat="45.68126029" lon="15.16456163" >
      <name>rte1_474</name>
      <ele>492.97</ele>
    </rtept>
    <rtept lat="45.68132783" lon="15.16452332" >
      <name>rte1_475</name>
      <ele>492.97</ele>
    </rtept>
    <rtept lat="45.68139540" lon="15.16446575" >
      <name>rte1_476</name>
      <ele>492.97</ele>
    </rtept>
    <rtept lat="45.68144499" lon="15.16439529" >
      <name>rte1_477</name>
      <ele>501.55</ele>
    </rtept>
    <rtept lat="45.68148564" lon="15.16429271" >
      <name>rte1_478</name>
      <ele>500.00</ele>
    </rtept>
    <rtept lat="45.68150378" lon="15.16419007" >
      <name>rte1_479</name>
      <ele>500.00</ele>
    </rtept>
    <rtept lat="45.68152193" lon="15.16408742" >
      <name>rte1_480</name>
      <ele>500.00</ele>
    </rtept>
    <rtept lat="45.68153557" lon="15.16398477" >
      <name>rte1_481</name>
      <ele>500.00</ele>
    </rtept>
    <rtept lat="45.68154471" lon="15.16388851" >
      <name>rte1_482</name>
      <ele>500.00</ele>
    </rtept>
    <rtept lat="45.68155836" lon="15.16378586" >
      <name>rte1_483</name>
      <ele>500.00</ele>
    </rtept>
    <rtept lat="45.68156750" lon="15.16368960" >
      <name>rte1_484</name>
      <ele>500.00</ele>
    </rtept>
    <rtept lat="45.68157663" lon="15.16359335" >
      <name>rte1_485</name>
      <ele>500.00</ele>
    </rtept>
    <rtept lat="45.68158578" lon="15.16349068" >
      <name>rte1_486</name>
      <ele>500.00</ele>
    </rtept>
    <rtept lat="45.68159042" lon="15.16339441" >
      <name>rte1_487</name>
      <ele>496.70</ele>
    </rtept>
    <rtept lat="45.68159957" lon="15.16329174" >
      <name>rte1_488</name>
      <ele>496.70</ele>
    </rtept>
    <rtept lat="45.68160871" lon="15.16318907" >
      <name>rte1_489</name>
      <ele>496.70</ele>
    </rtept>
    <rtept lat="45.68162237" lon="15.16307999" >
      <name>rte1_490</name>
      <ele>496.70</ele>
    </rtept>
    <rtept lat="45.68163151" lon="15.16297732" >
      <name>rte1_491</name>
      <ele>495.80</ele>
    </rtept>
    <rtept lat="45.68164517" lon="15.16286824" >
      <name>rte1_492</name>
      <ele>495.80</ele>
    </rtept>
    <rtept lat="45.68166333" lon="15.16275276" >
      <name>rte1_493</name>
      <ele>500.00</ele>
    </rtept>
    <rtept lat="45.68168598" lon="15.16264371" >
      <name>rte1_494</name>
      <ele>500.00</ele>
    </rtept>
    <rtept lat="45.68189858" lon="15.16184841" >
      <name>rte1_495</name>
      <ele>494.50</ele>
    </rtept>
    <rtept lat="45.68188970" lon="15.16177136" >
      <name>rte1_496</name>
      <ele>495.00</ele>
    </rtept>
    <rtept lat="45.68188531" lon="15.16169433" >
      <name>rte1_497</name>
      <ele>490.00</ele>
    </rtept>
    <rtept lat="45.68187645" lon="15.16159802" >
      <name>rte1_498</name>
      <ele>490.00</ele>
    </rtept>
    <rtept lat="45.68187209" lon="15.16150173" >
      <name>rte1_499</name>
      <ele>490.00</ele>
    </rtept>
    <rtept lat="45.68186323" lon="15.16139900" >
      <name>rte1_500</name>
      <ele>490.00</ele>
    </rtept>
    <rtept lat="45.68185440" lon="15.16128344" >
      <name>rte1_501</name>
      <ele>490.00</ele>
    </rtept>
    <rtept lat="45.68184556" lon="15.16117430" >
      <name>rte1_502</name>
      <ele>490.00</ele>
    </rtept>
    <rtept lat="45.68183673" lon="15.16105873" >
      <name>rte1_503</name>
      <ele>490.00</ele>
    </rtept>
    <rtept lat="45.68183238" lon="15.16094960" >
      <name>rte1_504</name>
      <ele>490.00</ele>
    </rtept>
    <rtept lat="45.68182354" lon="15.16084046" >
      <name>rte1_505</name>
      <ele>490.00</ele>
    </rtept>
    <rtept lat="45.68181919" lon="15.16073133" >
      <name>rte1_506</name>
      <ele>490.00</ele>
    </rtept>
    <rtept lat="45.68181483" lon="15.16063504" >
      <name>rte1_507</name>
      <ele>490.00</ele>
    </rtept>
    <rtept lat="45.68181046" lon="15.16054516" >
      <name>rte1_508</name>
      <ele>490.00</ele>
    </rtept>
    <rtept lat="45.68181058" lon="15.16046172" >
      <name>rte1_509</name>
      <ele>490.00</ele>
    </rtept>
    <rtept lat="45.68181068" lon="15.16039112" >
      <name>rte1_510</name>
      <ele>490.00</ele>
    </rtept>
    <rtept lat="45.68181526" lon="15.16033336" >
      <name>rte1_511</name>
      <ele>490.00</ele>
    </rtept>
    <rtept lat="45.68182885" lon="15.16026921" >
      <name>rte1_512</name>
      <ele>490.00</ele>
    </rtept>
    <rtept lat="45.68185592" lon="15.16021794" >
      <name>rte1_513</name>
      <ele>490.00</ele>
    </rtept>
    <rtept lat="45.68188305" lon="15.16012174" >
      <name>rte1_514</name>
      <ele>483.50</ele>
    </rtept>
    <rtept lat="45.68217564" lon="15.16001346" >
      <name>rte1_515</name>
      <ele>487.37</ele>
    </rtept>
    <rtept lat="45.68225667" lon="15.15998160" >
      <name>rte1_516</name>
      <ele>487.37</ele>
    </rtept>
    <rtept lat="45.68233320" lon="15.15994973" >
      <name>rte1_517</name>
      <ele>487.37</ele>
    </rtept>
    <rtept lat="45.68240524" lon="15.15991785" >
      <name>rte1_518</name>
      <ele>494.17</ele>
    </rtept>
    <rtept lat="45.68248178" lon="15.15987313" >
      <name>rte1_519</name>
      <ele>494.17</ele>
    </rtept>
    <rtept lat="45.68255382" lon="15.15983483" >
      <name>rte1_520</name>
      <ele>492.52</ele>
    </rtept>
    <rtept lat="45.68263488" lon="15.15978371" >
      <name>rte1_521</name>
      <ele>502.50</ele>
    </rtept>
    <rtept lat="45.68271594" lon="15.15973260" >
      <name>rte1_522</name>
      <ele>502.50</ele>
    </rtept>
    <rtept lat="45.68276096" lon="15.15970705" >
      <name>rte1_523</name>
      <ele>502.50</ele>
    </rtept>
    <rtept lat="45.68281049" lon="15.15968152" >
      <name>rte1_524</name>
      <ele>510.00</ele>
    </rtept>
    <rtept lat="45.68288705" lon="15.15963039" >
      <name>rte1_525</name>
      <ele>510.00</ele>
    </rtept>
    <rtept lat="45.68295909" lon="15.15959208" >
      <name>rte1_526</name>
      <ele>510.00</ele>
    </rtept>
    <rtept lat="45.68303562" lon="15.15956021" >
      <name>rte1_527</name>
      <ele>516.55</ele>
    </rtept>
    <rtept lat="45.68310763" lon="15.15954116" >
      <name>rte1_528</name>
      <ele>520.00</ele>
    </rtept>
    <rtept lat="45.68317514" lon="15.15952210" >
      <name>rte1_529</name>
      <ele>520.00</ele>
    </rtept>
    <rtept lat="45.68324715" lon="15.15950947" >
      <name>rte1_530</name>
      <ele>521.28</ele>
    </rtept>
    <rtept lat="45.68331465" lon="15.15949682" >
      <name>rte1_531</name>
      <ele>521.28</ele>
    </rtept>
    <rtept lat="45.68338216" lon="15.15948418" >
      <name>rte1_532</name>
      <ele>521.28</ele>
    </rtept>
    <rtept lat="45.68344966" lon="15.15947153" >
      <name>rte1_533</name>
      <ele>521.28</ele>
    </rtept>
    <rtept lat="45.68351718" lon="15.15945247" >
      <name>rte1_534</name>
      <ele>520.79</ele>
    </rtept>
    <rtept lat="45.68358019" lon="15.15943340" >
      <name>rte1_535</name>
      <ele>520.79</ele>
    </rtept>
    <rtept lat="45.68364771" lon="15.15940791" >
      <name>rte1_536</name>
      <ele>520.79</ele>
    </rtept>
    <rtept lat="45.68371524" lon="15.15937601" >
      <name>rte1_537</name>
      <ele>518.54</ele>
    </rtept>
    <rtept lat="45.68378729" lon="15.15933129" >
      <name>rte1_538</name>
      <ele>518.54</ele>
    </rtept>
    <rtept lat="45.68385485" lon="15.15928013" >
      <name>rte1_539</name>
      <ele>518.54</ele>
    </rtept>
    <rtept lat="45.68392692" lon="15.15922257" >
      <name>rte1_540</name>
      <ele>515.19</ele>
    </rtept>
    <rtept lat="45.68396748" lon="15.15917133" >
      <name>rte1_541</name>
      <ele>515.19</ele>
    </rtept>
    <rtept lat="45.68401254" lon="15.15912653" >
      <name>rte1_542</name>
      <ele>515.19</ele>
    </rtept>
    <rtept lat="45.68405310" lon="15.15907529" >
      <name>rte1_543</name>
      <ele>515.19</ele>
    </rtept>
    <rtept lat="45.68408916" lon="15.15903047" >
      <name>rte1_544</name>
      <ele>515.19</ele>
    </rtept>
    <rtept lat="45.68412522" lon="15.15897922" >
      <name>rte1_545</name>
      <ele>515.19</ele>
    </rtept>
    <rtept lat="45.68416128" lon="15.15893439" >
      <name>rte1_546</name>
      <ele>507.08</ele>
    </rtept>
    <rtept lat="45.68419734" lon="15.15888314" >
      <name>rte1_547</name>
      <ele>510.00</ele>
    </rtept>
    <rtept lat="45.68422891" lon="15.15883188" >
      <name>rte1_548</name>
      <ele>510.00</ele>
    </rtept>
    <rtept lat="45.68428304" lon="15.15872933" >
      <name>rte1_549</name>
      <ele>510.00</ele>
    </rtept>
    <rtept lat="45.68433718" lon="15.15862678" >
      <name>rte1_550</name>
      <ele>510.00</ele>
    </rtept>
    <rtept lat="45.68438232" lon="15.15851779" >
      <name>rte1_551</name>
      <ele>510.00</ele>
    </rtept>
    <rtept lat="45.68442747" lon="15.15840879" >
      <name>rte1_552</name>
      <ele>510.00</ele>
    </rtept>
    <rtept lat="45.68446362" lon="15.15829335" >
      <name>rte1_553</name>
      <ele>510.00</ele>
    </rtept>
    <rtept lat="45.68448170" lon="15.15823564" >
      <name>rte1_554</name>
      <ele>510.00</ele>
    </rtept>
    <rtept lat="45.68449528" lon="15.15817148" >
      <name>rte1_555</name>
      <ele>510.00</ele>
    </rtept>
    <rtept lat="45.68451336" lon="15.15811376" >
      <name>rte1_556</name>
      <ele>510.00</ele>
    </rtept>
    <rtept lat="45.68452695" lon="15.15804961" >
      <name>rte1_557</name>
      <ele>510.00</ele>
    </rtept>
    <rtept lat="45.68454054" lon="15.15798546" >
      <name>rte1_558</name>
      <ele>510.00</ele>
    </rtept>
    <rtept lat="45.68455412" lon="15.15792131" >
      <name>rte1_559</name>
      <ele>510.00</ele>
    </rtept>
    <rtept lat="45.68456772" lon="15.15785074" >
      <name>rte1_560</name>
      <ele>510.00</ele>
    </rtept>
    <rtept lat="45.68458131" lon="15.15778659" >
      <name>rte1_561</name>
      <ele>510.00</ele>
    </rtept>
    <rtept lat="45.68459040" lon="15.15771601" >
      <name>rte1_562</name>
      <ele>510.00</ele>
    </rtept>
    <rtept lat="45.68460400" lon="15.15764544" >
      <name>rte1_563</name>
      <ele>501.58</ele>
    </rtept>
    <rtept lat="45.68461310" lon="15.15756843" >
      <name>rte1_564</name>
      <ele>508.22</ele>
    </rtept>
    <rtept lat="45.68462670" lon="15.15749786" >
      <name>rte1_565</name>
      <ele>508.22</ele>
    </rtept>
    <rtept lat="45.68463581" lon="15.15742086" >
      <name>rte1_566</name>
      <ele>508.22</ele>
    </rtept>
    <rtept lat="45.68464941" lon="15.15734387" >
      <name>rte1_567</name>
      <ele>508.22</ele>
    </rtept>
    <rtept lat="45.68466302" lon="15.15726688" >
      <name>rte1_568</name>
      <ele>510.00</ele>
    </rtept>
    <rtept lat="45.68468111" lon="15.15719632" >
      <name>rte1_569</name>
      <ele>510.00</ele>
    </rtept>
    <rtept lat="45.68470819" lon="15.15713221" >
      <name>rte1_570</name>
      <ele>510.00</ele>
    </rtept>
    <rtept lat="45.68473978" lon="15.15706811" >
      <name>rte1_571</name>
      <ele>510.00</ele>
    </rtept>
    <rtept lat="45.68477584" lon="15.15701686" >
      <name>rte1_572</name>
      <ele>510.00</ele>
    </rtept>
    <rtept lat="45.68481640" lon="15.15697204" >
      <name>rte1_573</name>
      <ele>510.00</ele>
    </rtept>
    <rtept lat="45.68486145" lon="15.15692724" >
      <name>rte1_574</name>
      <ele>510.00</ele>
    </rtept>
    <rtept lat="45.68490648" lon="15.15689527" >
      <name>rte1_575</name>
      <ele>510.00</ele>
    </rtept>
    <rtept lat="45.68495601" lon="15.15686973" >
      <name>rte1_576</name>
      <ele>510.00</ele>
    </rtept>
    <rtept lat="45.68500553" lon="15.15685061" >
      <name>rte1_577</name>
      <ele>510.00</ele>
    </rtept>
    <rtept lat="45.68505953" lon="15.15683793" >
      <name>rte1_578</name>
      <ele>510.00</ele>
    </rtept>
    <rtept lat="45.68511353" lon="15.15683166" >
      <name>rte1_579</name>
      <ele>510.00</ele>
    </rtept>
    <rtept lat="45.68516751" lon="15.15683823" >
      <name>rte1_580</name>
      <ele>510.00</ele>
    </rtept>
    <rtept lat="45.68521698" lon="15.15685763" >
      <name>rte1_581</name>
      <ele>510.00</ele>
    </rtept>
    <rtept lat="45.68527093" lon="15.15688346" >
      <name>rte1_582</name>
      <ele>509.00</ele>
    </rtept>
    <rtept lat="45.68532037" lon="15.15692211" >
      <name>rte1_583</name>
      <ele>509.00</ele>
    </rtept>
    <rtept lat="45.68539227" lon="15.15698009" >
      <name>rte1_584</name>
      <ele>509.00</ele>
    </rtept>
    <rtept lat="45.68546868" lon="15.15703808" >
      <name>rte1_585</name>
      <ele>510.00</ele>
    </rtept>
    <rtept lat="45.68553608" lon="15.15709604" >
      <name>rte1_586</name>
      <ele>510.00</ele>
    </rtept>
    <rtept lat="45.68560349" lon="15.15715400" >
      <name>rte1_587</name>
      <ele>510.00</ele>
    </rtept>
    <rtept lat="45.68599911" lon="15.15736696" >
      <name>rte1_588</name>
      <ele>510.00</ele>
    </rtept>
    <rtept lat="45.68607111" lon="15.15736074" >
      <name>rte1_589</name>
      <ele>510.00</ele>
    </rtept>
    <rtept lat="45.68614310" lon="15.15735453" >
      <name>rte1_590</name>
      <ele>510.00</ele>
    </rtept>
    <rtept lat="45.68621510" lon="15.15734831" >
      <name>rte1_591</name>
      <ele>506.54</ele>
    </rtept>
    <rtept lat="45.68628709" lon="15.15734210" >
      <name>rte1_592</name>
      <ele>506.54</ele>
    </rtept>
    <rtept lat="45.68635460" lon="15.15732945" >
      <name>rte1_593</name>
      <ele>506.54</ele>
    </rtept>
    <rtept lat="45.68641760" lon="15.15731679" >
      <name>rte1_594</name>
      <ele>500.00</ele>
    </rtept>
    <rtept lat="45.68648062" lon="15.15729771" >
      <name>rte1_595</name>
      <ele>505.26</ele>
    </rtept>
    <rtept lat="45.68654364" lon="15.15727221" >
      <name>rte1_596</name>
      <ele>505.26</ele>
    </rtept>
    <rtept lat="45.68660666" lon="15.15724672" >
      <name>rte1_597</name>
      <ele>505.26</ele>
    </rtept>
    <rtept lat="45.68666520" lon="15.15720837" >
      <name>rte1_598</name>
      <ele>507.22</ele>
    </rtept>
    <rtept lat="45.68671925" lon="15.15717000" >
      <name>rte1_599</name>
      <ele>507.22</ele>
    </rtept>
    <rtept lat="45.68677781" lon="15.15711882" >
      <name>rte1_600</name>
      <ele>507.22</ele>
    </rtept>
    <rtept lat="45.68683188" lon="15.15706120" >
      <name>rte1_601</name>
      <ele>507.22</ele>
    </rtept>
    <rtept lat="45.68688595" lon="15.15699716" >
      <name>rte1_602</name>
      <ele>511.10</ele>
    </rtept>
    <rtept lat="45.68693555" lon="15.15692026" >
      <name>rte1_603</name>
      <ele>507.50</ele>
    </rtept>
    <rtept lat="45.68698966" lon="15.15683697" >
      <name>rte1_604</name>
      <ele>507.50</ele>
    </rtept>
    <rtept lat="45.68702576" lon="15.15676004" >
      <name>rte1_605</name>
      <ele>507.50</ele>
    </rtept>
    <rtept lat="45.68706186" lon="15.15668311" >
      <name>rte1_606</name>
      <ele>507.50</ele>
    </rtept>
    <rtept lat="45.68709795" lon="15.15661260" >
      <name>rte1_607</name>
      <ele>507.58</ele>
    </rtept>
    <rtept lat="45.68712954" lon="15.15654207" >
      <name>rte1_608</name>
      <ele>507.58</ele>
    </rtept>
    <rtept lat="45.68716114" lon="15.15646513" >
      <name>rte1_609</name>
      <ele>507.58</ele>
    </rtept>
    <rtept lat="45.68719273" lon="15.15639461" >
      <name>rte1_610</name>
      <ele>507.58</ele>
    </rtept>
    <rtept lat="45.68721982" lon="15.15632407" >
      <name>rte1_611</name>
      <ele>500.00</ele>
    </rtept>
    <rtept lat="45.68724691" lon="15.15625354" >
      <name>rte1_612</name>
      <ele>500.00</ele>
    </rtept>
    <rtept lat="45.68727401" lon="15.15618300" >
      <name>rte1_613</name>
      <ele>500.00</ele>
    </rtept>
    <rtept lat="45.68729659" lon="15.15611887" >
      <name>rte1_614</name>
      <ele>510.00</ele>
    </rtept>
    <rtept lat="45.68731918" lon="15.15604832" >
      <name>rte1_615</name>
      <ele>510.00</ele>
    </rtept>
    <rtept lat="45.68734627" lon="15.15598421" >
      <name>rte1_616</name>
      <ele>510.00</ele>
    </rtept>
    <rtept lat="45.68736886" lon="15.15591366" >
      <name>rte1_617</name>
      <ele>510.00</ele>
    </rtept>
    <rtept lat="45.68739144" lon="15.15584953" >
      <name>rte1_618</name>
      <ele>510.00</ele>
    </rtept>
    <rtept lat="45.68741403" lon="15.15578540" >
      <name>rte1_619</name>
      <ele>510.00</ele>
    </rtept>
    <rtept lat="45.68743662" lon="15.15571485" >
      <name>rte1_620</name>
      <ele>510.00</ele>
    </rtept>
    <rtept lat="45.68745921" lon="15.15565072" >
      <name>rte1_621</name>
      <ele>510.00</ele>
    </rtept>
    <rtept lat="45.68748629" lon="15.15558660" >
      <name>rte1_622</name>
      <ele>510.00</ele>
    </rtept>
    <rtept lat="45.68750887" lon="15.15552247" >
      <name>rte1_623</name>
      <ele>510.00</ele>
    </rtept>
    <rtept lat="45.68753596" lon="15.15545835" >
      <name>rte1_624</name>
      <ele>510.00</ele>
    </rtept>
    <rtept lat="45.68756303" lon="15.15540066" >
      <name>rte1_625</name>
      <ele>510.00</ele>
    </rtept>
    <rtept lat="45.68759011" lon="15.15533654" >
      <name>rte1_626</name>
      <ele>510.00</ele>
    </rtept>
    <rtept lat="45.68761720" lon="15.15527242" >
      <name>rte1_627</name>
      <ele>510.00</ele>
    </rtept>
    <rtept lat="45.68764877" lon="15.15521473" >
      <name>rte1_628</name>
      <ele>510.00</ele>
    </rtept>
    <rtept lat="45.68768485" lon="15.15515064" >
      <name>rte1_629</name>
      <ele>510.00</ele>
    </rtept>
    <rtept lat="45.68771643" lon="15.15508654" >
      <name>rte1_630</name>
      <ele>510.00</ele>
    </rtept>
    <rtept lat="45.68775700" lon="15.15502888" >
      <name>rte1_631</name>
      <ele>510.00</ele>
    </rtept>
    <rtept lat="45.68779307" lon="15.15497120" >
      <name>rte1_632</name>
      <ele>510.00</ele>
    </rtept>
    <rtept lat="45.68783815" lon="15.15490713" >
      <name>rte1_633</name>
      <ele>510.00</ele>
    </rtept>
    <rtept lat="45.68788322" lon="15.15484949" >
      <name>rte1_634</name>
      <ele>510.00</ele>
    </rtept>
    <rtept lat="45.68792829" lon="15.15479184" >
      <name>rte1_635</name>
      <ele>510.00</ele>
    </rtept>
    <rtept lat="45.68798236" lon="15.15473421" >
      <name>rte1_636</name>
      <ele>512.07</ele>
    </rtept>
    <rtept lat="45.68803194" lon="15.15467016" >
      <name>rte1_637</name>
      <ele>512.07</ele>
    </rtept>
    <rtept lat="45.68808150" lon="15.15461894" >
      <name>rte1_638</name>
      <ele>512.07</ele>
    </rtept>
    <rtept lat="45.68812657" lon="15.15456129" >
      <name>rte1_639</name>
      <ele>512.07</ele>
    </rtept>
    <rtept lat="45.68817164" lon="15.15450364" >
      <name>rte1_640</name>
      <ele>512.07</ele>
    </rtept>
    <rtept lat="45.68821671" lon="15.15444599" >
      <name>rte1_641</name>
      <ele>513.59</ele>
    </rtept>
    <rtept lat="45.68825728" lon="15.15438833" >
      <name>rte1_642</name>
      <ele>515.00</ele>
    </rtept>
    <rtept lat="45.68829784" lon="15.15433709" >
      <name>rte1_643</name>
      <ele>515.00</ele>
    </rtept>
    <rtept lat="45.68833392" lon="15.15427941" >
      <name>rte1_644</name>
      <ele>515.00</ele>
    </rtept>
    <rtept lat="45.68836999" lon="15.15422174" >
      <name>rte1_645</name>
      <ele>515.00</ele>
    </rtept>
    <rtept lat="45.68840606" lon="15.15416407" >
      <name>rte1_646</name>
      <ele>515.00</ele>
    </rtept>
    <rtept lat="45.68844212" lon="15.15411281" >
      <name>rte1_647</name>
      <ele>513.50</ele>
    </rtept>
    <rtept lat="45.68847369" lon="15.15405512" >
      <name>rte1_648</name>
      <ele>513.70</ele>
    </rtept>
    <rtept lat="45.68850527" lon="15.15399744" >
      <name>rte1_649</name>
      <ele>513.70</ele>
    </rtept>
    <rtept lat="45.68853684" lon="15.15393975" >
      <name>rte1_650</name>
      <ele>513.70</ele>
    </rtept>
    <rtept lat="45.68856391" lon="15.15388205" >
      <name>rte1_651</name>
      <ele>513.70</ele>
    </rtept>
    <rtept lat="45.68859549" lon="15.15381794" >
      <name>rte1_652</name>
      <ele>513.70</ele>
    </rtept>
    <rtept lat="45.68862257" lon="15.15376024" >
      <name>rte1_653</name>
      <ele>511.64</ele>
    </rtept>
    <rtept lat="45.68864965" lon="15.15369612" >
      <name>rte1_654</name>
      <ele>508.03</ele>
    </rtept>
    <rtept lat="45.68867222" lon="15.15363841" >
      <name>rte1_655</name>
      <ele>508.03</ele>
    </rtept>
    <rtept lat="45.68869931" lon="15.15357429" >
      <name>rte1_656</name>
      <ele>508.03</ele>
    </rtept>
    <rtept lat="45.68872190" lon="15.15350374" >
      <name>rte1_657</name>
      <ele>508.03</ele>
    </rtept>
    <rtept lat="45.68874898" lon="15.15343962" >
      <name>rte1_658</name>
      <ele>501.73</ele>
    </rtept>
    <rtept lat="45.68877157" lon="15.15336907" >
      <name>rte1_659</name>
      <ele>501.73</ele>
    </rtept>
    <rtept lat="45.68879415" lon="15.15330493" >
      <name>rte1_660</name>
      <ele>501.73</ele>
    </rtept>
    <rtept lat="45.68881675" lon="15.15322796" >
      <name>rte1_661</name>
      <ele>501.73</ele>
    </rtept>
    <rtept lat="45.68883934" lon="15.15315741" >
      <name>rte1_662</name>
      <ele>501.73</ele>
    </rtept>
    <rtept lat="45.68886194" lon="15.15308044" >
      <name>rte1_663</name>
      <ele>500.00</ele>
    </rtept>
    <rtept lat="45.68888454" lon="15.15300347" >
      <name>rte1_664</name>
      <ele>500.00</ele>
    </rtept>
    <rtept lat="45.68890714" lon="15.15292650" >
      <name>rte1_665</name>
      <ele>500.00</ele>
    </rtept>
    <rtept lat="45.68892975" lon="15.15284310" >
      <name>rte1_666</name>
      <ele>500.00</ele>
    </rtept>
    <rtept lat="45.68895236" lon="15.15275971" >
      <name>rte1_667</name>
      <ele>500.00</ele>
    </rtept>
    <rtept lat="45.68897947" lon="15.15267633" >
      <name>rte1_668</name>
      <ele>500.00</ele>
    </rtept>
    <rtept lat="45.68902455" lon="15.15261226" >
      <name>rte1_669</name>
      <ele>500.00</ele>
    </rtept>
    <rtept lat="45.68906964" lon="15.15253535" >
      <name>rte1_670</name>
      <ele>500.00</ele>
    </rtept>
    <rtept lat="45.68911024" lon="15.15245843" >
      <name>rte1_671</name>
      <ele>500.00</ele>
    </rtept>
    <rtept lat="45.68915084" lon="15.15237509" >
      <name>rte1_672</name>
      <ele>500.00</ele>
    </rtept>
    <rtept lat="45.68918696" lon="15.15228531" >
      <name>rte1_673</name>
      <ele>500.00</ele>
    </rtept>
    <rtept lat="45.68921858" lon="15.15218911" >
      <name>rte1_674</name>
      <ele>500.00</ele>
    </rtept>
    <rtept lat="45.68925020" lon="15.15209290" >
      <name>rte1_675</name>
      <ele>500.00</ele>
    </rtept>
    <rtept lat="45.68927734" lon="15.15199026" >
      <name>rte1_676</name>
      <ele>500.00</ele>
    </rtept>
    <rtept lat="45.68930448" lon="15.15188121" >
      <name>rte1_677</name>
      <ele>500.00</ele>
    </rtept>
    <rtept lat="45.68933162" lon="15.15177215" >
      <name>rte1_678</name>
      <ele>500.00</ele>
    </rtept>
    <rtept lat="45.68935876" lon="15.15166309" >
      <name>rte1_679</name>
      <ele>500.00</ele>
    </rtept>
    <rtept lat="45.68938140" lon="15.15155402" >
      <name>rte1_680</name>
      <ele>500.00</ele>
    </rtept>
    <rtept lat="45.68940855" lon="15.15143854" >
      <name>rte1_681</name>
      <ele>500.00</ele>
    </rtept>
    <rtept lat="45.68943570" lon="15.15132306" >
      <name>rte1_682</name>
      <ele>500.00</ele>
    </rtept>
    <rtept lat="45.68945835" lon="15.15120757" >
      <name>rte1_683</name>
      <ele>500.00</ele>
    </rtept>
    <rtept lat="45.68948999" lon="15.15109853" >
      <name>rte1_684</name>
      <ele>500.00</ele>
    </rtept>
    <rtept lat="45.68950809" lon="15.15102154" >
      <name>rte1_685</name>
      <ele>500.00</ele>
    </rtept>
    <rtept lat="45.68952619" lon="15.15094456" >
      <name>rte1_686</name>
      <ele>500.00</ele>
    </rtept>
    <rtept lat="45.68954878" lon="15.15087400" >
      <name>rte1_687</name>
      <ele>500.00</ele>
    </rtept>
    <rtept lat="45.68957137" lon="15.15080345" >
      <name>rte1_688</name>
      <ele>500.00</ele>
    </rtept>
    <rtept lat="45.68959396" lon="15.15073289" >
      <name>rte1_689</name>
      <ele>500.00</ele>
    </rtept>
    <rtept lat="45.68961654" lon="15.15066876" >
      <name>rte1_690</name>
      <ele>500.00</ele>
    </rtept>
    <rtept lat="45.68964362" lon="15.15060464" >
      <name>rte1_691</name>
      <ele>500.00</ele>
    </rtept>
    <rtept lat="45.68966620" lon="15.15054050" >
      <name>rte1_692</name>
      <ele>500.00</ele>
    </rtept>
    <rtept lat="45.68969328" lon="15.15047638" >
      <name>rte1_693</name>
      <ele>500.00</ele>
    </rtept>
    <rtept lat="45.68972485" lon="15.15041869" >
      <name>rte1_694</name>
      <ele>500.00</ele>
    </rtept>
    <rtept lat="45.68975192" lon="15.15036741" >
      <name>rte1_695</name>
      <ele>500.00</ele>
    </rtept>
    <rtept lat="45.68978349" lon="15.15030972" >
      <name>rte1_696</name>
      <ele>500.00</ele>
    </rtept>
    <rtept lat="45.68981505" lon="15.15025844" >
      <name>rte1_697</name>
      <ele>500.00</ele>
    </rtept>
    <rtept lat="45.68984661" lon="15.15020717" >
      <name>rte1_698</name>
      <ele>500.00</ele>
    </rtept>
    <rtept lat="45.68988266" lon="15.15016233" >
      <name>rte1_699</name>
      <ele>500.00</ele>
    </rtept>
    <rtept lat="45.68991872" lon="15.15011749" >
      <name>rte1_700</name>
      <ele>500.00</ele>
    </rtept>
    <rtept lat="45.68995477" lon="15.15007265" >
      <name>rte1_701</name>
      <ele>500.00</ele>
    </rtept>
    <rtept lat="45.68999081" lon="15.15003423" >
      <name>rte1_702</name>
      <ele>500.00</ele>
    </rtept>
    <rtept lat="45.69003136" lon="15.14998941" >
      <name>rte1_703</name>
      <ele>495.98</ele>
    </rtept>
    <rtept lat="45.69007190" lon="15.14995742" >
      <name>rte1_704</name>
      <ele>495.98</ele>
    </rtept>
    <rtept lat="45.69011244" lon="15.14991901" >
      <name>rte1_705</name>
      <ele>496.22</ele>
    </rtept>
    <rtept lat="45.69015298" lon="15.14988702" >
      <name>rte1_706</name>
      <ele>496.22</ele>
    </rtept>
    <rtept lat="45.69019801" lon="15.14985505" >
      <name>rte1_707</name>
      <ele>496.22</ele>
    </rtept>
    <rtept lat="45.69024303" lon="15.14982949" >
      <name>rte1_708</name>
      <ele>487.49</ele>
    </rtept>
    <rtept lat="45.69029256" lon="15.14980394" >
      <name>rte1_709</name>
      <ele>487.49</ele>
    </rtept>
    <rtept lat="45.69033758" lon="15.14977839" >
      <name>rte1_710</name>
      <ele>487.49</ele>
    </rtept>
    <rtept lat="45.69038710" lon="15.14975926" >
      <name>rte1_711</name>
      <ele>487.49</ele>
    </rtept>
    <rtept lat="45.69044111" lon="15.14974015" >
      <name>rte1_712</name>
      <ele>487.49</ele>
    </rtept>
    <rtept lat="45.69049063" lon="15.14972102" >
      <name>rte1_713</name>
      <ele>480.22</ele>
    </rtept>
    <rtept lat="45.69054464" lon="15.14970833" >
      <name>rte1_714</name>
      <ele>480.22</ele>
    </rtept>
    <rtept lat="45.69060314" lon="15.14969565" >
      <name>rte1_715</name>
      <ele>480.22</ele>
    </rtept>
    <rtept lat="45.69066164" lon="15.14968939" >
      <name>rte1_716</name>
      <ele>480.22</ele>
    </rtept>
    <rtept lat="45.69073815" lon="15.14967033" >
      <name>rte1_717</name>
      <ele>477.06</ele>
    </rtept>
    <rtept lat="45.69081465" lon="15.14965770" >
      <name>rte1_718</name>
      <ele>477.06</ele>
    </rtept>
    <rtept lat="45.69089116" lon="15.14963865" >
      <name>rte1_719</name>
      <ele>477.06</ele>
    </rtept>
    <rtept lat="45.69096317" lon="15.14961958" >
      <name>rte1_720</name>
      <ele>476.59</ele>
    </rtept>
    <rtept lat="45.69103067" lon="15.14960693" >
      <name>rte1_721</name>
      <ele>476.59</ele>
    </rtept>
    <rtept lat="45.69110269" lon="15.14958786" >
      <name>rte1_722</name>
      <ele>476.59</ele>
    </rtept>
    <rtept lat="45.69117020" lon="15.14956878" >
      <name>rte1_723</name>
      <ele>472.86</ele>
    </rtept>
    <rtept lat="45.69123321" lon="15.14954970" >
      <name>rte1_724</name>
      <ele>472.86</ele>
    </rtept>
    <rtept lat="45.69130072" lon="15.14953062" >
      <name>rte1_725</name>
      <ele>472.86</ele>
    </rtept>
    <rtept lat="45.69136373" lon="15.14951153" >
      <name>rte1_726</name>
      <ele>470.00</ele>
    </rtept>
    <rtept lat="45.69142675" lon="15.14949244" >
      <name>rte1_727</name>
      <ele>470.00</ele>
    </rtept>
    <rtept lat="45.69148976" lon="15.14947335" >
      <name>rte1_728</name>
      <ele>470.00</ele>
    </rtept>
    <rtept lat="45.69154827" lon="15.14946067" >
      <name>rte1_729</name>
      <ele>470.00</ele>
    </rtept>
    <rtept lat="45.69161128" lon="15.14944158" >
      <name>rte1_730</name>
      <ele>465.50</ele>
    </rtept>
    <rtept lat="45.69167429" lon="15.14942249" >
      <name>rte1_731</name>
      <ele>465.50</ele>
    </rtept>
    <rtept lat="45.69173280" lon="15.14940981" >
      <name>rte1_732</name>
      <ele>465.50</ele>
    </rtept>
    <rtept lat="45.69179581" lon="15.14939072" >
      <name>rte1_733</name>
      <ele>465.50</ele>
    </rtept>
    <rtept lat="45.69185431" lon="15.14937804" >
      <name>rte1_734</name>
      <ele>460.00</ele>
    </rtept>
    <rtept lat="45.69191732" lon="15.14936537" >
      <name>rte1_735</name>
      <ele>460.00</ele>
    </rtept>
    <rtept lat="45.69197582" lon="15.14935268" >
      <name>rte1_736</name>
      <ele>460.00</ele>
    </rtept>
    <rtept lat="45.69203883" lon="15.14934001" >
      <name>rte1_737</name>
      <ele>460.00</ele>
    </rtept>
    <rtept lat="45.69210182" lon="15.14933376" >
      <name>rte1_738</name>
      <ele>460.00</ele>
    </rtept>
    <rtept lat="45.69216933" lon="15.14932111" >
      <name>rte1_739</name>
      <ele>460.00</ele>
    </rtept>
    <rtept lat="45.69223232" lon="15.14931486" >
      <name>rte1_740</name>
      <ele>460.00</ele>
    </rtept>
    <rtept lat="45.69229982" lon="15.14930862" >
      <name>rte1_741</name>
      <ele>460.00</ele>
    </rtept>
    <rtept lat="45.69236730" lon="15.14930880" >
      <name>rte1_742</name>
      <ele>460.00</ele>
    </rtept>
    <rtept lat="45.69243929" lon="15.14930899" >
      <name>rte1_743</name>
      <ele>460.00</ele>
    </rtept>
    <rtept lat="45.69251128" lon="15.14930919" >
      <name>rte1_744</name>
      <ele>450.00</ele>
    </rtept>
    <rtept lat="45.69258326" lon="15.14930938" >
      <name>rte1_745</name>
      <ele>450.00</ele>
    </rtept>
    <rtept lat="45.69265974" lon="15.14931601" >
      <name>rte1_746</name>
      <ele>450.00</ele>
    </rtept>
    <rtept lat="45.69274071" lon="15.14932265" >
      <name>rte1_747</name>
      <ele>450.00</ele>
    </rtept>
    <rtept lat="45.69282168" lon="15.14933570" >
      <name>rte1_748</name>
      <ele>450.00</ele>
    </rtept>
    <rtept lat="45.69304664" lon="15.14932989" >
      <name>rte1_749</name>
      <ele>450.00</ele>
    </rtept>
    <rtept lat="45.69310966" lon="15.14931080" >
      <name>rte1_750</name>
      <ele>450.00</ele>
    </rtept>
    <rtept lat="45.69316370" lon="15.14927242" >
      <name>rte1_751</name>
      <ele>450.00</ele>
    </rtept>
    <rtept lat="45.69320427" lon="15.14920833" >
      <name>rte1_752</name>
      <ele>450.00</ele>
    </rtept>
    <rtept lat="45.69324037" lon="15.14913139" >
      <name>rte1_753</name>
      <ele>450.00</ele>
    </rtept>
    <rtept lat="45.69326748" lon="15.14904158" >
      <name>rte1_754</name>
      <ele>450.00</ele>
    </rtept>
    <rtept lat="45.69329010" lon="15.14894535" >
      <name>rte1_755</name>
      <ele>448.93</ele>
    </rtept>
    <rtept lat="45.69331723" lon="15.14884270" >
      <name>rte1_756</name>
      <ele>448.93</ele>
    </rtept>
    <rtept lat="45.69335335" lon="15.14874650" >
      <name>rte1_757</name>
      <ele>448.93</ele>
    </rtept>
  </rte>
</gpx>
