<?xml version="1.0" encoding="UTF-8"?>
<gpx xmlns:xsi="http://www.w3.org/2001/XMLSchema-instance" xmlns="http://www.topografix.com/GPX/1/1" xsi:schemaLocation="http://www.topografix.com/GPX/1/1 http://www.topografix.com/GPX/1/1/gpx.xsd http://www.garmin.com/xmlschemas/GpxExtensions/v3 http://www.garmin.com/xmlschemas/GpxExtensionsv3.xsd http://www.garmin.com/xmlschemas/TrackPointExtension/v1 http://www.garmin.com/xmlschemas/TrackPointExtensionv1.xsd http://www.topografix.com/GPX/gpx_style/0/2 http://www.topografix.com/GPX/gpx_style/0/2/gpx_style.xsd" xmlns:gpxtpx="http://www.garmin.com/xmlschemas/TrackPointExtension/v1" xmlns:gpxx="http://www.garmin.com/xmlschemas/GpxExtensions/v3" xmlns:gpx_style="http://www.topografix.com/GPX/gpx_style/0/2" version="1.1" creator="Hribi.net">
<metadata>
    <name>trdinova_pot_1776861189</name>
    <author>
        <name>gpx.studio</name>
        <link href="https://gpx.studio"></link>
    </author>
</metadata>
<trk>
    <name>trdinova_pot_1776861189</name>
    <type>Cycling</type>
    <trkseg>
    <trkpt lat="45.679075" lon="15.054994">
        <ele>748.8</ele>
    </trkpt>
    <trkpt lat="45.679077791667055" lon="15.055029406426044">
        <ele>753.4</ele>
    </trkpt>
    <trkpt lat="45.678817873" lon="15.055064392">
        <ele>751.1</ele>
    </trkpt>
    <trkpt lat="45.678547983" lon="15.055090497">
        <ele>748.0</ele>
    </trkpt>
    <trkpt lat="45.677961766" lon="15.055668105">
        <ele>745.5</ele>
    </trkpt>
    <trkpt lat="45.678096703" lon="15.056579015">
        <ele>749.8</ele>
    </trkpt>
    <trkpt lat="45.677736441" lon="15.057347973">
        <ele>760.4</ele>
    </trkpt>
    <trkpt lat="45.678060319" lon="15.058016292">
        <ele>759.9</ele>
    </trkpt>
    <trkpt lat="45.677988171" lon="15.058812155">
        <ele>767.2</ele>
    </trkpt>
    <trkpt lat="45.677838145" lon="15.059090659">
        <ele>770.4</ele>
    </trkpt>
    <trkpt lat="45.677484127" lon="15.059540751">
        <ele>772.1</ele>
    </trkpt>
    <trkpt lat="45.677307123" lon="15.060404904">
        <ele>771.1</ele>
    </trkpt>
    <trkpt lat="45.676990798" lon="15.061035494">
        <ele>762.6</ele>
    </trkpt>
    <trkpt lat="45.676751046" lon="15.061251134">
        <ele>757.3</ele>
    </trkpt>
    <trkpt lat="45.676560231" lon="15.062505174">
        <ele>746.8</ele>
    </trkpt>
    <trkpt lat="45.676484943" lon="15.062998358">
        <ele>744.9</ele>
    </trkpt>
    <trkpt lat="45.676918021" lon="15.063908333">
        <ele>743.8</ele>
    </trkpt>
    <trkpt lat="45.676546416" lon="15.065077032">
        <ele>744.6</ele>
    </trkpt>
    <trkpt lat="45.676445984" lon="15.065394156">
        <ele>742.1</ele>
    </trkpt>
    <trkpt lat="45.676243281" lon="15.065862187">
        <ele>738.1</ele>
    </trkpt>
    <trkpt lat="45.67598971" lon="15.065948407">
        <ele>734.1</ele>
    </trkpt>
    <trkpt lat="45.675607448" lon="15.066486498">
        <ele>724.9</ele>
    </trkpt>
    <trkpt lat="45.675352625" lon="15.06652782">
        <ele>719.8</ele>
    </trkpt>
    <trkpt lat="45.674968475" lon="15.066505372">
        <ele>711.4</ele>
    </trkpt>
    <trkpt lat="45.67458119" lon="15.066587999">
        <ele>704.8</ele>
    </trkpt>
    <trkpt lat="45.67454164" lon="15.066612244">
        <ele>703.9</ele>
    </trkpt>
    <trkpt lat="45.674666536" lon="15.067422507">
        <ele>704.0</ele>
    </trkpt>
    <trkpt lat="45.674679711" lon="15.067948955">
        <ele>703.3</ele>
    </trkpt>
    <trkpt lat="45.674652143" lon="15.068596605">
        <ele>700.3</ele>
    </trkpt>
    <trkpt lat="45.67476571" lon="15.069870443">
        <ele>694.7</ele>
    </trkpt>
    <trkpt lat="45.674770097" lon="15.069913544">
        <ele>694.4</ele>
    </trkpt>
    <trkpt lat="45.674920771" lon="15.070516313">
        <ele>693.3</ele>
    </trkpt>
    <trkpt lat="45.675198217" lon="15.07104905">
        <ele>690.3</ele>
    </trkpt>
    <trkpt lat="45.675554742" lon="15.071582605">
        <ele>684.1</ele>
    </trkpt>
    <trkpt lat="45.675923134" lon="15.071929363">
        <ele>681.3</ele>
    </trkpt>
    <trkpt lat="45.676026699" lon="15.072365954">
        <ele>677.3</ele>
    </trkpt>
    <trkpt lat="45.676003506" lon="15.07307202">
        <ele>672.0</ele>
    </trkpt>
    <trkpt lat="45.676029837" lon="15.073877809">
        <ele>673.0</ele>
    </trkpt>
    <trkpt lat="45.676151027" lon="15.074869603">
        <ele>668.9</ele>
    </trkpt>
    <trkpt lat="45.676096407" lon="15.075748156">
        <ele>665.4</ele>
    </trkpt>
    <trkpt lat="45.676068784" lon="15.076062566">
        <ele>665.7</ele>
    </trkpt>
    <trkpt lat="45.675699715" lon="15.07655036">
        <ele>665.6</ele>
    </trkpt>
    <trkpt lat="45.675055722" lon="15.077133349">
        <ele>664.4</ele>
    </trkpt>
    <trkpt lat="45.674799604" lon="15.077344462">
        <ele>665.1</ele>
    </trkpt>
    <trkpt lat="45.674638328" lon="15.077658854">
        <ele>666.7</ele>
    </trkpt>
    <trkpt lat="45.674448128" lon="15.07812057">
        <ele>669.1</ele>
    </trkpt>
    <trkpt lat="45.674051424" lon="15.078582322">
        <ele>672.4</ele>
    </trkpt>
    <trkpt lat="45.673665419" lon="15.078810521">
        <ele>674.8</ele>
    </trkpt>
    <trkpt lat="45.6734482" lon="15.079319821">
        <ele>675.8</ele>
    </trkpt>
    <trkpt lat="45.67298435" lon="15.079960365">
        <ele>679.3</ele>
    </trkpt>
    <trkpt lat="45.672813" lon="15.080223562">
        <ele>679.8</ele>
    </trkpt>
    <trkpt lat="45.672801042" lon="15.080386112">
        <ele>679.7</ele>
    </trkpt>
    <trkpt lat="45.672422574" lon="15.080133713">
        <ele>686.1</ele>
    </trkpt>
    <trkpt lat="45.67237232" lon="15.080389706">
        <ele>687.1</ele>
    </trkpt>
    <trkpt lat="45.672238009" lon="15.080847002">
        <ele>690.4</ele>
    </trkpt>
    <trkpt lat="45.672178364" lon="15.081049949">
        <ele>692.4</ele>
    </trkpt>
    <trkpt lat="45.672244299" lon="15.081718296">
        <ele>690.5</ele>
    </trkpt>
    <trkpt lat="45.672236101" lon="15.082141438">
        <ele>691.5</ele>
    </trkpt>
    <trkpt lat="45.672109298" lon="15.08334157">
        <ele>685.9</ele>
    </trkpt>
    <trkpt lat="45.67210491" lon="15.083428697">
        <ele>685.2</ele>
    </trkpt>
    <trkpt lat="45.671919729" lon="15.083854508">
        <ele>684.9</ele>
    </trkpt>
    <trkpt lat="45.671366128" lon="15.084219242">
        <ele>689.6</ele>
    </trkpt>
    <trkpt lat="45.67104218" lon="15.084353953">
        <ele>689.3</ele>
    </trkpt>
    <trkpt lat="45.670573942" lon="15.084494108">
        <ele>690.6</ele>
    </trkpt>
    <trkpt lat="45.670191642" lon="15.084570519">
        <ele>691.2</ele>
    </trkpt>
    <trkpt lat="45.669660591" lon="15.084300108">
        <ele>693.9</ele>
    </trkpt>
    <trkpt lat="45.669420161" lon="15.084254267">
        <ele>692.5</ele>
    </trkpt>
    <trkpt lat="45.668629184" lon="15.083643404">
        <ele>694.3</ele>
    </trkpt>
    <trkpt lat="45.668221798" lon="15.083329029">
        <ele>694.9</ele>
    </trkpt>
    <trkpt lat="45.668086794" lon="15.083412591">
        <ele>696.4</ele>
    </trkpt>
    <trkpt lat="45.667741521" lon="15.083404461">
        <ele>703.8</ele>
    </trkpt>
    <trkpt lat="45.667551944" lon="15.083602988">
        <ele>709.5</ele>
    </trkpt>
    <trkpt lat="45.667206071" lon="15.083442217">
        <ele>712.5</ele>
    </trkpt>
    <trkpt lat="45.666831313" lon="15.083066667">
        <ele>711.2</ele>
    </trkpt>
    <trkpt lat="45.66644836" lon="15.082852015">
        <ele>716.9</ele>
    </trkpt>
    <trkpt lat="45.665908453" lon="15.082465703">
        <ele>728.6</ele>
    </trkpt>
    <trkpt lat="45.66562405" lon="15.08152161">
        <ele>733.0</ele>
    </trkpt>
    <trkpt lat="45.665458987" lon="15.080405875">
        <ele>750.4</ele>
    </trkpt>
    <trkpt lat="45.665298889" lon="15.080268478">
        <ele>754.9</ele>
    </trkpt>
    <trkpt lat="45.665158892" lon="15.080148041">
        <ele>758.7</ele>
    </trkpt>
    <trkpt lat="45.664769053" lon="15.080513718">
        <ele>765.7</ele>
    </trkpt>
    <trkpt lat="45.664304435" lon="15.080878434">
        <ele>771.8</ele>
    </trkpt>
    <trkpt lat="45.664004378" lon="15.080019645">
        <ele>786.7</ele>
    </trkpt>
    <trkpt lat="45.663182568" lon="15.079496807">
        <ele>811.4</ele>
    </trkpt>
    <trkpt lat="45.662789539" lon="15.079247067">
        <ele>812.8</ele>
    </trkpt>
    <trkpt lat="45.662264683" lon="15.078367634">
        <ele>815.1</ele>
    </trkpt>
    <trkpt lat="45.661800132" lon="15.078281378">
        <ele>820.0</ele>
    </trkpt>
    <trkpt lat="45.661140283" lon="15.078367616">
        <ele>831.9</ele>
    </trkpt>
    <trkpt lat="45.66057017" lon="15.07832447">
        <ele>838.1</ele>
    </trkpt>
    <trkpt lat="45.660104977" lon="15.079161745">
        <ele>846.8</ele>
    </trkpt>
    <trkpt lat="45.659220312" lon="15.079333305">
        <ele>850.8</ele>
    </trkpt>
    <trkpt lat="45.658950328" lon="15.079741149">
        <ele>854.7</ele>
    </trkpt>
    <trkpt lat="45.658665292" lon="15.080041213">
        <ele>862.0</ele>
    </trkpt>
    <trkpt lat="45.657885471" lon="15.080277452">
        <ele>869.6</ele>
    </trkpt>
    <trkpt lat="45.657495582" lon="15.080642132">
        <ele>874.4</ele>
    </trkpt>
    <trkpt lat="45.657120733" lon="15.080856884">
        <ele>873.8</ele>
    </trkpt>
    <trkpt lat="45.656850732" lon="15.081564684">
        <ele>872.9</ele>
    </trkpt>
    <trkpt lat="45.656294433" lon="15.082572639">
        <ele>870.3</ele>
    </trkpt>
    <trkpt lat="45.65628315" lon="15.082593282">
        <ele>870.2</ele>
    </trkpt>
    <trkpt lat="45.6561758" lon="15.082788207">
        <ele>869.0</ele>
    </trkpt>
    <trkpt lat="45.656013786" lon="15.083158349">
        <ele>868.6</ele>
    </trkpt>
    <trkpt lat="45.655875669" lon="15.083474556">
        <ele>870.8</ele>
    </trkpt>
    <trkpt lat="45.65568602" lon="15.084728586">
        <ele>891.5</ele>
    </trkpt>
    <trkpt lat="45.65568099" lon="15.084761815">
        <ele>892.1</ele>
    </trkpt>
    <trkpt lat="45.655549132" lon="15.086031108">
        <ele>915.0</ele>
    </trkpt>
    <trkpt lat="45.655540354" lon="15.086118271">
        <ele>915.7</ele>
    </trkpt>
    <trkpt lat="45.655157946" lon="15.085819114">
        <ele>916.8</ele>
    </trkpt>
    <trkpt lat="45.654865343" lon="15.085908047">
        <ele>923.9</ele>
    </trkpt>
    <trkpt lat="45.654666944" lon="15.086052685">
        <ele>930.2</ele>
    </trkpt>
    <trkpt lat="45.654320955" lon="15.085802064">
        <ele>929.5</ele>
    </trkpt>
    <trkpt lat="45.654249379" lon="15.085567604">
        <ele>926.4</ele>
    </trkpt>
    <trkpt lat="45.653394153" lon="15.085166937">
        <ele>928.2</ele>
    </trkpt>
    <trkpt lat="45.653305622" lon="15.085125651">
        <ele>928.0</ele>
    </trkpt>
    <trkpt lat="45.65292701" lon="15.085135541">
        <ele>935.7</ele>
    </trkpt>
    <trkpt lat="45.652548991" lon="15.085105888">
        <ele>939.4</ele>
    </trkpt>
    <trkpt lat="45.652195435" lon="15.085310659">
        <ele>946.5</ele>
    </trkpt>
    <trkpt lat="45.651909737" lon="15.085288246">
        <ele>950.7</ele>
    </trkpt>
    <trkpt lat="45.651534248" lon="15.085142737">
        <ele>953.5</ele>
    </trkpt>
    <trkpt lat="45.651205803" lon="15.085081624">
        <ele>955.8</ele>
    </trkpt>
    <trkpt lat="45.65073358" lon="15.085052007">
        <ele>957.8</ele>
    </trkpt>
    <trkpt lat="45.650247558" lon="15.08512204">
        <ele>957.0</ele>
    </trkpt>
    <trkpt lat="45.649946126" lon="15.085214548">
        <ele>953.2</ele>
    </trkpt>
    <trkpt lat="45.649817438" lon="15.085573012">
        <ele>951.1</ele>
    </trkpt>
    <trkpt lat="45.649805463" lon="15.086356343">
        <ele>947.3</ele>
    </trkpt>
    <trkpt lat="45.649828089" lon="15.086775838">
        <ele>948.7</ele>
    </trkpt>
    <trkpt lat="45.649750868" lon="15.087186413">
        <ele>950.0</ele>
    </trkpt>
    <trkpt lat="45.649553048" lon="15.087474754">
        <ele>951.1</ele>
    </trkpt>
    <trkpt lat="45.649445013" lon="15.087574485">
        <ele>951.4</ele>
    </trkpt>
    <trkpt lat="45.649003571" lon="15.087798112">
        <ele>946.8</ele>
    </trkpt>
    <trkpt lat="45.648601682" lon="15.088024478">
        <ele>945.3</ele>
    </trkpt>
    <trkpt lat="45.64837119" lon="15.088169116">
        <ele>946.5</ele>
    </trkpt>
    <trkpt lat="45.648177761" lon="15.088300261">
        <ele>947.4</ele>
    </trkpt>
    <trkpt lat="45.647986233" lon="15.08849524">
        <ele>949.7</ele>
    </trkpt>
    <trkpt lat="45.647896438" lon="15.088594971">
        <ele>950.9</ele>
    </trkpt>
    <trkpt lat="45.647720603" lon="15.088761097">
        <ele>952.6</ele>
    </trkpt>
    <trkpt lat="45.647562991" lon="15.089075525">
        <ele>955.2</ele>
    </trkpt>
    <trkpt lat="45.647314949" lon="15.089476156">
        <ele>959.2</ele>
    </trkpt>
    <trkpt lat="45.646948184" lon="15.089924406">
        <ele>958.3</ele>
    </trkpt>
    <trkpt lat="45.646664319" lon="15.090141861">
        <ele>956.1</ele>
    </trkpt>
    <trkpt lat="45.646455227" lon="15.090362802">
        <ele>954.5</ele>
    </trkpt>
    <trkpt lat="45.646245475" lon="15.09062246">
        <ele>953.0</ele>
    </trkpt>
    <trkpt lat="45.64603382" lon="15.090856004">
        <ele>949.3</ele>
    </trkpt>
    <trkpt lat="45.64561935" lon="15.09192676">
        <ele>928.6</ele>
    </trkpt>
    <trkpt lat="45.645414638" lon="15.092150476">
        <ele>923.5</ele>
    </trkpt>
    <trkpt lat="45.645231837" lon="15.092570879">
        <ele>920.6</ele>
    </trkpt>
    <trkpt lat="45.645057927" lon="15.093077493">
        <ele>914.6</ele>
    </trkpt>
    <trkpt lat="45.644409789" lon="15.09396687">
        <ele>909.2</ele>
    </trkpt>
    <trkpt lat="45.644281044" lon="15.094143829">
        <ele>908.5</ele>
    </trkpt>
    <trkpt lat="45.643932485" lon="15.094291162">
        <ele>904.2</ele>
    </trkpt>
    <trkpt lat="45.643826342" lon="15.094442097">
        <ele>904.4</ele>
    </trkpt>
    <trkpt lat="45.643276803" lon="15.095226335">
        <ele>904.7</ele>
    </trkpt>
    <trkpt lat="45.643008682" lon="15.095546072">
        <ele>908.8</ele>
    </trkpt>
    <trkpt lat="45.642626785" lon="15.095901859">
        <ele>911.8</ele>
    </trkpt>
    <trkpt lat="45.642376234" lon="15.096116529">
        <ele>914.2</ele>
    </trkpt>
    <trkpt lat="45.642146369" lon="15.096413899">
        <ele>916.1</ele>
    </trkpt>
    <trkpt lat="45.641925918" lon="15.096714834">
        <ele>915.2</ele>
    </trkpt>
    <trkpt lat="45.64170107" lon="15.096897156">
        <ele>912.3</ele>
    </trkpt>
    <trkpt lat="45.641589283" lon="15.097072373">
        <ele>910.2</ele>
    </trkpt>
    <trkpt lat="45.641466185" lon="15.097384986">
        <ele>907.2</ele>
    </trkpt>
    <trkpt lat="45.641349348" lon="15.097769394">
        <ele>904.3</ele>
    </trkpt>
    <trkpt lat="45.641195506" lon="15.098278756">
        <ele>904.6</ele>
    </trkpt>
    <trkpt lat="45.641003923" lon="15.098653408">
        <ele>905.5</ele>
    </trkpt>
    <trkpt lat="45.640679197" lon="15.099780766">
        <ele>896.5</ele>
    </trkpt>
    <trkpt lat="45.640368343" lon="15.100131082">
        <ele>891.9</ele>
    </trkpt>
    <trkpt lat="45.6400794" lon="15.100609938">
        <ele>883.9</ele>
    </trkpt>
    <trkpt lat="45.639857057" lon="15.100935057">
        <ele>880.4</ele>
    </trkpt>
    <trkpt lat="45.639496568" lon="15.101800197">
        <ele>875.0</ele>
    </trkpt>
    <trkpt lat="45.639082011" lon="15.102524248">
        <ele>872.5</ele>
    </trkpt>
    <trkpt lat="45.638987178" lon="15.10277398">
        <ele>867.4</ele>
    </trkpt>
    <trkpt lat="45.638849659" lon="15.103043447">
        <ele>864.6</ele>
    </trkpt>
    <trkpt lat="45.638762996" lon="15.103304857">
        <ele>865.6</ele>
    </trkpt>
    <trkpt lat="45.638651178" lon="15.103485419">
        <ele>864.9</ele>
    </trkpt>
    <trkpt lat="45.63850925" lon="15.103585985">
        <ele>864.9</ele>
    </trkpt>
    <trkpt lat="45.638364149" lon="15.103853737">
        <ele>860.1</ele>
    </trkpt>
    <trkpt lat="45.63827057" lon="15.10408278">
        <ele>856.8</ele>
    </trkpt>
    <trkpt lat="45.638087161" lon="15.10430196">
        <ele>854.8</ele>
    </trkpt>
    <trkpt lat="45.637843455" lon="15.104606489">
        <ele>850.9</ele>
    </trkpt>
    <trkpt lat="45.637662582" lon="15.104999107">
        <ele>845.1</ele>
    </trkpt>
    <trkpt lat="45.637592185" lon="15.105158935">
        <ele>843.5</ele>
    </trkpt>
    <trkpt lat="45.637509923" lon="15.105203905">
        <ele>841.4</ele>
    </trkpt>
    <trkpt lat="45.637357923" lon="15.105389874">
        <ele>838.3</ele>
    </trkpt>
    <trkpt lat="45.637224169" lon="15.10565034">
        <ele>837.8</ele>
    </trkpt>
    <trkpt lat="45.636963488" lon="15.106517215">
        <ele>836.1</ele>
    </trkpt>
    <trkpt lat="45.636874266" lon="15.10682716">
        <ele>837.2</ele>
    </trkpt>
    <trkpt lat="45.636784446" lon="15.106982515">
        <ele>837.4</ele>
    </trkpt>
    <trkpt lat="45.636679578" lon="15.107079596">
        <ele>836.9</ele>
    </trkpt>
    <trkpt lat="45.636499286" lon="15.107230513">
        <ele>835.0</ele>
    </trkpt>
    <trkpt lat="45.636359889" lon="15.107406565">
        <ele>833.5</ele>
    </trkpt>
    <trkpt lat="45.636211014" lon="15.107766753">
        <ele>834.8</ele>
    </trkpt>
    <trkpt lat="45.636112413" lon="15.108159353">
        <ele>838.4</ele>
    </trkpt>
    <trkpt lat="45.636038302" lon="15.108390175">
        <ele>840.8</ele>
    </trkpt>
    <trkpt lat="45.635926447" lon="15.108566308">
        <ele>842.4</ele>
    </trkpt>
    <trkpt lat="45.635776993" lon="15.108795324">
        <ele>845.0</ele>
    </trkpt>
    <trkpt lat="45.635637519" lon="15.108638137">
        <ele>843.4</ele>
    </trkpt>
    <trkpt lat="45.635480496" lon="15.108297667">
        <ele>842.4</ele>
    </trkpt>
    <trkpt lat="45.635269478" lon="15.10788719">
        <ele>846.9</ele>
    </trkpt>
    <trkpt lat="45.635062794" lon="15.107534153">
        <ele>849.1</ele>
    </trkpt>
    <trkpt lat="45.634928362" lon="15.107411946">
        <ele>849.6</ele>
    </trkpt>
    <trkpt lat="45.634788315" lon="15.107495516">
        <ele>852.3</ele>
    </trkpt>
    <trkpt lat="45.634518841" lon="15.107314901">
        <ele>849.0</ele>
    </trkpt>
    <trkpt lat="45.634239981" lon="15.107128078">
        <ele>846.4</ele>
    </trkpt>
    <trkpt lat="45.634096094" lon="15.107185606">
        <ele>848.0</ele>
    </trkpt>
    <trkpt lat="45.633929041" lon="15.107279866">
        <ele>850.8</ele>
    </trkpt>
    <trkpt lat="45.633454789" lon="15.107006806">
        <ele>851.0</ele>
    </trkpt>
    <trkpt lat="45.632758154" lon="15.106460612">
        <ele>861.2</ele>
    </trkpt>
    <trkpt lat="45.632673995" lon="15.106033921">
        <ele>877.7</ele>
    </trkpt>
    <trkpt lat="45.632533929" lon="15.105734755">
        <ele>888.4</ele>
    </trkpt>
    <trkpt lat="45.632182796" lon="15.105612593">
        <ele>894.5</ele>
    </trkpt>
    <trkpt lat="45.631513145" lon="15.105608147">
        <ele>908.7</ele>
    </trkpt>
    <trkpt lat="45.630758098" lon="15.105209241">
        <ele>935.8</ele>
    </trkpt>
    <trkpt lat="45.630496149" lon="15.105205701">
        <ele>938.6</ele>
    </trkpt>
    <trkpt lat="45.630361066" lon="15.105140978">
        <ele>942.1</ele>
    </trkpt>
    <trkpt lat="45.630307055" lon="15.105006284">
        <ele>947.8</ele>
    </trkpt>
    <trkpt lat="45.630325266" lon="15.104877816">
        <ele>951.7</ele>
    </trkpt>
    <trkpt lat="45.630470381" lon="15.104644218">
        <ele>957.0</ele>
    </trkpt>
    <trkpt lat="45.630406966" lon="15.104352284">
        <ele>966.5</ele>
    </trkpt>
    <trkpt lat="45.630146856" lon="15.104079187">
        <ele>981.7</ele>
    </trkpt>
    <trkpt lat="45.629856643" lon="15.104001977">
        <ele>984.4</ele>
    </trkpt>
    <trkpt lat="45.629656892" lon="15.103722529">
        <ele>988.3</ele>
    </trkpt>
    <trkpt lat="45.629555742" lon="15.103613896">
        <ele>988.6</ele>
    </trkpt>
    <trkpt lat="45.629517429" lon="15.10347551">
        <ele>991.4</ele>
    </trkpt>
    <trkpt lat="45.629403136" lon="15.103206016">
        <ele>994.2</ele>
    </trkpt>
    <trkpt lat="45.629423866" lon="15.103013803">
        <ele>998.1</ele>
    </trkpt>
    <trkpt lat="45.629869238" lon="15.102908691">
        <ele>1004.9</ele>
    </trkpt>
    <trkpt lat="45.630177669" lon="15.102816165">
        <ele>1010.9</ele>
    </trkpt>
    <trkpt lat="45.630454036" lon="15.102541307">
        <ele>1017.1</ele>
    </trkpt>
    <trkpt lat="45.630776315" lon="15.102483752">
        <ele>1023.9</ele>
    </trkpt>
    <trkpt lat="45.631092895" lon="15.102568266">
        <ele>1027.9</ele>
    </trkpt>
    <trkpt lat="45.63131151" lon="15.102606839">
        <ele>1029.3</ele>
    </trkpt>
    <trkpt lat="45.631419586" lon="15.10248828">
        <ele>1033.4</ele>
    </trkpt>
    <trkpt lat="45.631550207" lon="15.102293381">
        <ele>1039.0</ele>
    </trkpt>
    <trkpt lat="45.631483031" lon="15.101940334">
        <ele>1045.3</ele>
    </trkpt>
    <trkpt lat="45.631395709" lon="15.101427396">
        <ele>1045.0</ele>
    </trkpt>
    <trkpt lat="45.631528252" lon="15.101342029">
        <ele>1045.2</ele>
    </trkpt>
    <trkpt lat="45.631395684" lon="15.101427369">
        <ele>1045.0</ele>
    </trkpt>
    <trkpt lat="45.631483005" lon="15.101940298">
        <ele>1045.3</ele>
    </trkpt>
    <trkpt lat="45.631550225" lon="15.102293336">
        <ele>1039.0</ele>
    </trkpt>
    <trkpt lat="45.631419536" lon="15.102488253">
        <ele>1033.4</ele>
    </trkpt>
    <trkpt lat="45.631311503" lon="15.102606875">
        <ele>1029.3</ele>
    </trkpt>
    <trkpt lat="45.631092901" lon="15.102568212">
        <ele>1027.9</ele>
    </trkpt>
    <trkpt lat="45.63077634" lon="15.10248377">
        <ele>1023.9</ele>
    </trkpt>
    <trkpt lat="45.630454067" lon="15.102541298">
        <ele>1017.1</ele>
    </trkpt>
    <trkpt lat="45.630177681" lon="15.102816183">
        <ele>1010.9</ele>
    </trkpt>
    <trkpt lat="45.629869244" lon="15.102908682">
        <ele>1004.9</ele>
    </trkpt>
    <trkpt lat="45.629423841" lon="15.103013785">
        <ele>998.1</ele>
    </trkpt>
    <trkpt lat="45.629403098" lon="15.103206052">
        <ele>994.2</ele>
    </trkpt>
    <trkpt lat="45.62951746" lon="15.103475537">
        <ele>991.4</ele>
    </trkpt>
    <trkpt lat="45.629555735" lon="15.103613896">
        <ele>988.6</ele>
    </trkpt>
    <trkpt lat="45.629656873" lon="15.103722601">
        <ele>988.3</ele>
    </trkpt>
    <trkpt lat="45.62985668" lon="15.104001932">
        <ele>984.4</ele>
    </trkpt>
    <trkpt lat="45.630146875" lon="15.104079196">
        <ele>981.7</ele>
    </trkpt>
    <trkpt lat="45.630406973" lon="15.104352302">
        <ele>966.5</ele>
    </trkpt>
    <trkpt lat="45.6304704" lon="15.104644218">
        <ele>957.0</ele>
    </trkpt>
    <trkpt lat="45.630325303" lon="15.104877789">
        <ele>951.7</ele>
    </trkpt>
    <trkpt lat="45.630307042" lon="15.105006284">
        <ele>947.8</ele>
    </trkpt>
    <trkpt lat="45.630361116" lon="15.105140969">
        <ele>942.1</ele>
    </trkpt>
    <trkpt lat="45.63049613" lon="15.10520571">
        <ele>938.6</ele>
    </trkpt>
    <trkpt lat="45.630758085" lon="15.105209268">
        <ele>935.8</ele>
    </trkpt>
    <trkpt lat="45.631513183" lon="15.105608156">
        <ele>908.7</ele>
    </trkpt>
    <trkpt lat="45.632182752" lon="15.105612647">
        <ele>894.5</ele>
    </trkpt>
    <trkpt lat="45.632533898" lon="15.105734773">
        <ele>888.4</ele>
    </trkpt>
    <trkpt lat="45.632674001" lon="15.10603393">
        <ele>877.7</ele>
    </trkpt>
    <trkpt lat="45.632758167" lon="15.106460666">
        <ele>861.2</ele>
    </trkpt>
    <trkpt lat="45.633454807" lon="15.107006806">
        <ele>851.0</ele>
    </trkpt>
    <trkpt lat="45.633929047" lon="15.107279884">
        <ele>850.8</ele>
    </trkpt>
    <trkpt lat="45.634055303" lon="15.10740749">
        <ele>851.2</ele>
    </trkpt>
    <trkpt lat="45.634275772" lon="15.107644645">
        <ele>855.0</ele>
    </trkpt>
    <trkpt lat="45.634459822" lon="15.107811696">
        <ele>858.5</ele>
    </trkpt>
    <trkpt lat="45.634500016" lon="15.107966206">
        <ele>861.1</ele>
    </trkpt>
    <trkpt lat="45.634418987" lon="15.108093767">
        <ele>862.4</ele>
    </trkpt>
    <trkpt lat="45.634400777" lon="15.108267106">
        <ele>864.7</ele>
    </trkpt>
    <trkpt lat="45.634508822" lon="15.108414484">
        <ele>867.9</ele>
    </trkpt>
    <trkpt lat="45.634755646" lon="15.108928284">
        <ele>870.8</ele>
    </trkpt>
    <trkpt lat="45.634912691" lon="15.109448408">
        <ele>867.6</ele>
    </trkpt>
    <trkpt lat="45.634880675" lon="15.109710761">
        <ele>869.2</ele>
    </trkpt>
    <trkpt lat="45.634912044" lon="15.110063754">
        <ele>866.5</ele>
    </trkpt>
    <trkpt lat="45.634875631" lon="15.110692602">
        <ele>862.9</ele>
    </trkpt>
    <trkpt lat="45.634974247" lon="15.111164245">
        <ele>859.0</ele>
    </trkpt>
    <trkpt lat="45.634944706" lon="15.111212682">
        <ele>859.2</ele>
    </trkpt>
    <trkpt lat="45.63491205" lon="15.111837963">
        <ele>859.5</ele>
    </trkpt>
    <trkpt lat="45.63489884" lon="15.112036491">
        <ele>860.2</ele>
    </trkpt>
    <trkpt lat="45.634708517" lon="15.112910569">
        <ele>853.5</ele>
    </trkpt>
    <trkpt lat="45.634695986" lon="15.113026434">
        <ele>852.4</ele>
    </trkpt>
    <trkpt lat="45.634433421" lon="15.113276166">
        <ele>848.2</ele>
    </trkpt>
    <trkpt lat="45.633536435" lon="15.113170111">
        <ele>840.6</ele>
    </trkpt>
    <trkpt lat="45.633498734" lon="15.113165673">
        <ele>840.5</ele>
    </trkpt>
    <trkpt lat="45.63305716" lon="15.113056941">
        <ele>841.2</ele>
    </trkpt>
    <trkpt lat="45.632583534" lon="15.113217766">
        <ele>839.7</ele>
    </trkpt>
    <trkpt lat="45.631989298" lon="15.113828594">
        <ele>830.4</ele>
    </trkpt>
    <trkpt lat="45.631370557" lon="15.11397148">
        <ele>823.8</ele>
    </trkpt>
    <trkpt lat="45.630621156" lon="15.114681984">
        <ele>807.9</ele>
    </trkpt>
    <trkpt lat="45.630327797" lon="15.114959573">
        <ele>801.6</ele>
    </trkpt>
    <trkpt lat="45.629638681" lon="15.115785142">
        <ele>786.4</ele>
    </trkpt>
    <trkpt lat="45.629442693" lon="15.116019639">
        <ele>783.3</ele>
    </trkpt>
    <trkpt lat="45.629038126" lon="15.116343023">
        <ele>779.3</ele>
    </trkpt>
    <trkpt lat="45.628759848" lon="15.116953842">
        <ele>768.0</ele>
    </trkpt>
    <trkpt lat="45.628140431" lon="15.117150609">
        <ele>765.0</ele>
    </trkpt>
    <trkpt lat="45.627261549" lon="15.117425475">
        <ele>757.6</ele>
    </trkpt>
    <trkpt lat="45.627225125" lon="15.11743718">
        <ele>756.9</ele>
    </trkpt>
    <trkpt lat="45.627073085" lon="15.117796506">
        <ele>753.1</ele>
    </trkpt>
    <trkpt lat="45.626888396" lon="15.119051435">
        <ele>742.6</ele>
    </trkpt>
    <trkpt lat="45.626806118" lon="15.119613771">
        <ele>738.0</ele>
    </trkpt>
    <trkpt lat="45.626876453" lon="15.120075496">
        <ele>736.3</ele>
    </trkpt>
    <trkpt lat="45.627002109" lon="15.120434795">
        <ele>736.1</ele>
    </trkpt>
    <trkpt lat="45.627257189" lon="15.120876793">
        <ele>737.9</ele>
    </trkpt>
    <trkpt lat="45.627610231" lon="15.121600863">
        <ele>736.9</ele>
    </trkpt>
    <trkpt lat="45.628124129" lon="15.122653688">
        <ele>720.4</ele>
    </trkpt>
    <trkpt lat="45.628376635" lon="15.123171073">
        <ele>712.7</ele>
    </trkpt>
    <trkpt lat="45.62855569" lon="15.123490011">
        <ele>707.7</ele>
    </trkpt>
    <trkpt lat="45.628600286" lon="15.123862767">
        <ele>701.4</ele>
    </trkpt>
    <trkpt lat="45.628882321" lon="15.124281417">
        <ele>695.0</ele>
    </trkpt>
    <trkpt lat="45.629587157" lon="15.125049486">
        <ele>681.6</ele>
    </trkpt>
    <trkpt lat="45.629624874" lon="15.12543039">
        <ele>677.5</ele>
    </trkpt>
    <trkpt lat="45.629501115" lon="15.12589392">
        <ele>678.0</ele>
    </trkpt>
    <trkpt lat="45.62955071" lon="15.126668196">
        <ele>676.9</ele>
    </trkpt>
    <trkpt lat="45.629247326" lon="15.127495563">
        <ele>673.5</ele>
    </trkpt>
    <trkpt lat="45.629296959" lon="15.127855823">
        <ele>670.5</ele>
    </trkpt>
    <trkpt lat="45.629586523" lon="15.128522355">
        <ele>661.7</ele>
    </trkpt>
    <trkpt lat="45.630229795" lon="15.129418883">
        <ele>660.4</ele>
    </trkpt>
    <trkpt lat="45.630873072" lon="15.130316291">
        <ele>667.8</ele>
    </trkpt>
    <trkpt lat="45.631112399" lon="15.130649574">
        <ele>668.3</ele>
    </trkpt>
    <trkpt lat="45.631427733" lon="15.130794221">
        <ele>664.8</ele>
    </trkpt>
    <trkpt lat="45.631851116" lon="15.130848974">
        <ele>663.3</ele>
    </trkpt>
    <trkpt lat="45.632191572" lon="15.13131793">
        <ele>659.0</ele>
    </trkpt>
    <trkpt lat="45.632488055" lon="15.131149918">
        <ele>658.6</ele>
    </trkpt>
    <trkpt lat="45.63281031" lon="15.131121199">
        <ele>657.1</ele>
    </trkpt>
    <trkpt lat="45.633100521" lon="15.131464337">
        <ele>655.8</ele>
    </trkpt>
    <trkpt lat="45.633099258" lon="15.131664644">
        <ele>654.7</ele>
    </trkpt>
    <trkpt lat="45.632948503" lon="15.131949446">
        <ele>651.9</ele>
    </trkpt>
    <trkpt lat="45.633086683" lon="15.132364413">
        <ele>650.8</ele>
    </trkpt>
    <trkpt lat="45.633654513" lon="15.132527044">
        <ele>650.1</ele>
    </trkpt>
    <trkpt lat="45.63383543" lon="15.132974441">
        <ele>648.4</ele>
    </trkpt>
    <trkpt lat="45.634159542" lon="15.133142426">
        <ele>645.2</ele>
    </trkpt>
    <trkpt lat="45.634618073" lon="15.13307234">
        <ele>641.3</ele>
    </trkpt>
    <trkpt lat="45.634974228" lon="15.132650105">
        <ele>638.0</ele>
    </trkpt>
    <trkpt lat="45.635176516" lon="15.132675293">
        <ele>636.3</ele>
    </trkpt>
    <trkpt lat="45.63561806" lon="15.132945623">
        <ele>632.6</ele>
    </trkpt>
    <trkpt lat="45.636234273" lon="15.133880841">
        <ele>632.4</ele>
    </trkpt>
    <trkpt lat="45.636248092" lon="15.133901485">
        <ele>632.3</ele>
    </trkpt>
    <trkpt lat="45.637060197" lon="15.134454829">
        <ele>609.3</ele>
    </trkpt>
    <trkpt lat="45.637415734" lon="15.13469644">
        <ele>602.1</ele>
    </trkpt>
    <trkpt lat="45.637806994" lon="15.134859089">
        <ele>596.5</ele>
    </trkpt>
    <trkpt lat="45.638512993" lon="15.135491521">
        <ele>581.2</ele>
    </trkpt>
    <trkpt lat="45.639080762" lon="15.136104998">
        <ele>560.5</ele>
    </trkpt>
    <trkpt lat="45.639440694" lon="15.137246775">
        <ele>550.4</ele>
    </trkpt>
    <trkpt lat="45.639732705" lon="15.137805509">
        <ele>550.4</ele>
    </trkpt>
    <trkpt lat="45.639867734" lon="15.13785047">
        <ele>549.6</ele>
    </trkpt>
    <trkpt lat="45.640082585" lon="15.137978884">
        <ele>548.8</ele>
    </trkpt>
    <trkpt lat="45.640653497" lon="15.138970678">
        <ele>535.8</ele>
    </trkpt>
    <trkpt lat="45.640674813" lon="15.139006575">
        <ele>534.9</ele>
    </trkpt>
    <trkpt lat="45.64085572" lon="15.139135932">
        <ele>528.8</ele>
    </trkpt>
    <trkpt lat="45.64131483" lon="15.138938321">
        <ele>524.3</ele>
    </trkpt>
    <trkpt lat="45.64174629" lon="15.139272494">
        <ele>523.5</ele>
    </trkpt>
    <trkpt lat="45.642074741" lon="15.139312002">
        <ele>521.4</ele>
    </trkpt>
    <trkpt lat="45.642366185" lon="15.139533041">
        <ele>519.4</ele>
    </trkpt>
    <trkpt lat="45.643261749" lon="15.139408122">
        <ele>519.9</ele>
    </trkpt>
    <trkpt lat="45.643382972" lon="15.139391997">
        <ele>520.6</ele>
    </trkpt>
    <trkpt lat="45.643717053" lon="15.13950249">
        <ele>523.6</ele>
    </trkpt>
    <trkpt lat="45.643837037" lon="15.139717178">
        <ele>525.9</ele>
    </trkpt>
    <trkpt lat="45.644132831" lon="15.140928062">
        <ele>525.6</ele>
    </trkpt>
    <trkpt lat="45.644276636" lon="15.141518291">
        <ele>523.2</ele>
    </trkpt>
    <trkpt lat="45.644554233" lon="15.141951306">
        <ele>518.7</ele>
    </trkpt>
    <trkpt lat="45.645121313" lon="15.142600752">
        <ele>511.0</ele>
    </trkpt>
    <trkpt lat="45.645488693" lon="15.14336794">
        <ele>510.9</ele>
    </trkpt>
    <trkpt lat="45.645624374" lon="15.14338499">
        <ele>511.2</ele>
    </trkpt>
    <trkpt lat="45.645733013" lon="15.143430831">
        <ele>510.2</ele>
    </trkpt>
    <trkpt lat="45.645886855" lon="15.143542222">
        <ele>508.4</ele>
    </trkpt>
    <trkpt lat="45.646106059" lon="15.144487187">
        <ele>506.3</ele>
    </trkpt>
    <trkpt lat="45.646106028" lon="15.144781888">
        <ele>505.9</ele>
    </trkpt>
    <trkpt lat="45.646053282" lon="15.145248985">
        <ele>505.8</ele>
    </trkpt>
    <trkpt lat="45.645888117" lon="15.145646068">
        <ele>506.7</ele>
    </trkpt>
    <trkpt lat="45.645817146" lon="15.146171537">
        <ele>505.6</ele>
    </trkpt>
    <trkpt lat="45.645697241" lon="15.146418574">
        <ele>504.6</ele>
    </trkpt>
    <trkpt lat="45.645678363" lon="15.146643189">
        <ele>503.2</ele>
    </trkpt>
    <trkpt lat="45.64577946" lon="15.146911785">
        <ele>501.7</ele>
    </trkpt>
    <trkpt lat="45.645817159" lon="15.147528919">
        <ele>496.8</ele>
    </trkpt>
    <trkpt lat="45.645771968" lon="15.147625047">
        <ele>495.0</ele>
    </trkpt>
    <trkpt lat="45.645741786" lon="15.147738235">
        <ele>493.3</ele>
    </trkpt>
    <trkpt lat="45.645790783" lon="15.148140635">
        <ele>490.2</ele>
    </trkpt>
    <trkpt lat="45.645768162" lon="15.148376003">
        <ele>488.2</ele>
    </trkpt>
    <trkpt lat="45.645858614" lon="15.14850536">
        <ele>488.4</ele>
    </trkpt>
    <trkpt lat="45.646019408" lon="15.148606897">
        <ele>488.7</ele>
    </trkpt>
    <trkpt lat="45.646057075" lon="15.148767686">
        <ele>486.7</ele>
    </trkpt>
    <trkpt lat="45.646139343" lon="15.148826948">
        <ele>485.8</ele>
    </trkpt>
    <trkpt lat="45.646304501" lon="15.148775744">
        <ele>486.6</ele>
    </trkpt>
    <trkpt lat="45.646385494" lon="15.148837782">
        <ele>485.2</ele>
    </trkpt>
    <trkpt lat="45.646477213" lon="15.149055174">
        <ele>481.5</ele>
    </trkpt>
    <trkpt lat="45.646513015" lon="15.149248267">
        <ele>478.6</ele>
    </trkpt>
    <trkpt lat="45.646505479" lon="15.149637229">
        <ele>473.2</ele>
    </trkpt>
    <trkpt lat="45.646531227" lon="15.149867188">
        <ele>471.2</ele>
    </trkpt>
    <trkpt lat="45.646458342" lon="15.1500208">
        <ele>468.9</ele>
    </trkpt>
    <trkpt lat="45.646557584" lon="15.150181635">
        <ele>468.5</ele>
    </trkpt>
    <trkpt lat="45.646523691" lon="15.150224718">
        <ele>467.6</ele>
    </trkpt>
    <trkpt lat="45.64643385" lon="15.150275086">
        <ele>465.9</ele>
    </trkpt>
    <trkpt lat="45.646261169" lon="15.150438517">
        <ele>463.4</ele>
    </trkpt>
    <trkpt lat="45.64602315" lon="15.15051402">
        <ele>461.7</ele>
    </trkpt>
    <trkpt lat="45.646068354" lon="15.150870607">
        <ele>459.7</ele>
    </trkpt>
    <trkpt lat="45.646030699" lon="15.151009872">
        <ele>458.5</ele>
    </trkpt>
    <trkpt lat="45.645880594" lon="15.151221866">
        <ele>455.3</ele>
    </trkpt>
    <trkpt lat="45.645668962" lon="15.151412363">
        <ele>452.6</ele>
    </trkpt>
    <trkpt lat="45.645673352" lon="15.151558752">
        <ele>451.1</ele>
    </trkpt>
    <trkpt lat="45.645597376" lon="15.151591999">
        <ele>449.9</ele>
    </trkpt>
    <trkpt lat="45.644904058" lon="15.15226304">
        <ele>433.6</ele>
    </trkpt>
    <trkpt lat="45.644838072" lon="15.152415745">
        <ele>431.4</ele>
    </trkpt>
    <trkpt lat="45.644836188" lon="15.152563077">
        <ele>429.3</ele>
    </trkpt>
    <trkpt lat="45.644926647" lon="15.152740001">
        <ele>426.1</ele>
    </trkpt>
    <trkpt lat="45.644993826" lon="15.152820849">
        <ele>424.7</ele>
    </trkpt>
    <trkpt lat="45.644997588" lon="15.15293136">
        <ele>423.1</ele>
    </trkpt>
    <trkpt lat="45.645066073" lon="15.153027533">
        <ele>422.2</ele>
    </trkpt>
    <trkpt lat="45.645067976" lon="15.153102992">
        <ele>421.2</ele>
    </trkpt>
    <trkpt lat="45.64501646" lon="15.153209829">
        <ele>419.2</ele>
    </trkpt>
    <trkpt lat="45.645008898" lon="15.153281712">
        <ele>418.1</ele>
    </trkpt>
    <trkpt lat="45.6450014" lon="15.153370681">
        <ele>416.6</ele>
    </trkpt>
    <trkpt lat="45.645020234" lon="15.153458653">
        <ele>415.5</ele>
    </trkpt>
    <trkpt lat="45.645050354" lon="15.153577249">
        <ele>414.1</ele>
    </trkpt>
    <trkpt lat="45.645079864" lon="15.15364915">
        <ele>413.5</ele>
    </trkpt>
    <trkpt lat="45.645041574" lon="15.153736259">
        <ele>412.2</ele>
    </trkpt>
    <trkpt lat="45.645027732" lon="15.153832406">
        <ele>411.0</ele>
    </trkpt>
    <trkpt lat="45.644953036" lon="15.154101919">
        <ele>410.5</ele>
    </trkpt>
    <trkpt lat="45.644910306" lon="15.154281564">
        <ele>410.8</ele>
    </trkpt>
    <trkpt lat="45.644902783" lon="15.15453753">
        <ele>410.4</ele>
    </trkpt>
    <trkpt lat="45.644857566" lon="15.154729796">
        <ele>410.0</ele>
    </trkpt>
    <trkpt lat="45.644769618" lon="15.154970562">
        <ele>409.1</ele>
    </trkpt>
    <trkpt lat="45.644735749" lon="15.155143057">
        <ele>408.4</ele>
    </trkpt>
    <trkpt lat="45.644672313" lon="15.155408904">
        <ele>409.0</ele>
    </trkpt>
    <trkpt lat="45.644552984" lon="15.155735936">
        <ele>411.8</ele>
    </trkpt>
    <trkpt lat="45.644429232" lon="15.155946115">
        <ele>411.6</ele>
    </trkpt>
    <trkpt lat="45.644514027" lon="15.156412358">
        <ele>413.6</ele>
    </trkpt>
    <trkpt lat="45.644637741" lon="15.156680029">
        <ele>415.2</ele>
    </trkpt>
    <trkpt lat="45.644821128" lon="15.156847098">
        <ele>417.3</ele>
    </trkpt>
    <trkpt lat="45.644904032" lon="15.15691095">
        <ele>418.0</ele>
    </trkpt>
    <trkpt lat="45.644906532" lon="15.157074435">
        <ele>417.6</ele>
    </trkpt>
    <trkpt lat="45.644789093" lon="15.157413962">
        <ele>413.6</ele>
    </trkpt>
    <trkpt lat="45.644765888" lon="15.157799321">
        <ele>412.7</ele>
    </trkpt>
    <trkpt lat="45.644760857" lon="15.158305989">
        <ele>413.5</ele>
    </trkpt>
    <trkpt lat="45.644755833" lon="15.158703053">
        <ele>412.1</ele>
    </trkpt>
    <trkpt lat="45.64484942" lon="15.159004869">
        <ele>411.3</ele>
    </trkpt>
    <trkpt lat="45.644907832" lon="15.159210629">
        <ele>410.4</ele>
    </trkpt>
    <trkpt lat="45.644983778" lon="15.159467493">
        <ele>408.8</ele>
    </trkpt>
    <trkpt lat="45.645059767" lon="15.15973705">
        <ele>406.6</ele>
    </trkpt>
    <trkpt lat="45.64510938" lon="15.159936413">
        <ele>404.9</ele>
    </trkpt>
    <trkpt lat="45.645270798" lon="15.160154704">
        <ele>406.4</ele>
    </trkpt>
    <trkpt lat="45.645396407" lon="15.160321845">
        <ele>407.6</ele>
    </trkpt>
    <trkpt lat="45.645733634" lon="15.160784432">
        <ele>410.2</ele>
    </trkpt>
    <trkpt lat="45.645903817" lon="15.161189581">
        <ele>413.6</ele>
    </trkpt>
    <trkpt lat="45.646050783" lon="15.162087879">
        <ele>418.3</ele>
    </trkpt>
    <trkpt lat="45.64607211" lon="15.162825395">
        <ele>414.1</ele>
    </trkpt>
    <trkpt lat="45.646148117" lon="15.163287192">
        <ele>413.3</ele>
    </trkpt>
    <trkpt lat="45.64629569" lon="15.164064208">
        <ele>414.4</ele>
    </trkpt>
    <trkpt lat="45.646653674" lon="15.165241019">
        <ele>403.8</ele>
    </trkpt>
    <trkpt lat="45.64671209" lon="15.165431417">
        <ele>400.8</ele>
    </trkpt>
    <trkpt lat="45.64712968" lon="15.166016229">
        <ele>406.4</ele>
    </trkpt>
    <trkpt lat="45.647403464" lon="15.166466267">
        <ele>403.3</ele>
    </trkpt>
    <trkpt lat="45.647861905" lon="15.166872333">
        <ele>404.5</ele>
    </trkpt>
    <trkpt lat="45.648338573" lon="15.167104062">
        <ele>409.2</ele>
    </trkpt>
    <trkpt lat="45.648810163" lon="15.167246903">
        <ele>416.9</ele>
    </trkpt>
    <trkpt lat="45.649089" lon="15.16747238">
        <ele>414.5</ele>
    </trkpt>
    <trkpt lat="45.649699966" lon="15.167948523">
        <ele>422.9</ele>
    </trkpt>
    <trkpt lat="45.65028023" lon="15.168258433">
        <ele>431.4</ele>
    </trkpt>
    <trkpt lat="45.65076565" lon="15.168567463">
        <ele>434.6</ele>
    </trkpt>
    <trkpt lat="45.650967824" lon="15.16889533">
        <ele>435.0</ele>
    </trkpt>
    <trkpt lat="45.651703152" lon="15.169634679">
        <ele>443.7</ele>
    </trkpt>
    <trkpt lat="45.651870798" lon="15.169802619">
        <ele>445.8</ele>
    </trkpt>
    <trkpt lat="45.652590428" lon="15.170573356">
        <ele>449.4</ele>
    </trkpt>
    <trkpt lat="45.65304317" lon="15.171057611">
        <ele>458.5</ele>
    </trkpt>
    <trkpt lat="45.653519718" lon="15.172145434">
        <ele>442.5</ele>
    </trkpt>
    <trkpt lat="45.653728218" lon="15.172622467">
        <ele>435.5</ele>
    </trkpt>
    <trkpt lat="45.65446727" lon="15.173354576">
        <ele>458.7</ele>
    </trkpt>
    <trkpt lat="45.654555818" lon="15.17344262">
        <ele>458.1</ele>
    </trkpt>
    <trkpt lat="45.655284775" lon="15.174193638">
        <ele>461.2</ele>
    </trkpt>
    <trkpt lat="45.655705497" lon="15.174626626">
        <ele>464.4</ele>
    </trkpt>
    <trkpt lat="45.656055867" lon="15.174781082">
        <ele>466.9</ele>
    </trkpt>
    <trkpt lat="45.656484042" lon="15.174577156">
        <ele>470.2</ele>
    </trkpt>
    <trkpt lat="45.65683884" lon="15.174790084">
        <ele>470.3</ele>
    </trkpt>
    <trkpt lat="45.65749685" lon="15.175665977">
        <ele>474.0</ele>
    </trkpt>
    <trkpt lat="45.657732296" lon="15.175980387">
        <ele>478.1</ele>
    </trkpt>
    <trkpt lat="45.658150431" lon="15.176090826">
        <ele>490.5</ele>
    </trkpt>
    <trkpt lat="45.658627602" lon="15.176105253">
        <ele>500.3</ele>
    </trkpt>
    <trkpt lat="45.659153753" lon="15.176254355">
        <ele>505.9</ele>
    </trkpt>
    <trkpt lat="45.659468327" lon="15.176569664">
        <ele>509.4</ele>
    </trkpt>
    <trkpt lat="45.659553739" lon="15.176816674">
        <ele>509.5</ele>
    </trkpt>
    <trkpt lat="45.659673" lon="15.177134686">
        <ele>510.7</ele>
    </trkpt>
    <trkpt lat="45.659856978" lon="15.177462536">
        <ele>513.0</ele>
    </trkpt>
    <trkpt lat="45.659982535" lon="15.177725805">
        <ele>515.7</ele>
    </trkpt>
    <trkpt lat="45.660022742" lon="15.177944078">
        <ele>516.5</ele>
    </trkpt>
    <trkpt lat="45.660530033" lon="15.178607034">
        <ele>519.6</ele>
    </trkpt>
    <trkpt lat="45.660746009" lon="15.178863961">
        <ele>523.8</ele>
    </trkpt>
    <trkpt lat="45.660979552" lon="15.179031928">
        <ele>530.2</ele>
    </trkpt>
    <trkpt lat="45.66129409" lon="15.179372372">
        <ele>540.7</ele>
    </trkpt>
    <trkpt lat="45.661334258" lon="15.179539441">
        <ele>541.4</ele>
    </trkpt>
    <trkpt lat="45.661401449" lon="15.179623038">
        <ele>542.9</ele>
    </trkpt>
    <trkpt lat="45.66143726" lon="15.179822464">
        <ele>543.4</ele>
    </trkpt>
    <trkpt lat="45.661414005" lon="15.180188051">
        <ele>539.8</ele>
    </trkpt>
    <trkpt lat="45.661380077" lon="15.180338959">
        <ele>536.9</ele>
    </trkpt>
    <trkpt lat="45.66106429" lon="15.180789922">
        <ele>521.3</ele>
    </trkpt>
    <trkpt lat="45.661003422" lon="15.180928272">
        <ele>517.7</ele>
    </trkpt>
    <trkpt lat="45.660935609" lon="15.181023457">
        <ele>514.9</ele>
    </trkpt>
    <trkpt lat="45.66094438" lon="15.181113316">
        <ele>512.9</ele>
    </trkpt>
    <trkpt lat="45.661007176" lon="15.18124897">
        <ele>510.7</ele>
    </trkpt>
    <trkpt lat="45.661490626" lon="15.181692747">
        <ele>512.8</ele>
    </trkpt>
    <trkpt lat="45.661564659" lon="15.181751165">
        <ele>512.2</ele>
    </trkpt>
    <trkpt lat="45.661892385" lon="15.181980235">
        <ele>508.9</ele>
    </trkpt>
    <trkpt lat="45.661990984" lon="15.182297268">
        <ele>504.3</ele>
    </trkpt>
    <trkpt lat="45.66234819" lon="15.182616242">
        <ele>505.3</ele>
    </trkpt>
    <trkpt lat="45.662805862" lon="15.183236933">
        <ele>501.1</ele>
    </trkpt>
    <trkpt lat="45.663090889" lon="15.1836717">
        <ele>502.7</ele>
    </trkpt>
    <trkpt lat="45.663585646" lon="15.184058038">
        <ele>495.8</ele>
    </trkpt>
    <trkpt lat="45.663890727" lon="15.184354473">
        <ele>491.7</ele>
    </trkpt>
    <trkpt lat="45.664623368" lon="15.184905132">
        <ele>486.0</ele>
    </trkpt>
    <trkpt lat="45.664836189" lon="15.185255466">
        <ele>479.6</ele>
    </trkpt>
    <trkpt lat="45.66493415" lon="15.185846584">
        <ele>465.1</ele>
    </trkpt>
    <trkpt lat="45.665084801" lon="15.186244466">
        <ele>449.9</ele>
    </trkpt>
    <trkpt lat="45.665096735" lon="15.186448428">
        <ele>441.9</ele>
    </trkpt>
    <trkpt lat="45.665080437" lon="15.186705347">
        <ele>436.0</ele>
    </trkpt>
    <trkpt lat="45.665108022" lon="15.18681583">
        <ele>434.4</ele>
    </trkpt>
    <trkpt lat="45.665169539" lon="15.187103282">
        <ele>432.2</ele>
    </trkpt>
    <trkpt lat="45.665383006" lon="15.187278427">
        <ele>431.5</ele>
    </trkpt>
    <trkpt lat="45.665495404" lon="15.187316165">
        <ele>432.3</ele>
    </trkpt>
    <trkpt lat="45.665590149" lon="15.187320719">
        <ele>433.8</ele>
    </trkpt>
    <trkpt lat="45.665666739" lon="15.187305385">
        <ele>435.8</ele>
    </trkpt>
    <trkpt lat="45.665783519" lon="15.187291039">
        <ele>438.7</ele>
    </trkpt>
    <trkpt lat="45.665898415" lon="15.187320657">
        <ele>441.3</ele>
    </trkpt>
    <trkpt lat="45.665981269" lon="15.187369228">
        <ele>442.8</ele>
    </trkpt>
    <trkpt lat="45.666126292" lon="15.187573146">
        <ele>444.4</ele>
    </trkpt>
    <trkpt lat="45.66623238" lon="15.187876732">
        <ele>444.5</ele>
    </trkpt>
    <trkpt lat="45.666339134" lon="15.188019537">
        <ele>447.6</ele>
    </trkpt>
    <trkpt lat="45.666347879" lon="15.188153386">
        <ele>446.4</ele>
    </trkpt>
    <trkpt lat="45.666382412" lon="15.188271963">
        <ele>445.8</ele>
    </trkpt>
    <trkpt lat="45.666518049" lon="15.188537038">
        <ele>447.2</ele>
    </trkpt>
    <trkpt lat="45.666560706" lon="15.188681649">
        <ele>446.4</ele>
    </trkpt>
    <trkpt lat="45.666639197" lon="15.18881098">
        <ele>447.0</ele>
    </trkpt>
    <trkpt lat="45.666935485" lon="15.189265509">
        <ele>448.5</ele>
    </trkpt>
    <trkpt lat="45.667344776" lon="15.189606034">
        <ele>458.8</ele>
    </trkpt>
    <trkpt lat="45.667776682" lon="15.189897079">
        <ele>473.8</ele>
    </trkpt>
    <trkpt lat="45.668094979" lon="15.190058731">
        <ele>484.4</ele>
    </trkpt>
    <trkpt lat="45.668364267" lon="15.19036599">
        <ele>490.5</ele>
    </trkpt>
    <trkpt lat="45.668884683" lon="15.19136851">
        <ele>493.4</ele>
    </trkpt>
    <trkpt lat="45.669304041" lon="15.191958676">
        <ele>502.2</ele>
    </trkpt>
    <trkpt lat="45.670105655" lon="15.192541683">
        <ele>520.3</ele>
    </trkpt>
    <trkpt lat="45.670153369" lon="15.192575828">
        <ele>520.9</ele>
    </trkpt>
    <trkpt lat="45.670378706" lon="15.192567752">
        <ele>525.6</ele>
    </trkpt>
    <trkpt lat="45.670653625" lon="15.19225424">
        <ele>532.0</ele>
    </trkpt>
    <trkpt lat="45.671040963" lon="15.191869788">
        <ele>539.2</ele>
    </trkpt>
    <trkpt lat="45.671410062" lon="15.191810454">
        <ele>537.5</ele>
    </trkpt>
    <trkpt lat="45.67166364" lon="15.192183291">
        <ele>535.7</ele>
    </trkpt>
    <trkpt lat="45.671765977" lon="15.192796813">
        <ele>537.8</ele>
    </trkpt>
    <trkpt lat="45.671963053" lon="15.193320558">
        <ele>537.4</ele>
    </trkpt>
    <trkpt lat="45.672104288" lon="15.193516328">
        <ele>537.7</ele>
    </trkpt>
    <trkpt lat="45.672753971" lon="15.193855963">
        <ele>545.9</ele>
    </trkpt>
    <trkpt lat="45.673189607" lon="15.194258345">
        <ele>546.1</ele>
    </trkpt>
    <trkpt lat="45.673332691" lon="15.19482697">
        <ele>546.8</ele>
    </trkpt>
    <trkpt lat="45.673147527" lon="15.195374978">
        <ele>543.6</ele>
    </trkpt>
    <trkpt lat="45.672838742" lon="15.195707382">
        <ele>537.6</ele>
    </trkpt>
    <trkpt lat="45.673006301" lon="15.196327202">
        <ele>531.5</ele>
    </trkpt>
    <trkpt lat="45.673239208" lon="15.196799724">
        <ele>525.1</ele>
    </trkpt>
    <trkpt lat="45.673836101" lon="15.197760931">
        <ele>511.1</ele>
    </trkpt>
    <trkpt lat="45.673838003" lon="15.197764488">
        <ele>511.1</ele>
    </trkpt>
    <trkpt lat="45.674367784" lon="15.198517249">
        <ele>504.7</ele>
    </trkpt>
    <trkpt lat="45.674621977" lon="15.198799356">
        <ele>500.4</ele>
    </trkpt>
    <trkpt lat="45.675138594" lon="15.199485687">
        <ele>496.9</ele>
    </trkpt>
    <trkpt lat="45.675810794" lon="15.200338152">
        <ele>485.7</ele>
    </trkpt>
    <trkpt lat="45.676059996" lon="15.200654341">
        <ele>481.4</ele>
    </trkpt>
    <trkpt lat="45.676290983" lon="15.201210443">
        <ele>466.3</ele>
    </trkpt>
    <trkpt lat="45.677029738" lon="15.201943496">
        <ele>451.4</ele>
    </trkpt>
    <trkpt lat="45.677054229" lon="15.201967732">
        <ele>450.8</ele>
    </trkpt>
    <trkpt lat="45.677532456" lon="15.20244745">
        <ele>447.8</ele>
    </trkpt>
    <trkpt lat="45.677732085" lon="15.203009796">
        <ele>445.4</ele>
    </trkpt>
    <trkpt lat="45.678054701" lon="15.203633191">
        <ele>438.4</ele>
    </trkpt>
    <trkpt lat="45.678490893" lon="15.203496674">
        <ele>441.4</ele>
    </trkpt>
    <trkpt lat="45.678898844" lon="15.203482283">
        <ele>444.7</ele>
    </trkpt>
    <trkpt lat="45.679142986" lon="15.203794905">
        <ele>441.0</ele>
    </trkpt>
    <trkpt lat="45.67953715" lon="15.204239545">
        <ele>430.9</ele>
    </trkpt>
    <trkpt lat="45.679980228" lon="15.204897992">
        <ele>422.4</ele>
    </trkpt>
    <trkpt lat="45.680197416" lon="15.205445075">
        <ele>412.3</ele>
    </trkpt>
    <trkpt lat="45.680614768" lon="15.206107115">
        <ele>408.0</ele>
    </trkpt>
    <trkpt lat="45.68093925" lon="15.206772767">
        <ele>406.9</ele>
    </trkpt>
    <trkpt lat="45.681042197" lon="15.207087195">
        <ele>405.2</ele>
    </trkpt>
    <trkpt lat="45.681140732" lon="15.207582149">
        <ele>401.6</ele>
    </trkpt>
    <trkpt lat="45.681305128" lon="15.208661061">
        <ele>391.0</ele>
    </trkpt>
    <trkpt lat="45.681327119" lon="15.208988048">
        <ele>387.8</ele>
    </trkpt>
    <trkpt lat="45.681321483" lon="15.209367128">
        <ele>381.4</ele>
    </trkpt>
    <trkpt lat="45.681477092" lon="15.21033014">
        <ele>370.4</ele>
    </trkpt>
    <trkpt lat="45.681426921" lon="15.210799079">
        <ele>365.4</ele>
    </trkpt>
    <trkpt lat="45.681336546" lon="15.211144903">
        <ele>361.1</ele>
    </trkpt>
    <trkpt lat="45.681284417" lon="15.211253581">
        <ele>359.3</ele>
    </trkpt>
    <trkpt lat="45.681293234" lon="15.211418009">
        <ele>359.1</ele>
    </trkpt>
    <trkpt lat="45.681308303" lon="15.211613842">
        <ele>358.3</ele>
    </trkpt>
    <trkpt lat="45.681319569" lon="15.211838412">
        <ele>356.8</ele>
    </trkpt>
    <trkpt lat="45.681307638" lon="15.212011777">
        <ele>355.1</ele>
    </trkpt>
    <trkpt lat="45.681286958" lon="15.212139302">
        <ele>353.9</ele>
    </trkpt>
    <trkpt lat="45.681285088" lon="15.212177966">
        <ele>353.6</ele>
    </trkpt>
    <trkpt lat="45.681399269" lon="15.212217519">
        <ele>354.1</ele>
    </trkpt>
    <trkpt lat="45.681559327" lon="15.212268731">
        <ele>355.4</ele>
    </trkpt>
    <trkpt lat="45.681655978" lon="15.21233695">
        <ele>356.4</ele>
    </trkpt>
    <trkpt lat="45.681992391" lon="15.212697183">
        <ele>361.4</ele>
    </trkpt>
    <trkpt lat="45.682217052" lon="15.212999915">
        <ele>364.9</ele>
    </trkpt>
    <trkpt lat="45.682410339" lon="15.213155315">
        <ele>366.0</ele>
    </trkpt>
    <trkpt lat="45.682689021" lon="15.213229875">
        <ele>369.0</ele>
    </trkpt>
    <trkpt lat="45.682869102" lon="15.213233468">
        <ele>371.0</ele>
    </trkpt>
    <trkpt lat="45.683391292" lon="15.21309157">
        <ele>378.7</ele>
    </trkpt>
    <trkpt lat="45.683600258" lon="15.213159788">
        <ele>380.4</ele>
    </trkpt>
    <trkpt lat="45.683914662" lon="15.213218224">
        <ele>383.8</ele>
    </trkpt>
    <trkpt lat="45.684232209" lon="15.213130162">
        <ele>389.6</ele>
    </trkpt>
    <trkpt lat="45.684515891" lon="15.213018789">
        <ele>394.4</ele>
    </trkpt>
    <trkpt lat="45.684840351" lon="15.212910982">
        <ele>401.9</ele>
    </trkpt>
    <trkpt lat="45.685033653" lon="15.21287328">
        <ele>406.3</ele>
    </trkpt>
    <trkpt lat="45.685152859" lon="15.212905628">
        <ele>408.2</ele>
    </trkpt>
    <trkpt lat="45.685323563" lon="15.21302779">
        <ele>409.8</ele>
    </trkpt>
    <trkpt lat="45.685487375" lon="15.213092451">
        <ele>412.4</ele>
    </trkpt>
    <trkpt lat="45.685606573" lon="15.213074484">
        <ele>414.6</ele>
    </trkpt>
    <trkpt lat="45.68580743" lon="15.213055611">
        <ele>418.3</ele>
    </trkpt>
    <trkpt lat="45.685926634" lon="15.212972939">
        <ele>420.4</ele>
    </trkpt>
    <trkpt lat="45.686014504" lon="15.212840949">
        <ele>422.3</ele>
    </trkpt>
    <trkpt lat="45.686091047" lon="15.212700767">
        <ele>424.1</ele>
    </trkpt>
    <trkpt lat="45.686150043" lon="15.212514816">
        <ele>425.9</ele>
    </trkpt>
    <trkpt lat="45.686242964" lon="15.212171678">
        <ele>430.3</ele>
    </trkpt>
    <trkpt lat="45.686455064" lon="15.211531143">
        <ele>435.6</ele>
    </trkpt>
    <trkpt lat="45.686585607" lon="15.211274279">
        <ele>432.4</ele>
    </trkpt>
    <trkpt lat="45.686770099" lon="15.211223964">
        <ele>427.6</ele>
    </trkpt>
    <trkpt lat="45.686893085" lon="15.211329085">
        <ele>427.0</ele>
    </trkpt>
    <trkpt lat="45.687648022" lon="15.212027076">
        <ele>428.8</ele>
    </trkpt>
    <trkpt lat="45.688118038" lon="15.212461842">
        <ele>432.6</ele>
    </trkpt>
    <trkpt lat="45.688566695" lon="15.212796932">
        <ele>435.0</ele>
    </trkpt>
    <trkpt lat="45.688854766" lon="15.212849932">
        <ele>438.6</ele>
    </trkpt>
    <trkpt lat="45.689016636" lon="15.212939773">
        <ele>440.0</ele>
    </trkpt>
    <trkpt lat="45.689654205" lon="15.21348143">
        <ele>443.5</ele>
    </trkpt>
    <trkpt lat="45.689951018" lon="15.213861391">
        <ele>447.3</ele>
    </trkpt>
    <trkpt lat="45.690363893" lon="15.214094054">
        <ele>453.8</ele>
    </trkpt>
    <trkpt lat="45.690756133" lon="15.213935088">
        <ele>457.8</ele>
    </trkpt>
    <trkpt lat="45.691053523" lon="15.213660213">
        <ele>458.7</ele>
    </trkpt>
    <trkpt lat="45.691278161" lon="15.213732087">
        <ele>459.2</ele>
    </trkpt>
    <trkpt lat="45.691520417" lon="15.214098564">
        <ele>459.9</ele>
    </trkpt>
    <trkpt lat="45.691686684" lon="15.214189294">
        <ele>459.2</ele>
    </trkpt>
    <trkpt lat="45.69200167" lon="15.21410664">
        <ele>457.7</ele>
    </trkpt>
    <trkpt lat="45.692339245" lon="15.214121013">
        <ele>458.9</ele>
    </trkpt>
    <trkpt lat="45.692582726" lon="15.214305203">
        <ele>462.8</ele>
    </trkpt>
    <trkpt lat="45.692873889" lon="15.214675291">
        <ele>464.8</ele>
    </trkpt>
    <trkpt lat="45.693182576" lon="15.215485581">
        <ele>461.0</ele>
    </trkpt>
    <trkpt lat="45.693459316" lon="15.2164881">
        <ele>466.3</ele>
    </trkpt>
    <trkpt lat="45.693638778" lon="15.216732415">
        <ele>466.4</ele>
    </trkpt>
    <trkpt lat="45.694430619" lon="15.216954299">
        <ele>459.8</ele>
    </trkpt>
    <trkpt lat="45.694897441" lon="15.217328025">
        <ele>454.8</ele>
    </trkpt>
    <trkpt lat="45.695041122" lon="15.217714292">
        <ele>451.3</ele>
    </trkpt>
    <trkpt lat="45.695452742" lon="15.218807541">
        <ele>448.5</ele>
    </trkpt>
    <trkpt lat="45.696000533" lon="15.219778638">
        <ele>436.7</ele>
    </trkpt>
    <trkpt lat="45.69656962" lon="15.220773046">
        <ele>432.4</ele>
    </trkpt>
    <trkpt lat="45.696806746" lon="15.221188041">
        <ele>431.5</ele>
    </trkpt>
    <trkpt lat="45.69729552" lon="15.222266055">
        <ele>424.2</ele>
    </trkpt>
    <trkpt lat="45.697424789" lon="15.222551711">
        <ele>420.6</ele>
    </trkpt>
    <trkpt lat="45.69749693" lon="15.222725103">
        <ele>418.6</ele>
    </trkpt>
    <trkpt lat="45.697550255" lon="15.222943394">
        <ele>417.0</ele>
    </trkpt>
    <trkpt lat="45.697734749" lon="15.223027845">
        <ele>415.4</ele>
    </trkpt>
    <trkpt lat="45.697918565" lon="15.223112241">
        <ele>414.8</ele>
    </trkpt>
    <trkpt lat="45.698265521" lon="15.222894876">
        <ele>413.5</ele>
    </trkpt>
    <trkpt lat="45.698387892" lon="15.22270711">
        <ele>413.3</ele>
    </trkpt>
    <trkpt lat="45.698428636" lon="15.222485199">
        <ele>413.4</ele>
    </trkpt>
    <trkpt lat="45.69857296" lon="15.222248044">
        <ele>415.4</ele>
    </trkpt>
    <trkpt lat="45.698951302" lon="15.222076475">
        <ele>421.3</ele>
    </trkpt>
    <trkpt lat="45.699307023" lon="15.221724362">
        <ele>429.7</ele>
    </trkpt>
    <trkpt lat="45.699694783" lon="15.221501544">
        <ele>432.8</ele>
    </trkpt>
    <trkpt lat="45.700076203" lon="15.221506934">
        <ele>433.9</ele>
    </trkpt>
    <trkpt lat="45.700648405" lon="15.221613851">
        <ele>437.1</ele>
    </trkpt>
    <trkpt lat="45.700997264" lon="15.221888754">
        <ele>439.9</ele>
    </trkpt>
    <trkpt lat="45.701443302" lon="15.222310944">
        <ele>445.3</ele>
    </trkpt>
    <trkpt lat="45.701703018" lon="15.22245021">
        <ele>444.8</ele>
    </trkpt>
    <trkpt lat="45.70192888" lon="15.222563398">
        <ele>443.7</ele>
    </trkpt>
    <trkpt lat="45.70214848" lon="15.222743932">
        <ele>443.6</ele>
    </trkpt>
    <trkpt lat="45.702588881" lon="15.223105109">
        <ele>443.6</ele>
    </trkpt>
    <trkpt lat="45.703083239" lon="15.22322277">
        <ele>445.9</ele>
    </trkpt>
    <trkpt lat="45.703222557" lon="15.223377289">
        <ele>448.8</ele>
    </trkpt>
    <trkpt lat="45.703361787" lon="15.223545211">
        <ele>452.8</ele>
    </trkpt>
    <trkpt lat="45.703526789" lon="15.224450785">
        <ele>465.5</ele>
    </trkpt>
    <trkpt lat="45.703683622" lon="15.224734608">
        <ele>472.1</ele>
    </trkpt>
    <trkpt lat="45.703862443" lon="15.225331996">
        <ele>475.6</ele>
    </trkpt>
    <trkpt lat="45.704207461" lon="15.225898833">
        <ele>484.3</ele>
    </trkpt>
    <trkpt lat="45.704770217" lon="15.226661521">
        <ele>494.8</ele>
    </trkpt>
    <trkpt lat="45.705005464" lon="15.227901205">
        <ele>499.2</ele>
    </trkpt>
    <trkpt lat="45.705022427" lon="15.227989213">
        <ele>500.1</ele>
    </trkpt>
    <trkpt lat="45.70521502" lon="15.228406957">
        <ele>503.5</ele>
    </trkpt>
    <trkpt lat="45.705295301" lon="15.228561431">
        <ele>504.2</ele>
    </trkpt>
    <trkpt lat="45.705618385" lon="15.229166033">
        <ele>505.9</ele>
    </trkpt>
    <trkpt lat="45.705982877" lon="15.229640317">
        <ele>504.0</ele>
    </trkpt>
    <trkpt lat="45.706255728" lon="15.229817321">
        <ele>504.6</ele>
    </trkpt>
    <trkpt lat="45.707154717" lon="15.229863997">
        <ele>496.7</ele>
    </trkpt>
    <trkpt lat="45.707209263" lon="15.229866656">
        <ele>497.0</ele>
    </trkpt>
    <trkpt lat="45.708019743" lon="15.23042451">
        <ele>495.7</ele>
    </trkpt>
    <trkpt lat="45.708045488" lon="15.230441623">
        <ele>495.4</ele>
    </trkpt>
    <trkpt lat="45.708175302" lon="15.230583575">
        <ele>493.1</ele>
    </trkpt>
    <trkpt lat="45.708605651" lon="15.231464813">
        <ele>487.6</ele>
    </trkpt>
    <trkpt lat="45.709130699" lon="15.232507775">
        <ele>490.2</ele>
    </trkpt>
    <trkpt lat="45.709179007" lon="15.232603895">
        <ele>490.6</ele>
    </trkpt>
    <trkpt lat="45.709407982" lon="15.232887717">
        <ele>491.1</ele>
    </trkpt>
    <trkpt lat="45.709784976" lon="15.233145534">
        <ele>493.2</ele>
    </trkpt>
    <trkpt lat="45.709997012" lon="15.233531818">
        <ele>496.2</ele>
    </trkpt>
    <trkpt lat="45.710242273" lon="15.234040256">
        <ele>496.4</ele>
    </trkpt>
    <trkpt lat="45.710260452" lon="15.2343268">
        <ele>496.7</ele>
    </trkpt>
    <trkpt lat="45.710177676" lon="15.234862196">
        <ele>497.9</ele>
    </trkpt>
    <trkpt lat="45.710166999" lon="15.235549461">
        <ele>498.8</ele>
    </trkpt>
    <trkpt lat="45.710247298" lon="15.236037247">
        <ele>505.5</ele>
    </trkpt>
    <trkpt lat="45.710368369" lon="15.236211502">
        <ele>510.0</ele>
    </trkpt>
    <trkpt lat="45.710444233" lon="15.236347165">
        <ele>513.4</ele>
    </trkpt>
    <trkpt lat="45.710408465" lon="15.236481922">
        <ele>517.4</ele>
    </trkpt>
    <trkpt lat="45.71030874" lon="15.236699242">
        <ele>524.2</ele>
    </trkpt>
    <trkpt lat="45.70993927" lon="15.237028987">
        <ele>531.4</ele>
    </trkpt>
    <trkpt lat="45.70986902" lon="15.237323616">
        <ele>536.5</ele>
    </trkpt>
    <trkpt lat="45.709764251" lon="15.23781406">
        <ele>543.3</ele>
    </trkpt>
    <trkpt lat="45.709680194" lon="15.238301855">
        <ele>542.3</ele>
    </trkpt>
    <trkpt lat="45.709742289" lon="15.238896584">
        <ele>544.1</ele>
    </trkpt>
    <trkpt lat="45.709930526" lon="15.239510116">
        <ele>550.7</ele>
    </trkpt>
    <trkpt lat="45.710207754" lon="15.239836159">
        <ele>554.9</ele>
    </trkpt>
    <trkpt lat="45.710767312" lon="15.240220638">
        <ele>561.6</ele>
    </trkpt>
    <trkpt lat="45.710901543" lon="15.24050994">
        <ele>561.9</ele>
    </trkpt>
    <trkpt lat="45.710963656" lon="15.24090881">
        <ele>561.4</ele>
    </trkpt>
    <trkpt lat="45.710890848" lon="15.241306773">
        <ele>558.9</ele>
    </trkpt>
    <trkpt lat="45.710670072" lon="15.242551811">
        <ele>569.3</ele>
    </trkpt>
    <trkpt lat="45.710580967" lon="15.243052146">
        <ele>575.6</ele>
    </trkpt>
    <trkpt lat="45.711393914" lon="15.243601915">
        <ele>591.4</ele>
    </trkpt>
    <trkpt lat="45.711497451" lon="15.243671983">
        <ele>594.3</ele>
    </trkpt>
    <trkpt lat="45.712306621" lon="15.244235272">
        <ele>610.3</ele>
    </trkpt>
    <trkpt lat="45.712593892" lon="15.244434698">
        <ele>616.4</ele>
    </trkpt>
    <trkpt lat="45.713186671" lon="15.24482277">
        <ele>630.2</ele>
    </trkpt>
    <trkpt lat="45.713409946" lon="15.245167714">
        <ele>634.7</ele>
    </trkpt>
    <trkpt lat="45.713505896" lon="15.245718363">
        <ele>642.5</ele>
    </trkpt>
    <trkpt lat="45.713409294" lon="15.245954602">
        <ele>646.5</ele>
    </trkpt>
    <trkpt lat="45.713165338" lon="15.246325598">
        <ele>653.3</ele>
    </trkpt>
    <trkpt lat="45.713461982" lon="15.246635561">
        <ele>661.3</ele>
    </trkpt>
    <trkpt lat="45.713505312" lon="15.24717456">
        <ele>677.4</ele>
    </trkpt>
    <trkpt lat="45.714160768" lon="15.247859085">
        <ele>700.4</ele>
    </trkpt>
    <trkpt lat="45.714249829" lon="15.248205772">
        <ele>706.6</ele>
    </trkpt>
    <trkpt lat="45.714500065" lon="15.24899001">
        <ele>725.4</ele>
    </trkpt>
    <trkpt lat="45.714456804" lon="15.249886555">
        <ele>730.5</ele>
    </trkpt>
    <trkpt lat="45.714466859" lon="15.251171146">
        <ele>734.7</ele>
    </trkpt>
    <trkpt lat="45.714468088" lon="15.251366961">
        <ele>737.9</ele>
    </trkpt>
    <trkpt lat="45.714456798" lon="15.251528631">
        <ele>740.5</ele>
    </trkpt>
    <trkpt lat="45.714480012" lon="15.251677805">
        <ele>743.4</ele>
    </trkpt>
    <trkpt lat="45.71453147" lon="15.25172988">
        <ele>745.0</ele>
    </trkpt>
    <trkpt lat="45.714599193" lon="15.251723601">
        <ele>745.3</ele>
    </trkpt>
    <trkpt lat="45.714690744" lon="15.251804432">
        <ele>747.3</ele>
    </trkpt>
    <trkpt lat="45.714710821" lon="15.25187185">
        <ele>748.3</ele>
    </trkpt>
    <trkpt lat="45.714787388" lon="15.251971527">
        <ele>750.1</ele>
    </trkpt>
    <trkpt lat="45.714825021" lon="15.252280566">
        <ele>753.5</ele>
    </trkpt>
    <trkpt lat="45.714855712" lon="15.252639901">
        <ele>754.3</ele>
    </trkpt>
    <trkpt lat="45.714938538" lon="15.25289769">
        <ele>752.4</ele>
    </trkpt>
    <trkpt lat="45.715042651" lon="15.253085456">
        <ele>750.7</ele>
    </trkpt>
    <trkpt lat="45.715309198" lon="15.253356711">
        <ele>754.2</ele>
    </trkpt>
    <trkpt lat="45.715459775" lon="15.253629844">
        <ele>759.0</ele>
    </trkpt>
    <trkpt lat="45.71568683" lon="15.254537107">
        <ele>762.4</ele>
    </trkpt>
    <trkpt lat="45.715994795" lon="15.25486863">
        <ele>766.7</ele>
    </trkpt>
    <trkpt lat="45.716448898" lon="15.255015037">
        <ele>773.2</ele>
    </trkpt>
    <trkpt lat="45.716814543" lon="15.255395016">
        <ele>775.3</ele>
    </trkpt>
    <trkpt lat="45.716976331" lon="15.255496507">
        <ele>775.8</ele>
    </trkpt>
    <trkpt lat="45.717347034" lon="15.255639357">
        <ele>777.6</ele>
    </trkpt>
    <trkpt lat="45.71765938" lon="15.255867565">
        <ele>778.9</ele>
    </trkpt>
    <trkpt lat="45.718170533" lon="15.256411037">
        <ele>789.0</ele>
    </trkpt>
    <trkpt lat="45.718583839" lon="15.256695803">
        <ele>797.3</ele>
    </trkpt>
    <trkpt lat="45.718913752" lon="15.256865594">
        <ele>802.1</ele>
    </trkpt>
    <trkpt lat="45.719481389" lon="15.257156576">
        <ele>805.7</ele>
    </trkpt>
    <trkpt lat="45.720063357" lon="15.257232088">
        <ele>804.2</ele>
    </trkpt>
    <trkpt lat="45.720479214" lon="15.257201537">
        <ele>802.2</ele>
    </trkpt>
    <trkpt lat="45.720713743" lon="15.256991331">
        <ele>796.2</ele>
    </trkpt>
    <trkpt lat="45.72135282" lon="15.256977883">
        <ele>777.3</ele>
    </trkpt>
    <trkpt lat="45.72213239" lon="15.257366854">
        <ele>754.1</ele>
    </trkpt>
    <trkpt lat="45.722870527" lon="15.257129627">
        <ele>739.1</ele>
    </trkpt>
    <trkpt lat="45.72322486" lon="15.257462048">
        <ele>734.1</ele>
    </trkpt>
    <trkpt lat="45.723675757" lon="15.257383904">
        <ele>725.4</ele>
    </trkpt>
    <trkpt lat="45.724014413" lon="15.257104528">
        <ele>719.2</ele>
    </trkpt>
    <trkpt lat="45.724339879" lon="15.257126932">
        <ele>717.4</ele>
    </trkpt>
    <trkpt lat="45.72448164" lon="15.257305759">
        <ele>714.3</ele>
    </trkpt>
    <trkpt lat="45.725249878" lon="15.25797407">
        <ele>715.2</ele>
    </trkpt>
    <trkpt lat="45.725800074856046" lon="15.25845896691783">
        <ele>720.0</ele>
    </trkpt>
    <trkpt lat="45.7258" lon="15.25845">
        <ele>725.8</ele>
    </trkpt>
    </trkseg>
</trk>
</gpx>