<?xml version="1.0" encoding="UTF-8" standalone="no" ?>
<gpx xmlns="http://www.topografix.com/GPX/1/1"
creator="OCAD 2020.5.5.3227" version="1.1"
xmlns:xsi="http://www.w3.org/2001/XMLSchema-instance" 
xsi:schemaLocation="http://www.topografix.com/GPX/1/1 
http://www.topografix.com/GPX/1/1/gpx.xsd">

  <metadata>
    <name>Trska pešpot</name>
    <desc>Bela krajina - pohodna pot 17</desc>
    <author><name>Kartografija d.o.o.</name></author>
    <link href="http://www.ocad.com">
      <text>OCAD AG</text>
    </link>
    <time>2020-11-05T14:24:24</time>
    <bounds maxlat="45.86687249" maxlon="15.60571704" minlat="45.32979540" minlon="14.93303760"/>
  </metadata>

  <rte>
    <name>rte1</name>
    <cmt>pohodne poti za izris profilov</cmt>
    <rtept lat="45.49636465" lon="15.07823097" >
      <name>rte1_0</name>
      <ele>378.90</ele>
    </rtept>
    <rtept lat="45.49565378" lon="15.07821077" >
      <name>rte1_1</name>
      <ele>377.10</ele>
    </rtept>
    <rtept lat="45.49492523" lon="15.07773633" >
      <name>rte1_2</name>
      <ele>380.00</ele>
    </rtept>
    <rtept lat="45.49421042" lon="15.07691007" >
      <name>rte1_3</name>
      <ele>377.30</ele>
    </rtept>
    <rtept lat="45.49375601" lon="15.07687745" >
      <name>rte1_4</name>
      <ele>375.00</ele>
    </rtept>
    <rtept lat="45.49382836" lon="15.07635297" >
      <name>rte1_5</name>
      <ele>365.38</ele>
    </rtept>
    <rtept lat="45.49381495" lon="15.07623140" >
      <name>rte1_6</name>
      <ele>365.38</ele>
    </rtept>
    <rtept lat="45.49379252" lon="15.07612901" >
      <name>rte1_7</name>
      <ele>356.49</ele>
    </rtept>
    <rtept lat="45.49375209" lon="15.07603940" >
      <name>rte1_8</name>
      <ele>356.49</ele>
    </rtept>
    <rtept lat="45.49370715" lon="15.07596257" >
      <name>rte1_9</name>
      <ele>356.49</ele>
    </rtept>
    <rtept lat="45.49364871" lon="15.07589212" >
      <name>rte1_10</name>
      <ele>356.67</ele>
    </rtept>
    <rtept lat="45.49358577" lon="15.07581526" >
      <name>rte1_11</name>
      <ele>346.03</ele>
    </rtept>
    <rtept lat="45.49352283" lon="15.07573201" >
      <name>rte1_12</name>
      <ele>346.03</ele>
    </rtept>
    <rtept lat="45.49346440" lon="15.07564237" >
      <name>rte1_13</name>
      <ele>346.03</ele>
    </rtept>
    <rtept lat="45.49341047" lon="15.07556553" >
      <name>rte1_14</name>
      <ele>350.91</ele>
    </rtept>
    <rtept lat="45.49336102" lon="15.07550149" >
      <name>rte1_15</name>
      <ele>339.08</ele>
    </rtept>
    <rtept lat="45.49331157" lon="15.07543745" >
      <name>rte1_16</name>
      <ele>339.08</ele>
    </rtept>
    <rtept lat="45.49326211" lon="15.07538620" >
      <name>rte1_17</name>
      <ele>339.08</ele>
    </rtept>
    <rtept lat="45.49321265" lon="15.07533496" >
      <name>rte1_18</name>
      <ele>347.25</ele>
    </rtept>
    <rtept lat="45.49316319" lon="15.07529011" >
      <name>rte1_19</name>
      <ele>347.25</ele>
    </rtept>
    <rtept lat="45.49311373" lon="15.07524526" >
      <name>rte1_20</name>
      <ele>347.25</ele>
    </rtept>
    <rtept lat="45.49306427" lon="15.07520041" >
      <name>rte1_21</name>
      <ele>339.55</ele>
    </rtept>
    <rtept lat="45.49301931" lon="15.07515557" >
      <name>rte1_22</name>
      <ele>339.55</ele>
    </rtept>
    <rtept lat="45.49296985" lon="15.07510433" >
      <name>rte1_23</name>
      <ele>341.61</ele>
    </rtept>
    <rtept lat="45.49292489" lon="15.07505309" >
      <name>rte1_24</name>
      <ele>341.61</ele>
    </rtept>
    <rtept lat="45.49287993" lon="15.07500185" >
      <name>rte1_25</name>
      <ele>341.61</ele>
    </rtept>
    <rtept lat="45.49283948" lon="15.07493782" >
      <name>rte1_26</name>
      <ele>341.61</ele>
    </rtept>
    <rtept lat="45.49279453" lon="15.07487379" >
      <name>rte1_27</name>
      <ele>333.23</ele>
    </rtept>
    <rtept lat="45.49275409" lon="15.07479697" >
      <name>rte1_28</name>
      <ele>330.37</ele>
    </rtept>
    <rtept lat="45.49271815" lon="15.07471376" >
      <name>rte1_29</name>
      <ele>330.37</ele>
    </rtept>
    <rtept lat="45.49267323" lon="15.07461134" >
      <name>rte1_30</name>
      <ele>330.37</ele>
    </rtept>
    <rtept lat="45.49263280" lon="15.07452173" >
      <name>rte1_31</name>
      <ele>320.82</ele>
    </rtept>
    <rtept lat="45.49259236" lon="15.07443851" >
      <name>rte1_32</name>
      <ele>320.82</ele>
    </rtept>
    <rtept lat="45.49255192" lon="15.07435529" >
      <name>rte1_33</name>
      <ele>319.42</ele>
    </rtept>
    <rtept lat="45.49251148" lon="15.07427847" >
      <name>rte1_34</name>
      <ele>319.42</ele>
    </rtept>
    <rtept lat="45.49247553" lon="15.07420166" >
      <name>rte1_35</name>
      <ele>307.64</ele>
    </rtept>
    <rtept lat="45.49243509" lon="15.07413123" >
      <name>rte1_36</name>
      <ele>307.64</ele>
    </rtept>
    <rtept lat="45.49239914" lon="15.07406082" >
      <name>rte1_37</name>
      <ele>307.64</ele>
    </rtept>
    <rtept lat="45.49236320" lon="15.07398400" >
      <name>rte1_38</name>
      <ele>307.64</ele>
    </rtept>
    <rtept lat="45.49232725" lon="15.07391359" >
      <name>rte1_39</name>
      <ele>297.78</ele>
    </rtept>
    <rtept lat="45.49228681" lon="15.07383677" >
      <name>rte1_40</name>
      <ele>297.78</ele>
    </rtept>
    <rtept lat="45.49225086" lon="15.07375995" >
      <name>rte1_41</name>
      <ele>297.78</ele>
    </rtept>
    <rtept lat="45.49221492" lon="15.07367674" >
      <name>rte1_42</name>
      <ele>297.78</ele>
    </rtept>
    <rtept lat="45.49217449" lon="15.07358713" >
      <name>rte1_43</name>
      <ele>290.00</ele>
    </rtept>
    <rtept lat="45.49213406" lon="15.07349112" >
      <name>rte1_44</name>
      <ele>290.00</ele>
    </rtept>
    <rtept lat="45.49209813" lon="15.07339511" >
      <name>rte1_45</name>
      <ele>290.00</ele>
    </rtept>
    <rtept lat="45.49206668" lon="15.07332470" >
      <name>rte1_46</name>
      <ele>290.00</ele>
    </rtept>
    <rtept lat="45.49203523" lon="15.07325429" >
      <name>rte1_47</name>
      <ele>280.00</ele>
    </rtept>
    <rtept lat="45.49200827" lon="15.07319668" >
      <name>rte1_48</name>
      <ele>280.00</ele>
    </rtept>
    <rtept lat="45.49197232" lon="15.07313906" >
      <name>rte1_49</name>
      <ele>280.00</ele>
    </rtept>
    <rtept lat="45.49194086" lon="15.07308145" >
      <name>rte1_50</name>
      <ele>280.00</ele>
    </rtept>
    <rtept lat="45.49190490" lon="15.07303022" >
      <name>rte1_51</name>
      <ele>280.00</ele>
    </rtept>
    <rtept lat="45.49187344" lon="15.07297901" >
      <name>rte1_52</name>
      <ele>280.00</ele>
    </rtept>
    <rtept lat="45.49183747" lon="15.07293418" >
      <name>rte1_53</name>
      <ele>277.14</ele>
    </rtept>
    <rtept lat="45.49179701" lon="15.07288935" >
      <name>rte1_54</name>
      <ele>277.14</ele>
    </rtept>
    <rtept lat="45.49176105" lon="15.07284452" >
      <name>rte1_55</name>
      <ele>277.14</ele>
    </rtept>
    <rtept lat="45.49172508" lon="15.07280609" >
      <name>rte1_56</name>
      <ele>277.14</ele>
    </rtept>
    <rtept lat="45.49168911" lon="15.07276126" >
      <name>rte1_57</name>
      <ele>277.14</ele>
    </rtept>
    <rtept lat="45.49164864" lon="15.07272283" >
      <name>rte1_58</name>
      <ele>277.44</ele>
    </rtept>
    <rtept lat="45.49161267" lon="15.07268440" >
      <name>rte1_59</name>
      <ele>277.44</ele>
    </rtept>
    <rtept lat="45.49154074" lon="15.07260754" >
      <name>rte1_60</name>
      <ele>270.00</ele>
    </rtept>
    <rtept lat="45.49150027" lon="15.07256910" >
      <name>rte1_61</name>
      <ele>270.00</ele>
    </rtept>
    <rtept lat="45.49146430" lon="15.07253067" >
      <name>rte1_62</name>
      <ele>270.00</ele>
    </rtept>
    <rtept lat="45.49139686" lon="15.07244742" >
      <name>rte1_63</name>
      <ele>270.00</ele>
    </rtept>
    <rtept lat="45.49132943" lon="15.07236417" >
      <name>rte1_64</name>
      <ele>270.00</ele>
    </rtept>
    <rtept lat="45.49129797" lon="15.07231295" >
      <name>rte1_65</name>
      <ele>260.00</ele>
    </rtept>
    <rtept lat="45.49126650" lon="15.07226813" >
      <name>rte1_66</name>
      <ele>260.00</ele>
    </rtept>
    <rtept lat="45.49123954" lon="15.07221692" >
      <name>rte1_67</name>
      <ele>260.00</ele>
    </rtept>
    <rtept lat="45.49120808" lon="15.07215931" >
      <name>rte1_68</name>
      <ele>262.97</ele>
    </rtept>
    <rtept lat="45.49118562" lon="15.07210810" >
      <name>rte1_69</name>
      <ele>262.97</ele>
    </rtept>
    <rtept lat="45.49115866" lon="15.07204410" >
      <name>rte1_70</name>
      <ele>262.97</ele>
    </rtept>
    <rtept lat="45.49113621" lon="15.07198010" >
      <name>rte1_71</name>
      <ele>260.00</ele>
    </rtept>
    <rtept lat="45.49111375" lon="15.07191610" >
      <name>rte1_72</name>
      <ele>260.00</ele>
    </rtept>
    <rtept lat="45.49109581" lon="15.07183931" >
      <name>rte1_73</name>
      <ele>260.00</ele>
    </rtept>
    <rtept lat="45.49108235" lon="15.07176893" >
      <name>rte1_74</name>
      <ele>260.00</ele>
    </rtept>
    <rtept lat="45.49106442" lon="15.07167935" >
      <name>rte1_75</name>
      <ele>260.00</ele>
    </rtept>
    <rtept lat="45.49104647" lon="15.07159616" >
      <name>rte1_76</name>
      <ele>260.00</ele>
    </rtept>
    <rtept lat="45.49103303" lon="15.07150659" >
      <name>rte1_77</name>
      <ele>260.00</ele>
    </rtept>
    <rtept lat="45.49101959" lon="15.07142341" >
      <name>rte1_78</name>
      <ele>260.00</ele>
    </rtept>
    <rtept lat="45.49100614" lon="15.07134023" >
      <name>rte1_79</name>
      <ele>255.24</ele>
    </rtept>
    <rtept lat="45.49099270" lon="15.07125705" >
      <name>rte1_80</name>
      <ele>255.24</ele>
    </rtept>
    <rtept lat="45.49097925" lon="15.07117387" >
      <name>rte1_81</name>
      <ele>249.57</ele>
    </rtept>
    <rtept lat="45.49097031" lon="15.07109070" >
      <name>rte1_82</name>
      <ele>249.57</ele>
    </rtept>
    <rtept lat="45.49095686" lon="15.07101392" >
      <name>rte1_83</name>
      <ele>245.22</ele>
    </rtept>
    <rtept lat="45.49094341" lon="15.07093074" >
      <name>rte1_84</name>
      <ele>245.22</ele>
    </rtept>
    <rtept lat="45.49093446" lon="15.07085397" >
      <name>rte1_85</name>
      <ele>245.22</ele>
    </rtept>
    <rtept lat="45.49092102" lon="15.07077719" >
      <name>rte1_86</name>
      <ele>245.22</ele>
    </rtept>
    <rtept lat="45.49090757" lon="15.07070041" >
      <name>rte1_87</name>
      <ele>244.77</ele>
    </rtept>
    <rtept lat="45.49089862" lon="15.07062363" >
      <name>rte1_88</name>
      <ele>244.77</ele>
    </rtept>
    <rtept lat="45.49088517" lon="15.07054685" >
      <name>rte1_89</name>
      <ele>244.77</ele>
    </rtept>
    <rtept lat="45.49087171" lon="15.07047647" >
      <name>rte1_90</name>
      <ele>244.77</ele>
    </rtept>
    <rtept lat="45.49085827" lon="15.07039969" >
      <name>rte1_91</name>
      <ele>247.87</ele>
    </rtept>
    <rtept lat="45.49084481" lon="15.07032930" >
      <name>rte1_92</name>
      <ele>247.87</ele>
    </rtept>
    <rtept lat="45.49083136" lon="15.07025892" >
      <name>rte1_93</name>
      <ele>247.87</ele>
    </rtept>
    <rtept lat="45.49081341" lon="15.07018853" >
      <name>rte1_94</name>
      <ele>247.87</ele>
    </rtept>
    <rtept lat="45.49079545" lon="15.07011814" >
      <name>rte1_95</name>
      <ele>247.87</ele>
    </rtept>
    <rtept lat="45.49077750" lon="15.07005415" >
      <name>rte1_96</name>
      <ele>250.74</ele>
    </rtept>
    <rtept lat="45.49075954" lon="15.06998376" >
      <name>rte1_97</name>
      <ele>239.37</ele>
    </rtept>
    <rtept lat="45.49074159" lon="15.06991977" >
      <name>rte1_98</name>
      <ele>239.37</ele>
    </rtept>
    <rtept lat="45.49071913" lon="15.06985577" >
      <name>rte1_99</name>
      <ele>239.37</ele>
    </rtept>
    <rtept lat="45.49069667" lon="15.06979177" >
      <name>rte1_100</name>
      <ele>239.37</ele>
    </rtept>
    <rtept lat="45.49067421" lon="15.06973417" >
      <name>rte1_101</name>
      <ele>237.97</ele>
    </rtept>
    <rtept lat="45.49064726" lon="15.06967017" >
      <name>rte1_102</name>
      <ele>237.97</ele>
    </rtept>
    <rtept lat="45.49062030" lon="15.06961256" >
      <name>rte1_103</name>
      <ele>237.97</ele>
    </rtept>
    <rtept lat="45.49059334" lon="15.06955495" >
      <name>rte1_104</name>
      <ele>237.97</ele>
    </rtept>
    <rtept lat="45.49056188" lon="15.06949734" >
      <name>rte1_105</name>
      <ele>237.97</ele>
    </rtept>
    <rtept lat="45.49053042" lon="15.06944613" >
      <name>rte1_106</name>
      <ele>218.50</ele>
    </rtept>
    <rtept lat="45.49045848" lon="15.06936927" >
      <name>rte1_107</name>
      <ele>220.65</ele>
    </rtept>
    <rtept lat="45.49037300" lon="15.06934997" >
      <name>rte1_108</name>
      <ele>220.65</ele>
    </rtept>
    <rtept lat="45.49029200" lon="15.06938186" >
      <name>rte1_109</name>
      <ele>220.00</ele>
    </rtept>
    <rtept lat="45.49022896" lon="15.06945854" >
      <name>rte1_110</name>
      <ele>210.00</ele>
    </rtept>
    <rtept lat="45.48996768" lon="15.06996356" >
      <name>rte1_111</name>
      <ele>200.00</ele>
    </rtept>
    <rtept lat="45.48993166" lon="15.07001469" >
      <name>rte1_112</name>
      <ele>200.00</ele>
    </rtept>
    <rtept lat="45.48989113" lon="15.07007221" >
      <name>rte1_113</name>
      <ele>200.00</ele>
    </rtept>
    <rtept lat="45.48985060" lon="15.07012973" >
      <name>rte1_114</name>
      <ele>200.00</ele>
    </rtept>
    <rtept lat="45.48980557" lon="15.07018724" >
      <name>rte1_115</name>
      <ele>200.00</ele>
    </rtept>
    <rtept lat="45.48973804" lon="15.07024473" >
      <name>rte1_116</name>
      <ele>200.00</ele>
    </rtept>
    <rtept lat="45.48967501" lon="15.07030862" >
      <name>rte1_117</name>
      <ele>200.00</ele>
    </rtept>
    <rtept lat="45.48961199" lon="15.07035971" >
      <name>rte1_118</name>
      <ele>200.00</ele>
    </rtept>
    <rtept lat="45.48955347" lon="15.07041721" >
      <name>rte1_119</name>
      <ele>207.57</ele>
    </rtept>
    <rtept lat="45.48949494" lon="15.07046831" >
      <name>rte1_120</name>
      <ele>207.57</ele>
    </rtept>
    <rtept lat="45.48943192" lon="15.07051300" >
      <name>rte1_121</name>
      <ele>207.57</ele>
    </rtept>
    <rtept lat="45.48937790" lon="15.07056411" >
      <name>rte1_122</name>
      <ele>200.50</ele>
    </rtept>
    <rtept lat="45.48931939" lon="15.07060242" >
      <name>rte1_123</name>
      <ele>200.50</ele>
    </rtept>
    <rtept lat="45.48926087" lon="15.07064712" >
      <name>rte1_124</name>
      <ele>200.50</ele>
    </rtept>
    <rtept lat="45.48920685" lon="15.07068543" >
      <name>rte1_125</name>
      <ele>200.50</ele>
    </rtept>
    <rtept lat="45.48915283" lon="15.07073014" >
      <name>rte1_126</name>
      <ele>205.49</ele>
    </rtept>
    <rtept lat="45.48909432" lon="15.07076844" >
      <name>rte1_127</name>
      <ele>205.49</ele>
    </rtept>
    <rtept lat="45.48904030" lon="15.07080675" >
      <name>rte1_128</name>
      <ele>205.49</ele>
    </rtept>
    <rtept lat="45.48898629" lon="15.07084507" >
      <name>rte1_129</name>
      <ele>205.49</ele>
    </rtept>
    <rtept lat="45.48893227" lon="15.07087698" >
      <name>rte1_130</name>
      <ele>201.70</ele>
    </rtept>
    <rtept lat="45.48887826" lon="15.07091529" >
      <name>rte1_131</name>
      <ele>201.70</ele>
    </rtept>
    <rtept lat="45.48882874" lon="15.07095361" >
      <name>rte1_132</name>
      <ele>201.70</ele>
    </rtept>
    <rtept lat="45.48877473" lon="15.07099192" >
      <name>rte1_133</name>
      <ele>201.70</ele>
    </rtept>
    <rtept lat="45.48872071" lon="15.07103023" >
      <name>rte1_134</name>
      <ele>194.17</ele>
    </rtept>
    <rtept lat="45.48866670" lon="15.07106854" >
      <name>rte1_135</name>
      <ele>200.00</ele>
    </rtept>
    <rtept lat="45.48861268" lon="15.07111325" >
      <name>rte1_136</name>
      <ele>200.00</ele>
    </rtept>
    <rtept lat="45.48855866" lon="15.07115795" >
      <name>rte1_137</name>
      <ele>200.00</ele>
    </rtept>
    <rtept lat="45.48850464" lon="15.07119626" >
      <name>rte1_138</name>
      <ele>200.00</ele>
    </rtept>
    <rtept lat="45.48845062" lon="15.07124737" >
      <name>rte1_139</name>
      <ele>200.00</ele>
    </rtept>
    <rtept lat="45.48839660" lon="15.07129207" >
      <name>rte1_140</name>
      <ele>200.00</ele>
    </rtept>
    <rtept lat="45.48834257" lon="15.07134318" >
      <name>rte1_141</name>
      <ele>200.00</ele>
    </rtept>
    <rtept lat="45.48828404" lon="15.07140067" >
      <name>rte1_142</name>
      <ele>200.00</ele>
    </rtept>
    <rtept lat="45.48823002" lon="15.07145817" >
      <name>rte1_143</name>
      <ele>200.00</ele>
    </rtept>
    <rtept lat="45.48817149" lon="15.07151567" >
      <name>rte1_144</name>
      <ele>200.00</ele>
    </rtept>
    <rtept lat="45.48811296" lon="15.07157956" >
      <name>rte1_145</name>
      <ele>200.00</ele>
    </rtept>
    <rtept lat="45.48805443" lon="15.07164345" >
      <name>rte1_146</name>
      <ele>185.00</ele>
    </rtept>
    <rtept lat="45.48799589" lon="15.07172013" >
      <name>rte1_147</name>
      <ele>198.67</ele>
    </rtept>
    <rtept lat="45.48794186" lon="15.07177763" >
      <name>rte1_148</name>
      <ele>198.67</ele>
    </rtept>
    <rtept lat="45.48789232" lon="15.07184153" >
      <name>rte1_149</name>
      <ele>198.67</ele>
    </rtept>
    <rtept lat="45.48784280" lon="15.07189904" >
      <name>rte1_150</name>
      <ele>198.67</ele>
    </rtept>
    <rtept lat="45.48779777" lon="15.07195655" >
      <name>rte1_151</name>
      <ele>188.47</ele>
    </rtept>
    <rtept lat="45.48775273" lon="15.07202046" >
      <name>rte1_152</name>
      <ele>200.50</ele>
    </rtept>
    <rtept lat="45.48771220" lon="15.07207797" >
      <name>rte1_153</name>
      <ele>200.50</ele>
    </rtept>
    <rtept lat="45.48767167" lon="15.07213549" >
      <name>rte1_154</name>
      <ele>200.50</ele>
    </rtept>
    <rtept lat="45.48763114" lon="15.07219300" >
      <name>rte1_155</name>
      <ele>200.50</ele>
    </rtept>
    <rtept lat="45.48759061" lon="15.07225052" >
      <name>rte1_156</name>
      <ele>190.00</ele>
    </rtept>
    <rtept lat="45.48755458" lon="15.07230804" >
      <name>rte1_157</name>
      <ele>190.00</ele>
    </rtept>
    <rtept lat="45.48751855" lon="15.07235917" >
      <name>rte1_158</name>
      <ele>208.80</ele>
    </rtept>
    <rtept lat="45.48748252" lon="15.07241669" >
      <name>rte1_159</name>
      <ele>208.80</ele>
    </rtept>
    <rtept lat="45.48744649" lon="15.07247421" >
      <name>rte1_160</name>
      <ele>208.80</ele>
    </rtept>
    <rtept lat="45.48741495" lon="15.07253174" >
      <name>rte1_161</name>
      <ele>208.80</ele>
    </rtept>
    <rtept lat="45.48737892" lon="15.07258926" >
      <name>rte1_162</name>
      <ele>195.90</ele>
    </rtept>
    <rtept lat="45.48734290" lon="15.07264039" >
      <name>rte1_163</name>
      <ele>210.00</ele>
    </rtept>
    <rtept lat="45.48731136" lon="15.07269791" >
      <name>rte1_164</name>
      <ele>210.00</ele>
    </rtept>
    <rtept lat="45.48727533" lon="15.07275544" >
      <name>rte1_165</name>
      <ele>210.00</ele>
    </rtept>
    <rtept lat="45.48724380" lon="15.07281296" >
      <name>rte1_166</name>
      <ele>210.00</ele>
    </rtept>
    <rtept lat="45.48720777" lon="15.07287048" >
      <name>rte1_167</name>
      <ele>210.00</ele>
    </rtept>
    <rtept lat="45.48717174" lon="15.07292800" >
      <name>rte1_168</name>
      <ele>210.00</ele>
    </rtept>
    <rtept lat="45.48713570" lon="15.07298553" >
      <name>rte1_169</name>
      <ele>205.29</ele>
    </rtept>
    <rtept lat="45.48709967" lon="15.07304305" >
      <name>rte1_170</name>
      <ele>205.29</ele>
    </rtept>
    <rtept lat="45.48706364" lon="15.07310057" >
      <name>rte1_171</name>
      <ele>205.29</ele>
    </rtept>
    <rtept lat="45.48702760" lon="15.07316449" >
      <name>rte1_172</name>
      <ele>205.29</ele>
    </rtept>
    <rtept lat="45.48698707" lon="15.07322200" >
      <name>rte1_173</name>
      <ele>205.29</ele>
    </rtept>
    <rtept lat="45.48694654" lon="15.07328591" >
      <name>rte1_174</name>
      <ele>216.27</ele>
    </rtept>
    <rtept lat="45.48690601" lon="15.07334343" >
      <name>rte1_175</name>
      <ele>203.00</ele>
    </rtept>
    <rtept lat="45.48686097" lon="15.07340733" >
      <name>rte1_176</name>
      <ele>203.00</ele>
    </rtept>
    <rtept lat="45.48681594" lon="15.07347124" >
      <name>rte1_177</name>
      <ele>203.00</ele>
    </rtept>
    <rtept lat="45.48676640" lon="15.07353514" >
      <name>rte1_178</name>
      <ele>203.00</ele>
    </rtept>
    <rtept lat="45.48672136" lon="15.07360544" >
      <name>rte1_179</name>
      <ele>223.33</ele>
    </rtept>
    <rtept lat="45.48667634" lon="15.07365655" >
      <name>rte1_180</name>
      <ele>220.00</ele>
    </rtept>
    <rtept lat="45.48663131" lon="15.07371406" >
      <name>rte1_181</name>
      <ele>220.00</ele>
    </rtept>
    <rtept lat="45.48659078" lon="15.07376518" >
      <name>rte1_182</name>
      <ele>220.00</ele>
    </rtept>
    <rtept lat="45.48654575" lon="15.07381629" >
      <name>rte1_183</name>
      <ele>220.00</ele>
    </rtept>
    <rtept lat="45.48650523" lon="15.07386101" >
      <name>rte1_184</name>
      <ele>220.00</ele>
    </rtept>
    <rtept lat="45.48646471" lon="15.07390573" >
      <name>rte1_185</name>
      <ele>209.00</ele>
    </rtept>
    <rtept lat="45.48642418" lon="15.07395045" >
      <name>rte1_186</name>
      <ele>220.00</ele>
    </rtept>
    <rtept lat="45.48638816" lon="15.07399518" >
      <name>rte1_187</name>
      <ele>220.00</ele>
    </rtept>
    <rtept lat="45.48634764" lon="15.07403350" >
      <name>rte1_188</name>
      <ele>220.00</ele>
    </rtept>
    <rtept lat="45.48631162" lon="15.07407183" >
      <name>rte1_189</name>
      <ele>220.00</ele>
    </rtept>
    <rtept lat="45.48627110" lon="15.07411016" >
      <name>rte1_190</name>
      <ele>220.00</ele>
    </rtept>
    <rtept lat="45.48623508" lon="15.07414849" >
      <name>rte1_191</name>
      <ele>202.00</ele>
    </rtept>
    <rtept lat="45.48619456" lon="15.07418681" >
      <name>rte1_192</name>
      <ele>202.00</ele>
    </rtept>
    <rtept lat="45.48615854" lon="15.07422514" >
      <name>rte1_193</name>
      <ele>202.00</ele>
    </rtept>
    <rtept lat="45.48608651" lon="15.07429540" >
      <name>rte1_194</name>
      <ele>217.69</ele>
    </rtept>
    <rtept lat="45.48604599" lon="15.07433373" >
      <name>rte1_195</name>
      <ele>217.69</ele>
    </rtept>
    <rtept lat="45.48600997" lon="15.07437206" >
      <name>rte1_196</name>
      <ele>203.75</ele>
    </rtept>
    <rtept lat="45.48596945" lon="15.07440398" >
      <name>rte1_197</name>
      <ele>203.75</ele>
    </rtept>
    <rtept lat="45.48593343" lon="15.07444231" >
      <name>rte1_198</name>
      <ele>203.75</ele>
    </rtept>
    <rtept lat="45.48589741" lon="15.07448064" >
      <name>rte1_199</name>
      <ele>203.75</ele>
    </rtept>
    <rtept lat="45.48585690" lon="15.07451897" >
      <name>rte1_200</name>
      <ele>203.75</ele>
    </rtept>
    <rtept lat="45.48581638" lon="15.07455729" >
      <name>rte1_201</name>
      <ele>220.00</ele>
    </rtept>
    <rtept lat="45.48578036" lon="15.07459562" >
      <name>rte1_202</name>
      <ele>220.00</ele>
    </rtept>
    <rtept lat="45.48573983" lon="15.07464034" >
      <name>rte1_203</name>
      <ele>220.00</ele>
    </rtept>
    <rtept lat="45.48569931" lon="15.07467866" >
      <name>rte1_204</name>
      <ele>220.00</ele>
    </rtept>
    <rtept lat="45.48565429" lon="15.07472338" >
      <name>rte1_205</name>
      <ele>220.00</ele>
    </rtept>
    <rtept lat="45.48561377" lon="15.07476810" >
      <name>rte1_206</name>
      <ele>220.00</ele>
    </rtept>
    <rtept lat="45.48556874" lon="15.07481281" >
      <name>rte1_207</name>
      <ele>204.50</ele>
    </rtept>
    <rtept lat="45.48552822" lon="15.07486393" >
      <name>rte1_208</name>
      <ele>204.50</ele>
    </rtept>
    <rtept lat="45.48548319" lon="15.07491504" >
      <name>rte1_209</name>
      <ele>215.24</ele>
    </rtept>
    <rtept lat="45.48543816" lon="15.07497254" >
      <name>rte1_210</name>
      <ele>215.24</ele>
    </rtept>
    <rtept lat="45.48537963" lon="15.07503643" >
      <name>rte1_211</name>
      <ele>215.24</ele>
    </rtept>
    <rtept lat="45.48533009" lon="15.07509393" >
      <name>rte1_212</name>
      <ele>199.25</ele>
    </rtept>
    <rtept lat="45.48528506" lon="15.07515143" >
      <name>rte1_213</name>
      <ele>199.25</ele>
    </rtept>
    <rtept lat="45.48524003" lon="15.07520894" >
      <name>rte1_214</name>
      <ele>209.18</ele>
    </rtept>
    <rtept lat="45.48519950" lon="15.07526645" >
      <name>rte1_215</name>
      <ele>209.18</ele>
    </rtept>
    <rtept lat="45.48515897" lon="15.07531756" >
      <name>rte1_216</name>
      <ele>209.18</ele>
    </rtept>
    <rtept lat="45.48511844" lon="15.07537508" >
      <name>rte1_217</name>
      <ele>200.28</ele>
    </rtept>
    <rtept lat="45.48508241" lon="15.07543259" >
      <name>rte1_218</name>
      <ele>200.28</ele>
    </rtept>
    <rtept lat="45.48483020" lon="15.07579044" >
      <name>rte1_219</name>
      <ele>198.00</ele>
    </rtept>
    <rtept lat="45.48478519" lon="15.07582236" >
      <name>rte1_220</name>
      <ele>198.00</ele>
    </rtept>
    <rtept lat="45.48474017" lon="15.07586068" >
      <name>rte1_221</name>
      <ele>200.00</ele>
    </rtept>
    <rtept lat="45.48469966" lon="15.07589260" >
      <name>rte1_222</name>
      <ele>200.00</ele>
    </rtept>
    <rtept lat="45.48465914" lon="15.07592453" >
      <name>rte1_223</name>
      <ele>187.96</ele>
    </rtept>
    <rtept lat="45.48458261" lon="15.07598199" >
      <name>rte1_224</name>
      <ele>187.96</ele>
    </rtept>
    <rtept lat="45.48450610" lon="15.07602666" >
      <name>rte1_225</name>
      <ele>187.96</ele>
    </rtept>
    <rtept lat="45.48443858" lon="15.07607134" >
      <name>rte1_226</name>
      <ele>187.70</ele>
    </rtept>
    <rtept lat="45.48437106" lon="15.07610322" >
      <name>rte1_227</name>
      <ele>187.70</ele>
    </rtept>
    <rtept lat="45.48431255" lon="15.07613513" >
      <name>rte1_228</name>
      <ele>187.70</ele>
    </rtept>
    <rtept lat="45.48425854" lon="15.07616064" >
      <name>rte1_229</name>
      <ele>190.00</ele>
    </rtept>
    <rtept lat="45.48420454" lon="15.07617975" >
      <name>rte1_230</name>
      <ele>189.20</ele>
    </rtept>
    <rtept lat="45.48415953" lon="15.07619888" >
      <name>rte1_231</name>
      <ele>189.20</ele>
    </rtept>
    <rtept lat="45.48408303" lon="15.07622436" >
      <name>rte1_232</name>
      <ele>189.20</ele>
    </rtept>
    <rtept lat="45.48402902" lon="15.07624347" >
      <name>rte1_233</name>
      <ele>189.20</ele>
    </rtept>
    <rtept lat="45.48399751" lon="15.07626901" >
      <name>rte1_234</name>
      <ele>185.00</ele>
    </rtept>
    <rtept lat="45.48394798" lon="15.07632011" >
      <name>rte1_235</name>
      <ele>185.00</ele>
    </rtept>
    <rtept lat="45.48390296" lon="15.07637122" >
      <name>rte1_236</name>
      <ele>185.00</ele>
    </rtept>
    <rtept lat="45.48385793" lon="15.07641593" >
      <name>rte1_237</name>
      <ele>185.00</ele>
    </rtept>
    <rtept lat="45.48381741" lon="15.07646065" >
      <name>rte1_238</name>
      <ele>185.00</ele>
    </rtept>
    <rtept lat="45.48377689" lon="15.07650536" >
      <name>rte1_239</name>
      <ele>187.00</ele>
    </rtept>
    <rtept lat="45.48373637" lon="15.07654368" >
      <name>rte1_240</name>
      <ele>187.00</ele>
    </rtept>
    <rtept lat="45.48370035" lon="15.07658201" >
      <name>rte1_241</name>
      <ele>187.00</ele>
    </rtept>
    <rtept lat="45.48365983" lon="15.07662033" >
      <name>rte1_242</name>
      <ele>187.00</ele>
    </rtept>
    <rtept lat="45.48359229" lon="15.07669060" >
      <name>rte1_243</name>
      <ele>187.00</ele>
    </rtept>
    <rtept lat="45.48352925" lon="15.07675447" >
      <name>rte1_244</name>
      <ele>186.90</ele>
    </rtept>
    <rtept lat="45.48346622" lon="15.07682474" >
      <name>rte1_245</name>
      <ele>187.30</ele>
    </rtept>
    <rtept lat="45.48340768" lon="15.07688862" >
      <name>rte1_246</name>
      <ele>187.30</ele>
    </rtept>
    <rtept lat="45.48334465" lon="15.07695249" >
      <name>rte1_247</name>
      <ele>187.30</ele>
    </rtept>
    <rtept lat="45.48328611" lon="15.07702277" >
      <name>rte1_248</name>
      <ele>185.90</ele>
    </rtept>
    <rtept lat="45.48322756" lon="15.07709944" >
      <name>rte1_249</name>
      <ele>185.90</ele>
    </rtept>
    <rtept lat="45.48316452" lon="15.07717610" >
      <name>rte1_250</name>
      <ele>185.00</ele>
    </rtept>
    <rtept lat="45.48310147" lon="15.07726556" >
      <name>rte1_251</name>
      <ele>185.00</ele>
    </rtept>
    <rtept lat="45.48306994" lon="15.07731669" >
      <name>rte1_252</name>
      <ele>185.00</ele>
    </rtept>
    <rtept lat="45.48303391" lon="15.07736780" >
      <name>rte1_253</name>
      <ele>185.00</ele>
    </rtept>
    <rtept lat="45.48299788" lon="15.07742532" >
      <name>rte1_254</name>
      <ele>185.00</ele>
    </rtept>
    <rtept lat="45.48296184" lon="15.07748283" >
      <name>rte1_255</name>
      <ele>185.00</ele>
    </rtept>
    <rtept lat="45.48292131" lon="15.07754034" >
      <name>rte1_256</name>
      <ele>185.00</ele>
    </rtept>
    <rtept lat="45.48288527" lon="15.07761065" >
      <name>rte1_257</name>
      <ele>185.00</ele>
    </rtept>
    <rtept lat="45.48283122" lon="15.07769372" >
      <name>rte1_258</name>
      <ele>185.00</ele>
    </rtept>
    <rtept lat="45.48278616" lon="15.07778960" >
      <name>rte1_259</name>
      <ele>185.00</ele>
    </rtept>
    <rtept lat="45.48274559" lon="15.07789188" >
      <name>rte1_260</name>
      <ele>185.00</ele>
    </rtept>
    <rtept lat="45.48270953" lon="15.07799416" >
      <name>rte1_261</name>
      <ele>185.00</ele>
    </rtept>
    <rtept lat="45.48267346" lon="15.07810284" >
      <name>rte1_262</name>
      <ele>185.00</ele>
    </rtept>
    <rtept lat="45.48264638" lon="15.07821154" >
      <name>rte1_263</name>
      <ele>185.00</ele>
    </rtept>
    <rtept lat="45.48262381" lon="15.07832663" >
      <name>rte1_264</name>
      <ele>185.00</ele>
    </rtept>
    <rtept lat="45.48260573" lon="15.07844174" >
      <name>rte1_265</name>
      <ele>185.00</ele>
    </rtept>
    <rtept lat="45.48259215" lon="15.07855685" >
      <name>rte1_266</name>
      <ele>185.00</ele>
    </rtept>
    <rtept lat="45.48258757" lon="15.07867836" >
      <name>rte1_267</name>
      <ele>185.00</ele>
    </rtept>
    <rtept lat="45.48258748" lon="15.07879349" >
      <name>rte1_268</name>
      <ele>185.00</ele>
    </rtept>
    <rtept lat="45.48259190" lon="15.07890863" >
      <name>rte1_269</name>
      <ele>185.00</ele>
    </rtept>
    <rtept lat="45.48260082" lon="15.07902377" >
      <name>rte1_270</name>
      <ele>185.00</ele>
    </rtept>
    <rtept lat="45.48261874" lon="15.07913892" >
      <name>rte1_271</name>
      <ele>185.00</ele>
    </rtept>
    <rtept lat="45.48264115" lon="15.07924769" >
      <name>rte1_272</name>
      <ele>185.00</ele>
    </rtept>
    <rtept lat="45.48267257" lon="15.07935646" >
      <name>rte1_273</name>
      <ele>185.00</ele>
    </rtept>
    <rtept lat="45.48269502" lon="15.07942685" >
      <name>rte1_274</name>
      <ele>185.00</ele>
    </rtept>
    <rtept lat="45.48271746" lon="15.07949724" >
      <name>rte1_275</name>
      <ele>185.00</ele>
    </rtept>
    <rtept lat="45.48273541" lon="15.07956762" >
      <name>rte1_276</name>
      <ele>185.00</ele>
    </rtept>
    <rtept lat="45.48275786" lon="15.07963162" >
      <name>rte1_277</name>
      <ele>185.00</ele>
    </rtept>
    <rtept lat="45.48277581" lon="15.07970200" >
      <name>rte1_278</name>
      <ele>185.00</ele>
    </rtept>
    <rtept lat="45.48279826" lon="15.07975960" >
      <name>rte1_279</name>
      <ele>185.00</ele>
    </rtept>
    <rtept lat="45.48281622" lon="15.07982358" >
      <name>rte1_280</name>
      <ele>185.00</ele>
    </rtept>
    <rtept lat="45.48283417" lon="15.07988117" >
      <name>rte1_281</name>
      <ele>185.00</ele>
    </rtept>
    <rtept lat="45.48286558" lon="15.07999635" >
      <name>rte1_282</name>
      <ele>185.00</ele>
    </rtept>
    <rtept lat="45.48289700" lon="15.08010513" >
      <name>rte1_283</name>
      <ele>188.48</ele>
    </rtept>
    <rtept lat="45.48292842" lon="15.08021390" >
      <name>rte1_284</name>
      <ele>188.48</ele>
    </rtept>
    <rtept lat="45.48295534" lon="15.08032268" >
      <name>rte1_285</name>
      <ele>190.00</ele>
    </rtept>
    <rtept lat="45.48298225" lon="15.08043145" >
      <name>rte1_286</name>
      <ele>190.00</ele>
    </rtept>
    <rtept lat="45.48300917" lon="15.08054662" >
      <name>rte1_287</name>
      <ele>190.00</ele>
    </rtept>
    <rtept lat="45.48303158" lon="15.08065538" >
      <name>rte1_288</name>
      <ele>185.00</ele>
    </rtept>
    <rtept lat="45.48305849" lon="15.08077695" >
      <name>rte1_289</name>
      <ele>185.00</ele>
    </rtept>
    <rtept lat="45.48307194" lon="15.08084093" >
      <name>rte1_290</name>
      <ele>185.00</ele>
    </rtept>
    <rtept lat="45.48308090" lon="15.08090490" >
      <name>rte1_291</name>
      <ele>185.00</ele>
    </rtept>
    <rtept lat="45.48309434" lon="15.08097528" >
      <name>rte1_292</name>
      <ele>185.00</ele>
    </rtept>
    <rtept lat="45.48310779" lon="15.08103926" >
      <name>rte1_293</name>
      <ele>185.00</ele>
    </rtept>
    <rtept lat="45.48311674" lon="15.08110963" >
      <name>rte1_294</name>
      <ele>187.50</ele>
    </rtept>
    <rtept lat="45.48313018" lon="15.08118640" >
      <name>rte1_295</name>
      <ele>187.50</ele>
    </rtept>
    <rtept lat="45.48314362" lon="15.08126318" >
      <name>rte1_296</name>
      <ele>187.50</ele>
    </rtept>
    <rtept lat="45.48315706" lon="15.08134634" >
      <name>rte1_297</name>
      <ele>185.00</ele>
    </rtept>
    <rtept lat="45.48317047" lon="15.08146789" >
      <name>rte1_298</name>
      <ele>185.00</ele>
    </rtept>
    <rtept lat="45.48317942" lon="15.08153186" >
      <name>rte1_299</name>
      <ele>185.00</ele>
    </rtept>
    <rtept lat="45.48318838" lon="15.08159584" >
      <name>rte1_300</name>
      <ele>185.00</ele>
    </rtept>
    <rtept lat="45.48319283" lon="15.08165981" >
      <name>rte1_301</name>
      <ele>185.00</ele>
    </rtept>
    <rtept lat="45.48320178" lon="15.08172378" >
      <name>rte1_302</name>
      <ele>185.00</ele>
    </rtept>
    <rtept lat="45.48320623" lon="15.08178775" >
      <name>rte1_303</name>
      <ele>185.00</ele>
    </rtept>
    <rtept lat="45.48321068" lon="15.08185171" >
      <name>rte1_304</name>
      <ele>185.00</ele>
    </rtept>
    <rtept lat="45.48321964" lon="15.08191569" >
      <name>rte1_305</name>
      <ele>185.00</ele>
    </rtept>
    <rtept lat="45.48322409" lon="15.08197966" >
      <name>rte1_306</name>
      <ele>185.00</ele>
    </rtept>
    <rtept lat="45.48322854" lon="15.08204362" >
      <name>rte1_307</name>
      <ele>185.00</ele>
    </rtept>
    <rtept lat="45.48323299" lon="15.08210759" >
      <name>rte1_308</name>
      <ele>185.00</ele>
    </rtept>
    <rtept lat="45.48324194" lon="15.08217157" >
      <name>rte1_309</name>
      <ele>185.00</ele>
    </rtept>
    <rtept lat="45.48324639" lon="15.08224193" >
      <name>rte1_310</name>
      <ele>185.00</ele>
    </rtept>
    <rtept lat="45.48325084" lon="15.08230590" >
      <name>rte1_311</name>
      <ele>185.00</ele>
    </rtept>
    <rtept lat="45.48325980" lon="15.08236987" >
      <name>rte1_312</name>
      <ele>185.00</ele>
    </rtept>
    <rtept lat="45.48326875" lon="15.08243385" >
      <name>rte1_313</name>
      <ele>185.00</ele>
    </rtept>
    <rtept lat="45.48327320" lon="15.08249781" >
      <name>rte1_314</name>
      <ele>185.00</ele>
    </rtept>
    <rtept lat="45.48328215" lon="15.08256179" >
      <name>rte1_315</name>
      <ele>185.00</ele>
    </rtept>
    <rtept lat="45.48329110" lon="15.08262576" >
      <name>rte1_316</name>
      <ele>185.00</ele>
    </rtept>
    <rtept lat="45.48330005" lon="15.08268974" >
      <name>rte1_317</name>
      <ele>185.00</ele>
    </rtept>
    <rtept lat="45.48331350" lon="15.08275372" >
      <name>rte1_318</name>
      <ele>185.00</ele>
    </rtept>
    <rtept lat="45.48333591" lon="15.08287528" >
      <name>rte1_319</name>
      <ele>185.00</ele>
    </rtept>
    <rtept lat="45.48336281" lon="15.08299684" >
      <name>rte1_320</name>
      <ele>185.00</ele>
    </rtept>
    <rtept lat="45.48337627" lon="15.08306083" >
      <name>rte1_321</name>
      <ele>185.00</ele>
    </rtept>
    <rtept lat="45.48339422" lon="15.08311842" >
      <name>rte1_322</name>
      <ele>185.00</ele>
    </rtept>
    <rtept lat="45.48341217" lon="15.08317601" >
      <name>rte1_323</name>
      <ele>185.00</ele>
    </rtept>
    <rtept lat="45.48343012" lon="15.08324000" >
      <name>rte1_324</name>
      <ele>185.00</ele>
    </rtept>
    <rtept lat="45.48345258" lon="15.08329760" >
      <name>rte1_325</name>
      <ele>185.00</ele>
    </rtept>
    <rtept lat="45.48347503" lon="15.08335520" >
      <name>rte1_326</name>
      <ele>185.00</ele>
    </rtept>
    <rtept lat="45.48426712" lon="15.08306216" >
      <name>rte1_327</name>
      <ele>190.00</ele>
    </rtept>
    <rtept lat="45.48486125" lon="15.08276243" >
      <name>rte1_328</name>
      <ele>192.80</ele>
    </rtept>
    <rtept lat="45.48531131" lon="15.08257761" >
      <name>rte1_329</name>
      <ele>195.00</ele>
    </rtept>
    <rtept lat="45.48571168" lon="15.08266136" >
      <name>rte1_330</name>
      <ele>200.00</ele>
    </rtept>
    <rtept lat="45.48600422" lon="15.08254666" >
      <name>rte1_331</name>
      <ele>200.00</ele>
    </rtept>
    <rtept lat="45.48625171" lon="15.08251505" >
      <name>rte1_332</name>
      <ele>200.00</ele>
    </rtept>
    <rtept lat="45.48667911" lon="15.08254767" >
      <name>rte1_333</name>
      <ele>210.00</ele>
    </rtept>
    <rtept lat="45.48676458" lon="15.08257978" >
      <name>rte1_334</name>
      <ele>213.65</ele>
    </rtept>
    <rtept lat="45.48680955" lon="15.08260543" >
      <name>rte1_335</name>
      <ele>213.65</ele>
    </rtept>
    <rtept lat="45.48686351" lon="15.08265029" >
      <name>rte1_336</name>
      <ele>213.65</ele>
    </rtept>
    <rtept lat="45.48691747" lon="15.08268875" >
      <name>rte1_337</name>
      <ele>213.65</ele>
    </rtept>
    <rtept lat="45.48696693" lon="15.08272720" >
      <name>rte1_338</name>
      <ele>210.68</ele>
    </rtept>
    <rtept lat="45.48702089" lon="15.08277206" >
      <name>rte1_339</name>
      <ele>210.68</ele>
    </rtept>
    <rtept lat="45.48706586" lon="15.08281051" >
      <name>rte1_340</name>
      <ele>210.68</ele>
    </rtept>
    <rtept lat="45.48711531" lon="15.08285536" >
      <name>rte1_341</name>
      <ele>210.68</ele>
    </rtept>
    <rtept lat="45.48716028" lon="15.08289380" >
      <name>rte1_342</name>
      <ele>211.57</ele>
    </rtept>
    <rtept lat="45.48720524" lon="15.08293865" >
      <name>rte1_343</name>
      <ele>211.57</ele>
    </rtept>
    <rtept lat="45.48725020" lon="15.08297709" >
      <name>rte1_344</name>
      <ele>211.57</ele>
    </rtept>
    <rtept lat="45.48729066" lon="15.08302193" >
      <name>rte1_345</name>
      <ele>211.57</ele>
    </rtept>
    <rtept lat="45.48733113" lon="15.08306037" >
      <name>rte1_346</name>
      <ele>211.57</ele>
    </rtept>
    <rtept lat="45.48737159" lon="15.08310521" >
      <name>rte1_347</name>
      <ele>211.57</ele>
    </rtept>
    <rtept lat="45.48741205" lon="15.08314365" >
      <name>rte1_348</name>
      <ele>220.00</ele>
    </rtept>
    <rtept lat="45.48745251" lon="15.08318848" >
      <name>rte1_349</name>
      <ele>220.00</ele>
    </rtept>
    <rtept lat="45.48749298" lon="15.08322692" >
      <name>rte1_350</name>
      <ele>218.20</ele>
    </rtept>
    <rtept lat="45.48752894" lon="15.08326536" >
      <name>rte1_351</name>
      <ele>218.20</ele>
    </rtept>
    <rtept lat="45.48756940" lon="15.08331019" >
      <name>rte1_352</name>
      <ele>218.20</ele>
    </rtept>
    <rtept lat="45.48760987" lon="15.08334863" >
      <name>rte1_353</name>
      <ele>220.00</ele>
    </rtept>
    <rtept lat="45.48765033" lon="15.08338708" >
      <name>rte1_354</name>
      <ele>220.00</ele>
    </rtept>
    <rtept lat="45.48769080" lon="15.08341912" >
      <name>rte1_355</name>
      <ele>220.00</ele>
    </rtept>
    <rtept lat="45.48773127" lon="15.08345756" >
      <name>rte1_356</name>
      <ele>220.00</ele>
    </rtept>
    <rtept lat="45.48777173" lon="15.08349600" >
      <name>rte1_357</name>
      <ele>220.00</ele>
    </rtept>
    <rtept lat="45.48781220" lon="15.08352805" >
      <name>rte1_358</name>
      <ele>220.00</ele>
    </rtept>
    <rtept lat="45.48785717" lon="15.08356010" >
      <name>rte1_359</name>
      <ele>220.30</ele>
    </rtept>
    <rtept lat="45.48790214" lon="15.08359215" >
      <name>rte1_360</name>
      <ele>220.30</ele>
    </rtept>
    <rtept lat="45.48794711" lon="15.08362420" >
      <name>rte1_361</name>
      <ele>220.30</ele>
    </rtept>
    <rtept lat="45.48799657" lon="15.08365626" >
      <name>rte1_362</name>
      <ele>220.30</ele>
    </rtept>
    <rtept lat="45.48804605" lon="15.08368192" >
      <name>rte1_363</name>
      <ele>220.30</ele>
    </rtept>
    <rtept lat="45.48809552" lon="15.08370758" >
      <name>rte1_364</name>
      <ele>221.50</ele>
    </rtept>
    <rtept lat="45.48814949" lon="15.08373325" >
      <name>rte1_365</name>
      <ele>221.50</ele>
    </rtept>
    <rtept lat="45.48820346" lon="15.08375892" >
      <name>rte1_366</name>
      <ele>221.50</ele>
    </rtept>
    <rtept lat="45.48826194" lon="15.08377819" >
      <name>rte1_367</name>
      <ele>221.50</ele>
    </rtept>
    <rtept lat="45.48832491" lon="15.08380388" >
      <name>rte1_368</name>
      <ele>220.00</ele>
    </rtept>
    <rtept lat="45.48840588" lon="15.08382319" >
      <name>rte1_369</name>
      <ele>220.00</ele>
    </rtept>
    <rtept lat="45.48848686" lon="15.08383611" >
      <name>rte1_370</name>
      <ele>220.00</ele>
    </rtept>
    <rtept lat="45.48856334" lon="15.08384262" >
      <name>rte1_371</name>
      <ele>220.00</ele>
    </rtept>
    <rtept lat="45.48863533" lon="15.08384273" >
      <name>rte1_372</name>
      <ele>220.00</ele>
    </rtept>
    <rtept lat="45.48870732" lon="15.08384284" >
      <name>rte1_373</name>
      <ele>220.00</ele>
    </rtept>
    <rtept lat="45.48877481" lon="15.08383654" >
      <name>rte1_374</name>
      <ele>222.27</ele>
    </rtept>
    <rtept lat="45.48884231" lon="15.08382385" >
      <name>rte1_375</name>
      <ele>220.41</ele>
    </rtept>
    <rtept lat="45.48890981" lon="15.08381116" >
      <name>rte1_376</name>
      <ele>220.41</ele>
    </rtept>
    <rtept lat="45.48897731" lon="15.08379847" >
      <name>rte1_377</name>
      <ele>226.38</ele>
    </rtept>
    <rtept lat="45.48904481" lon="15.08377938" >
      <name>rte1_378</name>
      <ele>226.38</ele>
    </rtept>
    <rtept lat="45.48911681" lon="15.08376670" >
      <name>rte1_379</name>
      <ele>226.38</ele>
    </rtept>
    <rtept lat="45.48918881" lon="15.08374761" >
      <name>rte1_380</name>
      <ele>230.00</ele>
    </rtept>
    <rtept lat="45.48926531" lon="15.08373494" >
      <name>rte1_381</name>
      <ele>230.00</ele>
    </rtept>
    <rtept lat="45.48934181" lon="15.08372226" >
      <name>rte1_382</name>
      <ele>230.00</ele>
    </rtept>
    <rtept lat="45.48942280" lon="15.08370959" >
      <name>rte1_383</name>
      <ele>230.00</ele>
    </rtept>
    <rtept lat="45.48951279" lon="15.08370972" >
      <name>rte1_384</name>
      <ele>230.00</ele>
    </rtept>
    <rtept lat="45.48957578" lon="15.08370342" >
      <name>rte1_385</name>
      <ele>230.00</ele>
    </rtept>
    <rtept lat="45.48963878" lon="15.08369712" >
      <name>rte1_386</name>
      <ele>231.27</ele>
    </rtept>
    <rtept lat="45.48969727" lon="15.08369721" >
      <name>rte1_387</name>
      <ele>231.27</ele>
    </rtept>
    <rtept lat="45.48975126" lon="15.08369090" >
      <name>rte1_388</name>
      <ele>231.27</ele>
    </rtept>
    <rtept lat="45.48980526" lon="15.08369098" >
      <name>rte1_389</name>
      <ele>231.27</ele>
    </rtept>
    <rtept lat="45.48985925" lon="15.08369106" >
      <name>rte1_390</name>
      <ele>236.56</ele>
    </rtept>
    <rtept lat="45.48990874" lon="15.08368474" >
      <name>rte1_391</name>
      <ele>236.56</ele>
    </rtept>
    <rtept lat="45.48996273" lon="15.08368482" >
      <name>rte1_392</name>
      <ele>236.56</ele>
    </rtept>
    <rtept lat="45.49001223" lon="15.08368489" >
      <name>rte1_393</name>
      <ele>236.56</ele>
    </rtept>
    <rtept lat="45.49006172" lon="15.08368497" >
      <name>rte1_394</name>
      <ele>236.56</ele>
    </rtept>
    <rtept lat="45.49011571" lon="15.08368505" >
      <name>rte1_395</name>
      <ele>240.00</ele>
    </rtept>
    <rtept lat="45.49016970" lon="15.08369153" >
      <name>rte1_396</name>
      <ele>240.00</ele>
    </rtept>
    <rtept lat="45.49022819" lon="15.08369162" >
      <name>rte1_397</name>
      <ele>240.00</ele>
    </rtept>
    <rtept lat="45.49028667" lon="15.08369810" >
      <name>rte1_398</name>
      <ele>240.00</ele>
    </rtept>
    <rtept lat="45.49034966" lon="15.08369820" >
      <name>rte1_399</name>
      <ele>240.00</ele>
    </rtept>
    <rtept lat="45.49041714" lon="15.08371109" >
      <name>rte1_400</name>
      <ele>240.00</ele>
    </rtept>
    <rtept lat="45.49049362" lon="15.08371761" >
      <name>rte1_401</name>
      <ele>240.00</ele>
    </rtept>
    <rtept lat="45.49057011" lon="15.08371772" >
      <name>rte1_402</name>
      <ele>240.00</ele>
    </rtept>
    <rtept lat="45.49063760" lon="15.08372422" >
      <name>rte1_403</name>
      <ele>240.00</ele>
    </rtept>
    <rtept lat="45.49070508" lon="15.08373072" >
      <name>rte1_404</name>
      <ele>240.00</ele>
    </rtept>
    <rtept lat="45.49077256" lon="15.08373722" >
      <name>rte1_405</name>
      <ele>242.78</ele>
    </rtept>
    <rtept lat="45.49083555" lon="15.08374371" >
      <name>rte1_406</name>
      <ele>242.78</ele>
    </rtept>
    <rtept lat="45.49089854" lon="15.08374381" >
      <name>rte1_407</name>
      <ele>242.78</ele>
    </rtept>
    <rtept lat="45.49095702" lon="15.08375029" >
      <name>rte1_408</name>
      <ele>242.78</ele>
    </rtept>
    <rtept lat="45.49102000" lon="15.08376318" >
      <name>rte1_409</name>
      <ele>249.12</ele>
    </rtept>
    <rtept lat="45.49108299" lon="15.08376967" >
      <name>rte1_410</name>
      <ele>249.12</ele>
    </rtept>
    <rtept lat="45.49114597" lon="15.08378256" >
      <name>rte1_411</name>
      <ele>249.12</ele>
    </rtept>
    <rtept lat="45.49120895" lon="15.08379545" >
      <name>rte1_412</name>
      <ele>260.00</ele>
    </rtept>
    <rtept lat="45.49127643" lon="15.08380835" >
      <name>rte1_413</name>
      <ele>260.00</ele>
    </rtept>
    <rtept lat="45.49134390" lon="15.08382764" >
      <name>rte1_414</name>
      <ele>260.00</ele>
    </rtept>
    <rtept lat="45.49141588" lon="15.08384694" >
      <name>rte1_415</name>
      <ele>262.50</ele>
    </rtept>
    <rtept lat="45.49149685" lon="15.08387265" >
      <name>rte1_416</name>
      <ele>268.00</ele>
    </rtept>
    <rtept lat="45.49154183" lon="15.08388552" >
      <name>rte1_417</name>
      <ele>268.00</ele>
    </rtept>
    <rtept lat="45.49159131" lon="15.08389839" >
      <name>rte1_418</name>
      <ele>268.00</ele>
    </rtept>
    <rtept lat="45.49167677" lon="15.08393690" >
      <name>rte1_419</name>
      <ele>270.99</ele>
    </rtept>
    <rtept lat="45.49174420" lon="15.08400737" >
      <name>rte1_420</name>
      <ele>270.99</ele>
    </rtept>
    <rtept lat="45.49176667" lon="15.08405218" >
      <name>rte1_421</name>
      <ele>270.99</ele>
    </rtept>
    <rtept lat="45.49178911" lon="15.08412258" >
      <name>rte1_422</name>
      <ele>270.99</ele>
    </rtept>
    <rtept lat="45.49178454" lon="15.08421853" >
      <name>rte1_423</name>
      <ele>286.63</ele>
    </rtept>
    <rtept lat="45.49174400" lon="15.08427604" >
      <name>rte1_424</name>
      <ele>286.63</ele>
    </rtept>
    <rtept lat="45.49166749" lon="15.08430791" >
      <name>rte1_425</name>
      <ele>286.63</ele>
    </rtept>
    <rtept lat="45.49162249" lon="15.08432064" >
      <name>rte1_426</name>
      <ele>280.00</ele>
    </rtept>
    <rtept lat="45.49157749" lon="15.08432697" >
      <name>rte1_427</name>
      <ele>280.00</ele>
    </rtept>
    <rtept lat="45.49152799" lon="15.08433969" >
      <name>rte1_428</name>
      <ele>280.00</ele>
    </rtept>
    <rtept lat="45.49147849" lon="15.08434601" >
      <name>rte1_429</name>
      <ele>280.00</ele>
    </rtept>
    <rtept lat="45.49142899" lon="15.08436512" >
      <name>rte1_430</name>
      <ele>274.86</ele>
    </rtept>
    <rtept lat="45.49138398" lon="15.08438424" >
      <name>rte1_431</name>
      <ele>274.86</ele>
    </rtept>
    <rtept lat="45.49130745" lon="15.08444170" >
      <name>rte1_432</name>
      <ele>274.86</ele>
    </rtept>
    <rtept lat="45.49126688" lon="15.08454399" >
      <name>rte1_433</name>
      <ele>287.00</ele>
    </rtept>
    <rtept lat="45.49125781" lon="15.08463354" >
      <name>rte1_434</name>
      <ele>287.00</ele>
    </rtept>
    <rtept lat="45.49127575" lon="15.08471033" >
      <name>rte1_435</name>
      <ele>287.00</ele>
    </rtept>
    <rtept lat="45.49131619" lon="15.08478076" >
      <name>rte1_436</name>
      <ele>287.00</ele>
    </rtept>
    <rtept lat="45.49136563" lon="15.08485120" >
      <name>rte1_437</name>
      <ele>291.35</ele>
    </rtept>
    <rtept lat="45.49141957" lon="15.08491525" >
      <name>rte1_438</name>
      <ele>291.35</ele>
    </rtept>
    <rtept lat="45.49146900" lon="15.08499209" >
      <name>rte1_439</name>
      <ele>298.47</ele>
    </rtept>
    <rtept lat="45.49150044" lon="15.08507530" >
      <name>rte1_440</name>
      <ele>298.47</ele>
    </rtept>
    <rtept lat="45.49151835" lon="15.08517768" >
      <name>rte1_441</name>
      <ele>303.57</ele>
    </rtept>
    <rtept lat="45.49151379" lon="15.08526084" >
      <name>rte1_442</name>
      <ele>303.57</ele>
    </rtept>
    <rtept lat="45.49151373" lon="15.08533760" >
      <name>rte1_443</name>
      <ele>303.57</ele>
    </rtept>
    <rtept lat="45.49151367" lon="15.08541437" >
      <name>rte1_444</name>
      <ele>303.57</ele>
    </rtept>
    <rtept lat="45.49150912" lon="15.08548473" >
      <name>rte1_445</name>
      <ele>311.06</ele>
    </rtept>
    <rtept lat="45.49150457" lon="15.08555509" >
      <name>rte1_446</name>
      <ele>311.06</ele>
    </rtept>
    <rtept lat="45.49150002" lon="15.08562545" >
      <name>rte1_447</name>
      <ele>311.06</ele>
    </rtept>
    <rtept lat="45.49149547" lon="15.08568941" >
      <name>rte1_448</name>
      <ele>311.06</ele>
    </rtept>
    <rtept lat="45.49148642" lon="15.08575337" >
      <name>rte1_449</name>
      <ele>311.06</ele>
    </rtept>
    <rtept lat="45.49148187" lon="15.08581733" >
      <name>rte1_450</name>
      <ele>310.34</ele>
    </rtept>
    <rtept lat="45.49147282" lon="15.08588768" >
      <name>rte1_451</name>
      <ele>310.34</ele>
    </rtept>
    <rtept lat="45.49146377" lon="15.08595164" >
      <name>rte1_452</name>
      <ele>310.34</ele>
    </rtept>
    <rtept lat="45.49145022" lon="15.08602198" >
      <name>rte1_453</name>
      <ele>310.34</ele>
    </rtept>
    <rtept lat="45.49144117" lon="15.08609234" >
      <name>rte1_454</name>
      <ele>313.27</ele>
    </rtept>
    <rtept lat="45.49142761" lon="15.08616908" >
      <name>rte1_455</name>
      <ele>303.40</ele>
    </rtept>
    <rtept lat="45.49141405" lon="15.08624582" >
      <name>rte1_456</name>
      <ele>303.40</ele>
    </rtept>
    <rtept lat="45.49140049" lon="15.08632896" >
      <name>rte1_457</name>
      <ele>303.40</ele>
    </rtept>
    <rtept lat="45.49134643" lon="15.08642484" >
      <name>rte1_458</name>
      <ele>310.36</ele>
    </rtept>
    <rtept lat="45.49131041" lon="15.08645676" >
      <name>rte1_459</name>
      <ele>310.36</ele>
    </rtept>
    <rtept lat="45.49126538" lon="15.08649508" >
      <name>rte1_460</name>
      <ele>310.36</ele>
    </rtept>
    <rtept lat="45.49120237" lon="15.08653336" >
      <name>rte1_461</name>
      <ele>303.97</ele>
    </rtept>
    <rtept lat="45.49114835" lon="15.08656526" >
      <name>rte1_462</name>
      <ele>303.97</ele>
    </rtept>
    <rtept lat="45.49109433" lon="15.08660356" >
      <name>rte1_463</name>
      <ele>303.97</ele>
    </rtept>
    <rtept lat="45.49104481" lon="15.08663546" >
      <name>rte1_464</name>
      <ele>303.97</ele>
    </rtept>
    <rtept lat="45.49099080" lon="15.08666097" >
      <name>rte1_465</name>
      <ele>303.97</ele>
    </rtept>
    <rtept lat="45.49094578" lon="15.08669288" >
      <name>rte1_466</name>
      <ele>301.54</ele>
    </rtept>
    <rtept lat="45.49089628" lon="15.08671200" >
      <name>rte1_467</name>
      <ele>301.54</ele>
    </rtept>
    <rtept lat="45.49084676" lon="15.08673751" >
      <name>rte1_468</name>
      <ele>314.82</ele>
    </rtept>
    <rtept lat="45.49080175" lon="15.08676302" >
      <name>rte1_469</name>
      <ele>314.82</ele>
    </rtept>
    <rtept lat="45.49075225" lon="15.08678214" >
      <name>rte1_470</name>
      <ele>311.60</ele>
    </rtept>
    <rtept lat="45.49069824" lon="15.08680124" >
      <name>rte1_471</name>
      <ele>311.60</ele>
    </rtept>
    <rtept lat="45.49064874" lon="15.08681396" >
      <name>rte1_472</name>
      <ele>311.60</ele>
    </rtept>
    <rtept lat="45.49059473" lon="15.08683306" >
      <name>rte1_473</name>
      <ele>311.60</ele>
    </rtept>
    <rtept lat="45.49053623" lon="15.08684577" >
      <name>rte1_474</name>
      <ele>311.60</ele>
    </rtept>
    <rtept lat="45.49047773" lon="15.08685847" >
      <name>rte1_475</name>
      <ele>307.50</ele>
    </rtept>
    <rtept lat="45.49041473" lon="15.08687756" >
      <name>rte1_476</name>
      <ele>307.50</ele>
    </rtept>
    <rtept lat="45.49030673" lon="15.08689019" >
      <name>rte1_477</name>
      <ele>307.50</ele>
    </rtept>
    <rtept lat="45.49020324" lon="15.08690921" >
      <name>rte1_478</name>
      <ele>305.56</ele>
    </rtept>
    <rtept lat="45.49010424" lon="15.08692825" >
      <name>rte1_479</name>
      <ele>305.56</ele>
    </rtept>
    <rtept lat="45.49000974" lon="15.08694089" >
      <name>rte1_480</name>
      <ele>310.15</ele>
    </rtept>
    <rtept lat="45.48991525" lon="15.08695354" >
      <name>rte1_481</name>
      <ele>310.15</ele>
    </rtept>
    <rtept lat="45.48982525" lon="15.08697259" >
      <name>rte1_482</name>
      <ele>315.87</ele>
    </rtept>
    <rtept lat="45.48973525" lon="15.08698524" >
      <name>rte1_483</name>
      <ele>315.87</ele>
    </rtept>
    <rtept lat="45.48964526" lon="15.08699789" >
      <name>rte1_484</name>
      <ele>315.87</ele>
    </rtept>
    <rtept lat="45.48955976" lon="15.08701055" >
      <name>rte1_485</name>
      <ele>315.00</ele>
    </rtept>
    <rtept lat="45.48947427" lon="15.08702321" >
      <name>rte1_486</name>
      <ele>315.00</ele>
    </rtept>
    <rtept lat="45.48939327" lon="15.08702948" >
      <name>rte1_487</name>
      <ele>313.90</ele>
    </rtept>
    <rtept lat="45.48930778" lon="15.08704214" >
      <name>rte1_488</name>
      <ele>320.00</ele>
    </rtept>
    <rtept lat="45.48922678" lon="15.08705481" >
      <name>rte1_489</name>
      <ele>320.00</ele>
    </rtept>
    <rtept lat="45.48914579" lon="15.08706107" >
      <name>rte1_490</name>
      <ele>326.57</ele>
    </rtept>
    <rtept lat="45.48906480" lon="15.08706734" >
      <name>rte1_491</name>
      <ele>326.57</ele>
    </rtept>
    <rtept lat="45.48898380" lon="15.08708001" >
      <name>rte1_492</name>
      <ele>326.57</ele>
    </rtept>
    <rtept lat="45.48890281" lon="15.08708628" >
      <name>rte1_493</name>
      <ele>328.32</ele>
    </rtept>
    <rtept lat="45.48882182" lon="15.08709255" >
      <name>rte1_494</name>
      <ele>328.32</ele>
    </rtept>
    <rtept lat="45.48874083" lon="15.08709882" >
      <name>rte1_495</name>
      <ele>328.32</ele>
    </rtept>
    <rtept lat="45.48865983" lon="15.08710509" >
      <name>rte1_496</name>
      <ele>328.57</ele>
    </rtept>
    <rtept lat="45.48857884" lon="15.08711136" >
      <name>rte1_497</name>
      <ele>328.57</ele>
    </rtept>
    <rtept lat="45.48849335" lon="15.08711762" >
      <name>rte1_498</name>
      <ele>328.65</ele>
    </rtept>
    <rtept lat="45.48840786" lon="15.08712388" >
      <name>rte1_499</name>
      <ele>328.65</ele>
    </rtept>
    <rtept lat="45.48832237" lon="15.08713014" >
      <name>rte1_500</name>
      <ele>328.65</ele>
    </rtept>
    <rtept lat="45.48823238" lon="15.08713000" >
      <name>rte1_501</name>
      <ele>330.00</ele>
    </rtept>
    <rtept lat="45.48814239" lon="15.08713626" >
      <name>rte1_502</name>
      <ele>330.00</ele>
    </rtept>
    <rtept lat="45.48805240" lon="15.08714251" >
      <name>rte1_503</name>
      <ele>333.23</ele>
    </rtept>
    <rtept lat="45.48795792" lon="15.08714236" >
      <name>rte1_504</name>
      <ele>333.23</ele>
    </rtept>
    <rtept lat="45.48785893" lon="15.08714860" >
      <name>rte1_505</name>
      <ele>333.23</ele>
    </rtept>
    <rtept lat="45.48775994" lon="15.08715484" >
      <name>rte1_506</name>
      <ele>337.20</ele>
    </rtept>
    <rtept lat="45.48765646" lon="15.08715468" >
      <name>rte1_507</name>
      <ele>337.20</ele>
    </rtept>
    <rtept lat="45.48755297" lon="15.08716091" >
      <name>rte1_508</name>
      <ele>338.75</ele>
    </rtept>
    <rtept lat="45.48744042" lon="15.08725029" >
      <name>rte1_509</name>
      <ele>338.75</ele>
    </rtept>
    <rtept lat="45.48739990" lon="15.08728221" >
      <name>rte1_510</name>
      <ele>338.75</ele>
    </rtept>
    <rtept lat="45.48728271" lon="15.08754428" >
      <name>rte1_511</name>
      <ele>340.00</ele>
    </rtept>
    <rtept lat="45.48717451" lon="15.08783196" >
      <name>rte1_512</name>
      <ele>338.60</ele>
    </rtept>
    <rtept lat="45.48707990" lon="15.08799172" >
      <name>rte1_513</name>
      <ele>336.19</ele>
    </rtept>
    <rtept lat="45.48685928" lon="15.08818326" >
      <name>rte1_514</name>
      <ele>337.41</ele>
    </rtept>
    <rtept lat="45.48672426" lon="15.08824062" >
      <name>rte1_515</name>
      <ele>337.41</ele>
    </rtept>
    <rtept lat="45.48653971" lon="15.08833627" >
      <name>rte1_516</name>
      <ele>346.94</ele>
    </rtept>
    <rtept lat="45.48633711" lon="15.08850225" >
      <name>rte1_517</name>
      <ele>350.00</ele>
    </rtept>
    <rtept lat="45.48620198" lon="15.08869393" >
      <name>rte1_518</name>
      <ele>352.60</ele>
    </rtept>
    <rtept lat="45.48617042" lon="15.08877703" >
      <name>rte1_519</name>
      <ele>352.60</ele>
    </rtept>
    <rtept lat="45.48577887" lon="15.08891713" >
      <name>rte1_520</name>
      <ele>355.00</ele>
    </rtept>
    <rtept lat="45.48572038" lon="15.08891703" >
      <name>rte1_521</name>
      <ele>355.00</ele>
    </rtept>
    <rtept lat="45.48567540" lon="15.08891056" >
      <name>rte1_522</name>
      <ele>355.00</ele>
    </rtept>
    <rtept lat="45.48560343" lon="15.08887847" >
      <name>rte1_523</name>
      <ele>355.00</ele>
    </rtept>
    <rtept lat="45.48555399" lon="15.08882082" >
      <name>rte1_524</name>
      <ele>355.00</ele>
    </rtept>
    <rtept lat="45.48550905" lon="15.08875039" >
      <name>rte1_525</name>
      <ele>355.00</ele>
    </rtept>
    <rtept lat="45.48546862" lon="15.08867357" >
      <name>rte1_526</name>
      <ele>355.00</ele>
    </rtept>
    <rtept lat="45.48541469" lon="15.08859673" >
      <name>rte1_527</name>
      <ele>350.85</ele>
    </rtept>
    <rtept lat="45.48534725" lon="15.08853265" >
      <name>rte1_528</name>
      <ele>347.83</ele>
    </rtept>
    <rtept lat="45.48529777" lon="15.08851339" >
      <name>rte1_529</name>
      <ele>347.83</ele>
    </rtept>
    <rtept lat="45.48524829" lon="15.08850051" >
      <name>rte1_530</name>
      <ele>347.83</ele>
    </rtept>
    <rtept lat="45.48518981" lon="15.08848123" >
      <name>rte1_531</name>
      <ele>347.83</ele>
    </rtept>
    <rtept lat="45.48513582" lon="15.08848754" >
      <name>rte1_532</name>
      <ele>347.83</ele>
    </rtept>
    <rtept lat="45.48508631" lon="15.08850665" >
      <name>rte1_533</name>
      <ele>342.28</ele>
    </rtept>
    <rtept lat="45.48503679" lon="15.08853855" >
      <name>rte1_534</name>
      <ele>342.28</ele>
    </rtept>
    <rtept lat="45.48499626" lon="15.08858966" >
      <name>rte1_535</name>
      <ele>342.28</ele>
    </rtept>
    <rtept lat="45.48496022" lon="15.08865356" >
      <name>rte1_536</name>
      <ele>350.00</ele>
    </rtept>
    <rtept lat="45.48492865" lon="15.08873667" >
      <name>rte1_537</name>
      <ele>350.00</ele>
    </rtept>
    <rtept lat="45.48491508" lon="15.08883259" >
      <name>rte1_538</name>
      <ele>350.00</ele>
    </rtept>
    <rtept lat="45.48511273" lon="15.08923587" >
      <name>rte1_539</name>
      <ele>361.16</ele>
    </rtept>
    <rtept lat="45.48567415" lon="15.09046488" >
      <name>rte1_540</name>
      <ele>355.00</ele>
    </rtept>
    <rtept lat="45.48620627" lon="15.08896259" >
      <name>rte1_541</name>
      <ele>355.00</ele>
    </rtept>
    <rtept lat="45.48655311" lon="15.08846422" >
      <name>rte1_542</name>
      <ele>346.94</ele>
    </rtept>
    <rtept lat="45.48716526" lon="15.08814537" >
      <name>rte1_543</name>
      <ele>338.70</ele>
    </rtept>
    <rtept lat="45.48739065" lon="15.08760202" >
      <name>rte1_544</name>
      <ele>339.30</ele>
    </rtept>
    <rtept lat="45.48765184" lon="15.08730180" >
      <name>rte1_545</name>
      <ele>337.20</ele>
    </rtept>
    <rtept lat="45.48939766" lon="15.08717661" >
      <name>rte1_546</name>
      <ele>320.00</ele>
    </rtept>
    <rtept lat="45.49085566" lon="15.08687186" >
      <name>rte1_547</name>
      <ele>314.82</ele>
    </rtept>
    <rtept lat="45.49143633" lon="15.08652733" >
      <name>rte1_548</name>
      <ele>319.80</ele>
    </rtept>
    <rtept lat="45.49155818" lon="15.08605414" >
      <name>rte1_549</name>
      <ele>310.34</ele>
    </rtept>
    <rtept lat="45.49160368" lon="15.08538252" >
      <name>rte1_550</name>
      <ele>303.57</ele>
    </rtept>
    <rtept lat="45.49157248" lon="15.08499865" >
      <name>rte1_551</name>
      <ele>298.47</ele>
    </rtept>
    <rtept lat="45.49140629" lon="15.08462737" >
      <name>rte1_552</name>
      <ele>287.00</ele>
    </rtept>
    <rtept lat="45.49141993" lon="15.08443548" >
      <name>rte1_553</name>
      <ele>274.86</ele>
    </rtept>
    <rtept lat="45.49180242" lon="15.08437209" >
      <name>rte1_554</name>
      <ele>286.63</ele>
    </rtept>
    <rtept lat="45.49190607" lon="15.08415475" >
      <name>rte1_555</name>
      <ele>277.78</ele>
    </rtept>
    <rtept lat="45.49161839" lon="15.08378328" >
      <name>rte1_556</name>
      <ele>255.14</ele>
    </rtept>
    <rtept lat="45.49092112" lon="15.08363509" >
      <name>rte1_557</name>
      <ele>242.78</ele>
    </rtept>
    <rtept lat="45.49023730" lon="15.08354450" >
      <name>rte1_558</name>
      <ele>240.00</ele>
    </rtept>
    <rtept lat="45.48909893" lon="15.08360675" >
      <name>rte1_559</name>
      <ele>226.38</ele>
    </rtept>
    <rtept lat="45.48856342" lon="15.08374027" >
      <name>rte1_560</name>
      <ele>220.00</ele>
    </rtept>
    <rtept lat="45.48795622" lon="15.08347709" >
      <name>rte1_561</name>
      <ele>220.00</ele>
    </rtept>
    <rtept lat="45.48736270" lon="15.08295807" >
      <name>rte1_562</name>
      <ele>211.57</ele>
    </rtept>
    <rtept lat="45.48671072" lon="15.08239420" >
      <name>rte1_563</name>
      <ele>215.18</ele>
    </rtept>
    <rtept lat="45.48663433" lon="15.08226616" >
      <name>rte1_564</name>
      <ele>210.00</ele>
    </rtept>
    <rtept lat="45.48671113" lon="15.08183131" >
      <name>rte1_565</name>
      <ele>224.75</ele>
    </rtept>
    <rtept lat="45.48687811" lon="15.08114074" >
      <name>rte1_566</name>
      <ele>220.72</ele>
    </rtept>
    <rtept lat="45.48720227" lon="15.08085337" >
      <name>rte1_567</name>
      <ele>231.54</ele>
    </rtept>
    <rtept lat="45.48726529" lon="15.08080868" >
      <name>rte1_568</name>
      <ele>231.54</ele>
    </rtept>
    <rtept lat="45.48732830" lon="15.08077679" >
      <name>rte1_569</name>
      <ele>231.54</ele>
    </rtept>
    <rtept lat="45.48739132" lon="15.08074490" >
      <name>rte1_570</name>
      <ele>236.51</ele>
    </rtept>
    <rtept lat="45.48745882" lon="15.08071941" >
      <name>rte1_571</name>
      <ele>236.51</ele>
    </rtept>
    <rtept lat="45.48752633" lon="15.08070032" >
      <name>rte1_572</name>
      <ele>236.51</ele>
    </rtept>
    <rtept lat="45.48759832" lon="15.08068764" >
      <name>rte1_573</name>
      <ele>236.51</ele>
    </rtept>
    <rtept lat="45.48767482" lon="15.08066856" >
      <name>rte1_574</name>
      <ele>241.63</ele>
    </rtept>
    <rtept lat="45.48776032" lon="15.08066229" >
      <name>rte1_575</name>
      <ele>241.63</ele>
    </rtept>
    <rtept lat="45.48782782" lon="15.08064319" >
      <name>rte1_576</name>
      <ele>241.63</ele>
    </rtept>
    <rtept lat="45.48789532" lon="15.08063050" >
      <name>rte1_577</name>
      <ele>241.68</ele>
    </rtept>
    <rtept lat="45.48795831" lon="15.08062419" >
      <name>rte1_578</name>
      <ele>241.68</ele>
    </rtept>
    <rtept lat="45.48801681" lon="15.08061149" >
      <name>rte1_579</name>
      <ele>241.68</ele>
    </rtept>
    <rtept lat="45.48807531" lon="15.08060518" >
      <name>rte1_580</name>
      <ele>246.05</ele>
    </rtept>
    <rtept lat="45.48813830" lon="15.08060527" >
      <name>rte1_581</name>
      <ele>246.05</ele>
    </rtept>
    <rtept lat="45.48820579" lon="15.08059897" >
      <name>rte1_582</name>
      <ele>246.05</ele>
    </rtept>
    <rtept lat="45.48828227" lon="15.08060548" >
      <name>rte1_583</name>
      <ele>246.05</ele>
    </rtept>
    <rtept lat="45.48835426" lon="15.08061198" >
      <name>rte1_584</name>
      <ele>250.00</ele>
    </rtept>
    <rtept lat="45.48842173" lon="15.08063127" >
      <name>rte1_585</name>
      <ele>250.00</ele>
    </rtept>
    <rtept lat="45.48848020" lon="15.08065694" >
      <name>rte1_586</name>
      <ele>250.00</ele>
    </rtept>
    <rtept lat="45.48853867" lon="15.08068901" >
      <name>rte1_587</name>
      <ele>253.10</ele>
    </rtept>
    <rtept lat="45.48859715" lon="15.08070828" >
      <name>rte1_588</name>
      <ele>253.10</ele>
    </rtept>
    <rtept lat="45.48866013" lon="15.08072117" >
      <name>rte1_589</name>
      <ele>253.10</ele>
    </rtept>
    <rtept lat="45.48872762" lon="15.08072127" >
      <name>rte1_590</name>
      <ele>253.10</ele>
    </rtept>
    <rtept lat="45.48879962" lon="15.08070218" >
      <name>rte1_591</name>
      <ele>255.80</ele>
    </rtept>
    <rtept lat="45.48888064" lon="15.08065113" >
      <name>rte1_592</name>
      <ele>255.80</ele>
    </rtept>
    <rtept lat="45.48896167" lon="15.08060007" >
      <name>rte1_593</name>
      <ele>250.00</ele>
    </rtept>
    <rtept lat="45.48903369" lon="15.08054900" >
      <name>rte1_594</name>
      <ele>250.00</ele>
    </rtept>
    <rtept lat="45.48909672" lon="15.08049152" >
      <name>rte1_595</name>
      <ele>250.00</ele>
    </rtept>
    <rtept lat="45.48915976" lon="15.08042765" >
      <name>rte1_596</name>
      <ele>250.00</ele>
    </rtept>
    <rtept lat="45.48921829" lon="15.08036377" >
      <name>rte1_597</name>
      <ele>250.00</ele>
    </rtept>
    <rtept lat="45.48927683" lon="15.08029988" >
      <name>rte1_598</name>
      <ele>255.38</ele>
    </rtept>
    <rtept lat="45.48933087" lon="15.08022960" >
      <name>rte1_599</name>
      <ele>255.38</ele>
    </rtept>
    <rtept lat="45.48938941" lon="15.08016571" >
      <name>rte1_600</name>
      <ele>255.38</ele>
    </rtept>
    <rtept lat="45.48944345" lon="15.08009543" >
      <name>rte1_601</name>
      <ele>262.22</ele>
    </rtept>
    <rtept lat="45.48950199" lon="15.08002515" >
      <name>rte1_602</name>
      <ele>262.22</ele>
    </rtept>
    <rtept lat="45.48956503" lon="15.07996127" >
      <name>rte1_603</name>
      <ele>263.68</ele>
    </rtept>
    <rtept lat="45.48962807" lon="15.07989100" >
      <name>rte1_604</name>
      <ele>263.68</ele>
    </rtept>
    <rtept lat="45.48969560" lon="15.07982713" >
      <name>rte1_605</name>
      <ele>270.00</ele>
    </rtept>
    <rtept lat="45.48977214" lon="15.07976327" >
      <name>rte1_606</name>
      <ele>270.00</ele>
    </rtept>
    <rtept lat="45.48980815" lon="15.07973134" >
      <name>rte1_607</name>
      <ele>270.00</ele>
    </rtept>
    <rtept lat="45.48985316" lon="15.07970581" >
      <name>rte1_608</name>
      <ele>270.00</ele>
    </rtept>
    <rtept lat="45.48992516" lon="15.07968673" >
      <name>rte1_609</name>
      <ele>278.84</ele>
    </rtept>
    <rtept lat="45.48999712" lon="15.07973161" >
      <name>rte1_610</name>
      <ele>278.84</ele>
    </rtept>
    <rtept lat="45.49006908" lon="15.07977649" >
      <name>rte1_611</name>
      <ele>278.84</ele>
    </rtept>
    <rtept lat="45.49015006" lon="15.07977661" >
      <name>rte1_612</name>
      <ele>287.72</ele>
    </rtept>
    <rtept lat="45.49019058" lon="15.07974468" >
      <name>rte1_613</name>
      <ele>287.72</ele>
    </rtept>
    <rtept lat="45.49023560" lon="15.07971276" >
      <name>rte1_614</name>
      <ele>287.72</ele>
    </rtept>
    <rtept lat="45.49030313" lon="15.07964889" >
      <name>rte1_615</name>
      <ele>286.19</ele>
    </rtept>
    <rtept lat="45.49036618" lon="15.07957222" >
      <name>rte1_616</name>
      <ele>294.72</ele>
    </rtept>
    <rtept lat="45.49042022" lon="15.07949553" >
      <name>rte1_617</name>
      <ele>294.72</ele>
    </rtept>
    <rtept lat="45.49047877" lon="15.07941886" >
      <name>rte1_618</name>
      <ele>294.72</ele>
    </rtept>
    <rtept lat="45.49053731" lon="15.07934218" >
      <name>rte1_619</name>
      <ele>305.56</ele>
    </rtept>
    <rtept lat="45.49060485" lon="15.07926551" >
      <name>rte1_620</name>
      <ele>305.56</ele>
    </rtept>
    <rtept lat="45.49064537" lon="15.07923358" >
      <name>rte1_621</name>
      <ele>305.56</ele>
    </rtept>
    <rtept lat="45.49069039" lon="15.07920166" >
      <name>rte1_622</name>
      <ele>305.56</ele>
    </rtept>
    <rtept lat="45.49073991" lon="15.07916335" >
      <name>rte1_623</name>
      <ele>305.56</ele>
    </rtept>
    <rtept lat="45.49078942" lon="15.07913144" >
      <name>rte1_624</name>
      <ele>312.26</ele>
    </rtept>
    <rtept lat="45.49083893" lon="15.07910592" >
      <name>rte1_625</name>
      <ele>312.26</ele>
    </rtept>
    <rtept lat="45.49088394" lon="15.07908680" >
      <name>rte1_626</name>
      <ele>312.26</ele>
    </rtept>
    <rtept lat="45.49093344" lon="15.07906768" >
      <name>rte1_627</name>
      <ele>312.26</ele>
    </rtept>
    <rtept lat="45.49097844" lon="15.07905495" >
      <name>rte1_628</name>
      <ele>312.26</ele>
    </rtept>
    <rtept lat="45.49102345" lon="15.07903582" >
      <name>rte1_629</name>
      <ele>328.74</ele>
    </rtept>
    <rtept lat="45.49106845" lon="15.07902309" >
      <name>rte1_630</name>
      <ele>328.74</ele>
    </rtept>
    <rtept lat="45.49111345" lon="15.07901036" >
      <name>rte1_631</name>
      <ele>328.74</ele>
    </rtept>
    <rtept lat="45.49115846" lon="15.07899123" >
      <name>rte1_632</name>
      <ele>328.74</ele>
    </rtept>
    <rtept lat="45.49124397" lon="15.07895297" >
      <name>rte1_633</name>
      <ele>330.00</ele>
    </rtept>
    <rtept lat="45.49128898" lon="15.07892745" >
      <name>rte1_634</name>
      <ele>330.00</ele>
    </rtept>
    <rtept lat="45.49133850" lon="15.07889554" >
      <name>rte1_635</name>
      <ele>330.00</ele>
    </rtept>
    <rtept lat="45.49138352" lon="15.07885722" >
      <name>rte1_636</name>
      <ele>330.00</ele>
    </rtept>
    <rtept lat="45.49143304" lon="15.07881891" >
      <name>rte1_637</name>
      <ele>330.00</ele>
    </rtept>
    <rtept lat="45.49146457" lon="15.07876138" >
      <name>rte1_638</name>
      <ele>329.11</ele>
    </rtept>
    <rtept lat="45.49147811" lon="15.07869743" >
      <name>rte1_639</name>
      <ele>341.91</ele>
    </rtept>
    <rtept lat="45.49148266" lon="15.07862707" >
      <name>rte1_640</name>
      <ele>341.91</ele>
    </rtept>
    <rtept lat="45.49147371" lon="15.07855669" >
      <name>rte1_641</name>
      <ele>341.91</ele>
    </rtept>
    <rtept lat="45.49146927" lon="15.07847992" >
      <name>rte1_642</name>
      <ele>341.91</ele>
    </rtept>
    <rtept lat="45.49146482" lon="15.07840315" >
      <name>rte1_643</name>
      <ele>341.91</ele>
    </rtept>
    <rtept lat="45.49147387" lon="15.07833279" >
      <name>rte1_644</name>
      <ele>352.00</ele>
    </rtept>
    <rtept lat="45.49150091" lon="15.07826886" >
      <name>rte1_645</name>
      <ele>352.00</ele>
    </rtept>
    <rtept lat="45.49155947" lon="15.07817938" >
      <name>rte1_646</name>
      <ele>352.00</ele>
    </rtept>
    <rtept lat="45.49162250" lon="15.07811550" >
      <name>rte1_647</name>
      <ele>352.00</ele>
    </rtept>
    <rtept lat="45.49169452" lon="15.07807082" >
      <name>rte1_648</name>
      <ele>364.08</ele>
    </rtept>
    <rtept lat="45.49176654" lon="15.07802615" >
      <name>rte1_649</name>
      <ele>364.08</ele>
    </rtept>
    <rtept lat="45.49183405" lon="15.07798786" >
      <name>rte1_650</name>
      <ele>364.08</ele>
    </rtept>
    <rtept lat="45.49189708" lon="15.07793038" >
      <name>rte1_651</name>
      <ele>364.15</ele>
    </rtept>
    <rtept lat="45.49195113" lon="15.07786008" >
      <name>rte1_652</name>
      <ele>364.15</ele>
    </rtept>
    <rtept lat="45.49199618" lon="15.07776419" >
      <name>rte1_653</name>
      <ele>364.15</ele>
    </rtept>
    <rtept lat="45.49218531" lon="15.07753416" >
      <name>rte1_654</name>
      <ele>370.00</ele>
    </rtept>
    <rtept lat="45.49322030" lon="15.07731811" >
      <name>rte1_655</name>
      <ele>368.80</ele>
    </rtept>
    <rtept lat="45.49396719" lon="15.07729996" >
      <name>rte1_656</name>
      <ele>375.00</ele>
    </rtept>
    <rtept lat="45.49481688" lon="15.07825437" >
      <name>rte1_657</name>
      <ele>375.00</ele>
    </rtept>
    <rtept lat="45.49581990" lon="15.07871001" >
      <name>rte1_658</name>
      <ele>375.00</ele>
    </rtept>
    <rtept lat="45.49635084" lon="15.07866599" >
      <name>rte1_659</name>
      <ele>378.20</ele>
    </rtept>
  </rte>
</gpx>
