<?xml version="1.0" encoding="UTF-8" standalone="no" ?>
<gpx xmlns="http://www.topografix.com/GPX/1/1"
creator="OCAD 2020.5.5.3227" version="1.1"
xmlns:xsi="http://www.w3.org/2001/XMLSchema-instance" 
xsi:schemaLocation="http://www.topografix.com/GPX/1/1 
http://www.topografix.com/GPX/1/1/gpx.xsd">

  <metadata>
    <name>Grički kal</name>
    <desc>Bela krajina - pohodna pot 06</desc>
    <author><name>Kartografija d.o.o.</name></author>
    <link href="http://www.ocad.com">
      <text>OCAD AG</text>
    </link>
    <time>2020-11-05T08:38:29</time>
    <bounds maxlat="45.86687249" maxlon="15.60571704" minlat="45.32979540" minlon="14.93303760"/>
  </metadata>

  <rte>
    <name>rte1</name>
    <cmt>pohodne poti za izris profilov</cmt>
    <rtept lat="45.55612966" lon="15.12989654" >
      <name>rte1_0</name>
      <ele>317.14</ele>
    </rtept>
    <rtept lat="45.55599481" lon="15.12979376" >
      <name>rte1_1</name>
      <ele>317.14</ele>
    </rtept>
    <rtept lat="45.55583749" lon="15.12965890" >
      <name>rte1_2</name>
      <ele>324.02</ele>
    </rtept>
    <rtept lat="45.55565766" lon="15.12953680" >
      <name>rte1_3</name>
      <ele>328.25</ele>
    </rtept>
    <rtept lat="45.55543289" lon="15.12936976" >
      <name>rte1_4</name>
      <ele>340.00</ele>
    </rtept>
    <rtept lat="45.55520350" lon="15.12931159" >
      <name>rte1_5</name>
      <ele>335.20</ele>
    </rtept>
    <rtept lat="45.55506406" lon="15.12927925" >
      <name>rte1_6</name>
      <ele>335.20</ele>
    </rtept>
    <rtept lat="45.55459158" lon="15.12933578" >
      <name>rte1_7</name>
      <ele>340.00</ele>
    </rtept>
    <rtept lat="45.55453756" lon="15.12936128" >
      <name>rte1_8</name>
      <ele>340.00</ele>
    </rtept>
    <rtept lat="45.55448353" lon="15.12939317" >
      <name>rte1_9</name>
      <ele>340.00</ele>
    </rtept>
    <rtept lat="45.55443401" lon="15.12941867" >
      <name>rte1_10</name>
      <ele>330.00</ele>
    </rtept>
    <rtept lat="45.55438899" lon="15.12944418" >
      <name>rte1_11</name>
      <ele>330.00</ele>
    </rtept>
    <rtept lat="45.55433947" lon="15.12946968" >
      <name>rte1_12</name>
      <ele>330.00</ele>
    </rtept>
    <rtept lat="45.55429445" lon="15.12948879" >
      <name>rte1_13</name>
      <ele>330.00</ele>
    </rtept>
    <rtept lat="45.55424944" lon="15.12950150" >
      <name>rte1_14</name>
      <ele>330.00</ele>
    </rtept>
    <rtept lat="45.55420444" lon="15.12951420" >
      <name>rte1_15</name>
      <ele>330.00</ele>
    </rtept>
    <rtept lat="45.55415943" lon="15.12952690" >
      <name>rte1_16</name>
      <ele>330.00</ele>
    </rtept>
    <rtept lat="45.55411444" lon="15.12952680" >
      <name>rte1_17</name>
      <ele>330.00</ele>
    </rtept>
    <rtept lat="45.55406494" lon="15.12953309" >
      <name>rte1_18</name>
      <ele>330.00</ele>
    </rtept>
    <rtept lat="45.55401996" lon="15.12952658" >
      <name>rte1_19</name>
      <ele>330.00</ele>
    </rtept>
    <rtept lat="45.55397047" lon="15.12952006" >
      <name>rte1_20</name>
      <ele>330.00</ele>
    </rtept>
    <rtept lat="45.55392100" lon="15.12950073" >
      <name>rte1_21</name>
      <ele>330.00</ele>
    </rtept>
    <rtept lat="45.55386703" lon="15.12948139" >
      <name>rte1_22</name>
      <ele>330.00</ele>
    </rtept>
    <rtept lat="45.55381757" lon="15.12946207" >
      <name>rte1_23</name>
      <ele>330.00</ele>
    </rtept>
    <rtept lat="45.55376810" lon="15.12943633" >
      <name>rte1_24</name>
      <ele>330.00</ele>
    </rtept>
    <rtept lat="45.55372315" lon="15.12940421" >
      <name>rte1_25</name>
      <ele>330.00</ele>
    </rtept>
    <rtept lat="45.55367819" lon="15.12937849" >
      <name>rte1_26</name>
      <ele>330.00</ele>
    </rtept>
    <rtept lat="45.55363772" lon="15.12935278" >
      <name>rte1_27</name>
      <ele>330.00</ele>
    </rtept>
    <rtept lat="45.55356129" lon="15.12930137" >
      <name>rte1_28</name>
      <ele>330.00</ele>
    </rtept>
    <rtept lat="45.55348937" lon="15.12924997" >
      <name>rte1_29</name>
      <ele>330.00</ele>
    </rtept>
    <rtept lat="45.55341293" lon="15.12920496" >
      <name>rte1_30</name>
      <ele>340.00</ele>
    </rtept>
    <rtept lat="45.55333198" lon="15.12917275" >
      <name>rte1_31</name>
      <ele>340.00</ele>
    </rtept>
    <rtept lat="45.55324653" lon="15.12914694" >
      <name>rte1_32</name>
      <ele>340.00</ele>
    </rtept>
    <rtept lat="45.55319705" lon="15.12913401" >
      <name>rte1_33</name>
      <ele>340.00</ele>
    </rtept>
    <rtept lat="45.55314756" lon="15.12913390" >
      <name>rte1_34</name>
      <ele>340.00</ele>
    </rtept>
    <rtept lat="45.55222974" lon="15.12911256" >
      <name>rte1_35</name>
      <ele>350.00</ele>
    </rtept>
    <rtept lat="45.55221174" lon="15.12911251" >
      <name>rte1_36</name>
      <ele>350.00</ele>
    </rtept>
    <rtept lat="45.55219375" lon="15.12911247" >
      <name>rte1_37</name>
      <ele>350.00</ele>
    </rtept>
    <rtept lat="45.55214426" lon="15.12910595" >
      <name>rte1_38</name>
      <ele>350.00</ele>
    </rtept>
    <rtept lat="45.55210379" lon="15.12908665" >
      <name>rte1_39</name>
      <ele>350.00</ele>
    </rtept>
    <rtept lat="45.55203637" lon="15.12902886" >
      <name>rte1_40</name>
      <ele>350.00</ele>
    </rtept>
    <rtept lat="45.55197798" lon="15.12894547" >
      <name>rte1_41</name>
      <ele>350.00</ele>
    </rtept>
    <rtept lat="45.55192859" lon="15.12885570" >
      <name>rte1_42</name>
      <ele>350.00</ele>
    </rtept>
    <rtept lat="45.55187921" lon="15.12875312" >
      <name>rte1_43</name>
      <ele>360.00</ele>
    </rtept>
    <rtept lat="45.55182532" lon="15.12866975" >
      <name>rte1_44</name>
      <ele>360.00</ele>
    </rtept>
    <rtept lat="45.55175791" lon="15.12859915" >
      <name>rte1_45</name>
      <ele>360.00</ele>
    </rtept>
    <rtept lat="45.55167696" lon="15.12856694" >
      <name>rte1_46</name>
      <ele>360.00</ele>
    </rtept>
    <rtept lat="45.55161395" lon="15.12858601" >
      <name>rte1_47</name>
      <ele>360.00</ele>
    </rtept>
    <rtept lat="45.55157787" lon="15.12866277" >
      <name>rte1_48</name>
      <ele>360.00</ele>
    </rtept>
    <rtept lat="45.55154629" lon="15.12873955" >
      <name>rte1_49</name>
      <ele>360.00</ele>
    </rtept>
    <rtept lat="45.55149225" lon="15.12878425" >
      <name>rte1_50</name>
      <ele>360.00</ele>
    </rtept>
    <rtept lat="45.55143825" lon="15.12878412" >
      <name>rte1_51</name>
      <ele>360.00</ele>
    </rtept>
    <rtept lat="45.55138426" lon="15.12878400" >
      <name>rte1_52</name>
      <ele>360.00</ele>
    </rtept>
    <rtept lat="45.55133477" lon="15.12878388" >
      <name>rte1_53</name>
      <ele>360.00</ele>
    </rtept>
    <rtept lat="45.55128528" lon="15.12878377" >
      <name>rte1_54</name>
      <ele>360.00</ele>
    </rtept>
    <rtept lat="45.55123580" lon="15.12877725" >
      <name>rte1_55</name>
      <ele>360.00</ele>
    </rtept>
    <rtept lat="45.55119081" lon="15.12877074" >
      <name>rte1_56</name>
      <ele>370.00</ele>
    </rtept>
    <rtept lat="45.55114582" lon="15.12877064" >
      <name>rte1_57</name>
      <ele>370.00</ele>
    </rtept>
    <rtept lat="45.55110084" lon="15.12876413" >
      <name>rte1_58</name>
      <ele>370.00</ele>
    </rtept>
    <rtept lat="45.55101537" lon="15.12874472" >
      <name>rte1_59</name>
      <ele>370.00</ele>
    </rtept>
    <rtept lat="45.55092990" lon="15.12873172" >
      <name>rte1_60</name>
      <ele>370.00</ele>
    </rtept>
    <rtept lat="45.55084894" lon="15.12871232" >
      <name>rte1_61</name>
      <ele>370.00</ele>
    </rtept>
    <rtept lat="45.55076797" lon="15.12869292" >
      <name>rte1_62</name>
      <ele>374.80</ele>
    </rtept>
    <rtept lat="45.55068701" lon="15.12867352" >
      <name>rte1_63</name>
      <ele>374.80</ele>
    </rtept>
    <rtept lat="45.55060604" lon="15.12866052" >
      <name>rte1_64</name>
      <ele>374.80</ele>
    </rtept>
    <rtept lat="45.55052057" lon="15.12864752" >
      <name>rte1_65</name>
      <ele>380.00</ele>
    </rtept>
    <rtept lat="45.55043509" lon="15.12864092" >
      <name>rte1_66</name>
      <ele>380.00</ele>
    </rtept>
    <rtept lat="45.55034961" lon="15.12864072" >
      <name>rte1_67</name>
      <ele>380.00</ele>
    </rtept>
    <rtept lat="45.55030461" lon="15.12864702" >
      <name>rte1_68</name>
      <ele>380.00</ele>
    </rtept>
    <rtept lat="45.55025512" lon="15.12864690" >
      <name>rte1_69</name>
      <ele>380.00</ele>
    </rtept>
    <rtept lat="45.55020562" lon="15.12865319" >
      <name>rte1_70</name>
      <ele>380.00</ele>
    </rtept>
    <rtept lat="45.55015612" lon="15.12865948" >
      <name>rte1_71</name>
      <ele>380.00</ele>
    </rtept>
    <rtept lat="45.55010661" lon="15.12867218" >
      <name>rte1_72</name>
      <ele>380.00</ele>
    </rtept>
    <rtept lat="45.55005711" lon="15.12868487" >
      <name>rte1_73</name>
      <ele>385.00</ele>
    </rtept>
    <rtept lat="45.54997610" lon="15.12870389" >
      <name>rte1_74</name>
      <ele>385.00</ele>
    </rtept>
    <rtept lat="45.54990408" lon="15.12872934" >
      <name>rte1_75</name>
      <ele>385.00</ele>
    </rtept>
    <rtept lat="45.54983656" lon="15.12876120" >
      <name>rte1_76</name>
      <ele>390.00</ele>
    </rtept>
    <rtept lat="45.54977353" lon="15.12879307" >
      <name>rte1_77</name>
      <ele>390.00</ele>
    </rtept>
    <rtept lat="45.54971500" lon="15.12883136" >
      <name>rte1_78</name>
      <ele>390.00</ele>
    </rtept>
    <rtept lat="45.54965646" lon="15.12886965" >
      <name>rte1_79</name>
      <ele>390.00</ele>
    </rtept>
    <rtept lat="45.54960242" lon="15.12891435" >
      <name>rte1_80</name>
      <ele>390.00</ele>
    </rtept>
    <rtept lat="45.54954838" lon="15.12895905" >
      <name>rte1_81</name>
      <ele>390.00</ele>
    </rtept>
    <rtept lat="45.54949433" lon="15.12901015" >
      <name>rte1_82</name>
      <ele>390.00</ele>
    </rtept>
    <rtept lat="45.54944029" lon="15.12905485" >
      <name>rte1_83</name>
      <ele>390.00</ele>
    </rtept>
    <rtept lat="45.54938175" lon="15.12909954" >
      <name>rte1_84</name>
      <ele>392.30</ele>
    </rtept>
    <rtept lat="45.54932770" lon="15.12915064" >
      <name>rte1_85</name>
      <ele>392.30</ele>
    </rtept>
    <rtept lat="45.54926466" lon="15.12919532" >
      <name>rte1_86</name>
      <ele>392.30</ele>
    </rtept>
    <rtept lat="45.54920162" lon="15.12924000" >
      <name>rte1_87</name>
      <ele>394.40</ele>
    </rtept>
    <rtept lat="45.54913408" lon="15.12928467" >
      <name>rte1_88</name>
      <ele>394.40</ele>
    </rtept>
    <rtept lat="45.54906204" lon="15.12932932" >
      <name>rte1_89</name>
      <ele>394.40</ele>
    </rtept>
    <rtept lat="45.54901703" lon="15.12934843" >
      <name>rte1_90</name>
      <ele>394.40</ele>
    </rtept>
    <rtept lat="45.54897201" lon="15.12936754" >
      <name>rte1_91</name>
      <ele>397.80</ele>
    </rtept>
    <rtept lat="45.54889099" lon="15.12939937" >
      <name>rte1_92</name>
      <ele>392.20</ele>
    </rtept>
    <rtept lat="45.54881447" lon="15.12942480" >
      <name>rte1_93</name>
      <ele>392.20</ele>
    </rtept>
    <rtept lat="45.54873796" lon="15.12945024" >
      <name>rte1_94</name>
      <ele>396.60</ele>
    </rtept>
    <rtept lat="45.54866595" lon="15.12946928" >
      <name>rte1_95</name>
      <ele>396.60</ele>
    </rtept>
    <rtept lat="45.54859394" lon="15.12948832" >
      <name>rte1_96</name>
      <ele>396.60</ele>
    </rtept>
    <rtept lat="45.54852194" lon="15.12950096" >
      <name>rte1_97</name>
      <ele>400.00</ele>
    </rtept>
    <rtept lat="45.54845443" lon="15.12951361" >
      <name>rte1_98</name>
      <ele>400.00</ele>
    </rtept>
    <rtept lat="45.54838243" lon="15.12952625" >
      <name>rte1_99</name>
      <ele>400.00</ele>
    </rtept>
    <rtept lat="45.54831043" lon="15.12953889" >
      <name>rte1_100</name>
      <ele>400.00</ele>
    </rtept>
    <rtept lat="45.54824292" lon="15.12955794" >
      <name>rte1_101</name>
      <ele>400.00</ele>
    </rtept>
    <rtept lat="45.54816642" lon="15.12957057" >
      <name>rte1_102</name>
      <ele>400.00</ele>
    </rtept>
    <rtept lat="45.54808991" lon="15.12958961" >
      <name>rte1_103</name>
      <ele>400.00</ele>
    </rtept>
    <rtept lat="45.54801339" lon="15.12961504" >
      <name>rte1_104</name>
      <ele>405.00</ele>
    </rtept>
    <rtept lat="45.54793238" lon="15.12964047" >
      <name>rte1_105</name>
      <ele>405.00</ele>
    </rtept>
    <rtept lat="45.54784685" lon="15.12967869" >
      <name>rte1_106</name>
      <ele>410.00</ele>
    </rtept>
    <rtept lat="45.54778383" lon="15.12970415" >
      <name>rte1_107</name>
      <ele>410.00</ele>
    </rtept>
    <rtept lat="45.54774328" lon="15.12975529" >
      <name>rte1_108</name>
      <ele>410.00</ele>
    </rtept>
    <rtept lat="45.54760840" lon="15.12966532" >
      <name>rte1_109</name>
      <ele>410.00</ele>
    </rtept>
    <rtept lat="45.54755905" lon="15.12954354" >
      <name>rte1_110</name>
      <ele>410.00</ele>
    </rtept>
    <rtept lat="45.54737492" lon="15.12925496" >
      <name>rte1_111</name>
      <ele>415.30</ele>
    </rtept>
    <rtept lat="45.54722216" lon="15.12906251" >
      <name>rte1_112</name>
      <ele>420.00</ele>
    </rtept>
    <rtept lat="45.54697054" lon="15.12877377" >
      <name>rte1_113</name>
      <ele>421.20</ele>
    </rtept>
    <rtept lat="45.54679529" lon="15.12858127" >
      <name>rte1_114</name>
      <ele>430.00</ele>
    </rtept>
    <rtept lat="45.54663349" lon="15.12842722" >
      <name>rte1_115</name>
      <ele>430.00</ele>
    </rtept>
    <rtept lat="45.54636824" lon="15.12824731" >
      <name>rte1_116</name>
      <ele>440.00</ele>
    </rtept>
    <rtept lat="45.54633708" lon="15.12795909" >
      <name>rte1_117</name>
      <ele>440.00</ele>
    </rtept>
    <rtept lat="45.54633267" lon="15.12787584" >
      <name>rte1_118</name>
      <ele>440.00</ele>
    </rtept>
    <rtept lat="45.54633276" lon="15.12779900" >
      <name>rte1_119</name>
      <ele>440.00</ele>
    </rtept>
    <rtept lat="45.54632835" lon="15.12772215" >
      <name>rte1_120</name>
      <ele>443.70</ele>
    </rtept>
    <rtept lat="45.54632843" lon="15.12765172" >
      <name>rte1_121</name>
      <ele>443.70</ele>
    </rtept>
    <rtept lat="45.54632851" lon="15.12758128" >
      <name>rte1_122</name>
      <ele>443.70</ele>
    </rtept>
    <rtept lat="45.54632859" lon="15.12750444" >
      <name>rte1_123</name>
      <ele>443.70</ele>
    </rtept>
    <rtept lat="45.54632867" lon="15.12743401" >
      <name>rte1_124</name>
      <ele>450.00</ele>
    </rtept>
    <rtept lat="45.54632875" lon="15.12736357" >
      <name>rte1_125</name>
      <ele>450.00</ele>
    </rtept>
    <rtept lat="45.54632883" lon="15.12729314" >
      <name>rte1_126</name>
      <ele>450.00</ele>
    </rtept>
    <rtept lat="45.54632891" lon="15.12722270" >
      <name>rte1_127</name>
      <ele>450.00</ele>
    </rtept>
    <rtept lat="45.54633350" lon="15.12714587" >
      <name>rte1_128</name>
      <ele>450.00</ele>
    </rtept>
    <rtept lat="45.54633358" lon="15.12706903" >
      <name>rte1_129</name>
      <ele>450.00</ele>
    </rtept>
    <rtept lat="45.54633818" lon="15.12698580" >
      <name>rte1_130</name>
      <ele>450.00</ele>
    </rtept>
    <rtept lat="45.54633827" lon="15.12690256" >
      <name>rte1_131</name>
      <ele>450.00</ele>
    </rtept>
    <rtept lat="45.54634286" lon="15.12681933" >
      <name>rte1_132</name>
      <ele>450.00</ele>
    </rtept>
    <rtept lat="45.54634746" lon="15.12672969" >
      <name>rte1_133</name>
      <ele>450.00</ele>
    </rtept>
    <rtept lat="45.54634757" lon="15.12664005" >
      <name>rte1_134</name>
      <ele>450.00</ele>
    </rtept>
    <rtept lat="45.54635215" lon="15.12656322" >
      <name>rte1_135</name>
      <ele>450.00</ele>
    </rtept>
    <rtept lat="45.54635673" lon="15.12649280" >
      <name>rte1_136</name>
      <ele>450.00</ele>
    </rtept>
    <rtept lat="45.54636130" lon="15.12642877" >
      <name>rte1_137</name>
      <ele>450.00</ele>
    </rtept>
    <rtept lat="45.54637037" lon="15.12636476" >
      <name>rte1_138</name>
      <ele>450.00</ele>
    </rtept>
    <rtept lat="45.54637944" lon="15.12630075" >
      <name>rte1_139</name>
      <ele>450.00</ele>
    </rtept>
    <rtept lat="45.54639302" lon="15.12623034" >
      <name>rte1_140</name>
      <ele>450.00</ele>
    </rtept>
    <rtept lat="45.54641560" lon="15.12615356" >
      <name>rte1_141</name>
      <ele>460.00</ele>
    </rtept>
    <rtept lat="45.54643369" lon="15.12607035" >
      <name>rte1_142</name>
      <ele>460.00</ele>
    </rtept>
    <rtept lat="45.54646076" lon="15.12599998" >
      <name>rte1_143</name>
      <ele>460.00</ele>
    </rtept>
    <rtept lat="45.54649233" lon="15.12593602" >
      <name>rte1_144</name>
      <ele>460.00</ele>
    </rtept>
    <rtept lat="45.54652839" lon="15.12587847" >
      <name>rte1_145</name>
      <ele>460.00</ele>
    </rtept>
    <rtept lat="45.54656443" lon="15.12583373" >
      <name>rte1_146</name>
      <ele>460.00</ele>
    </rtept>
    <rtept lat="45.54660048" lon="15.12578899" >
      <name>rte1_147</name>
      <ele>460.00</ele>
    </rtept>
    <rtept lat="45.54664102" lon="15.12574426" >
      <name>rte1_148</name>
      <ele>460.00</ele>
    </rtept>
    <rtept lat="45.54668605" lon="15.12570594" >
      <name>rte1_149</name>
      <ele>460.00</ele>
    </rtept>
    <rtept lat="45.54672659" lon="15.12566761" >
      <name>rte1_150</name>
      <ele>460.00</ele>
    </rtept>
    <rtept lat="45.54677162" lon="15.12562929" >
      <name>rte1_151</name>
      <ele>460.00</ele>
    </rtept>
    <rtept lat="45.54681666" lon="15.12559098" >
      <name>rte1_152</name>
      <ele>460.00</ele>
    </rtept>
    <rtept lat="45.54685720" lon="15.12554624" >
      <name>rte1_153</name>
      <ele>460.00</ele>
    </rtept>
    <rtept lat="45.54690225" lon="15.12549512" >
      <name>rte1_154</name>
      <ele>461.40</ele>
    </rtept>
    <rtept lat="45.54694280" lon="15.12544398" >
      <name>rte1_155</name>
      <ele>461.40</ele>
    </rtept>
    <rtept lat="45.54698337" lon="15.12538004" >
      <name>rte1_156</name>
      <ele>460.00</ele>
    </rtept>
    <rtept lat="45.54702393" lon="15.12531610" >
      <name>rte1_157</name>
      <ele>460.00</ele>
    </rtept>
    <rtept lat="45.54705100" lon="15.12525213" >
      <name>rte1_158</name>
      <ele>460.00</ele>
    </rtept>
    <rtept lat="45.54707356" lon="15.12518815" >
      <name>rte1_159</name>
      <ele>461.70</ele>
    </rtept>
    <rtept lat="45.54710062" lon="15.12513058" >
      <name>rte1_160</name>
      <ele>461.70</ele>
    </rtept>
    <rtept lat="45.54711868" lon="15.12507299" >
      <name>rte1_161</name>
      <ele>461.70</ele>
    </rtept>
    <rtept lat="45.54715930" lon="15.12496422" >
      <name>rte1_162</name>
      <ele>461.70</ele>
    </rtept>
    <rtept lat="45.54719091" lon="15.12485544" >
      <name>rte1_163</name>
      <ele>460.00</ele>
    </rtept>
    <rtept lat="45.54721804" lon="15.12474024" >
      <name>rte1_164</name>
      <ele>460.00</ele>
    </rtept>
    <rtept lat="45.54724066" lon="15.12462503" >
      <name>rte1_165</name>
      <ele>460.00</ele>
    </rtept>
    <rtept lat="45.54724973" lon="15.12456101" >
      <name>rte1_166</name>
      <ele>470.00</ele>
    </rtept>
    <rtept lat="45.54725880" lon="15.12449700" >
      <name>rte1_167</name>
      <ele>470.00</ele>
    </rtept>
    <rtept lat="45.54726338" lon="15.12442657" >
      <name>rte1_168</name>
      <ele>470.00</ele>
    </rtept>
    <rtept lat="45.54727245" lon="15.12435616" >
      <name>rte1_169</name>
      <ele>470.00</ele>
    </rtept>
    <rtept lat="45.54727255" lon="15.12426651" >
      <name>rte1_170</name>
      <ele>470.00</ele>
    </rtept>
    <rtept lat="45.54726364" lon="15.12418965" >
      <name>rte1_171</name>
      <ele>470.00</ele>
    </rtept>
    <rtept lat="45.54725472" lon="15.12411279" >
      <name>rte1_172</name>
      <ele>470.00</ele>
    </rtept>
    <rtept lat="45.54723680" lon="15.12404872" >
      <name>rte1_173</name>
      <ele>470.00</ele>
    </rtept>
    <rtept lat="45.54721437" lon="15.12398463" >
      <name>rte1_174</name>
      <ele>470.00</ele>
    </rtept>
    <rtept lat="45.54718745" lon="15.12392054" >
      <name>rte1_175</name>
      <ele>470.00</ele>
    </rtept>
    <rtept lat="45.54716052" lon="15.12386285" >
      <name>rte1_176</name>
      <ele>471.70</ele>
    </rtept>
    <rtept lat="45.54712908" lon="15.12380515" >
      <name>rte1_177</name>
      <ele>471.70</ele>
    </rtept>
    <rtept lat="45.54709315" lon="15.12374744" >
      <name>rte1_178</name>
      <ele>471.70</ele>
    </rtept>
    <rtept lat="45.54706172" lon="15.12368974" >
      <name>rte1_179</name>
      <ele>471.70</ele>
    </rtept>
    <rtept lat="45.54703029" lon="15.12363204" >
      <name>rte1_180</name>
      <ele>471.70</ele>
    </rtept>
    <rtept lat="45.54699887" lon="15.12356794" >
      <name>rte1_181</name>
      <ele>473.40</ele>
    </rtept>
    <rtept lat="45.54697195" lon="15.12349744" >
      <name>rte1_182</name>
      <ele>473.40</ele>
    </rtept>
    <rtept lat="45.54694503" lon="15.12342694" >
      <name>rte1_183</name>
      <ele>477.30</ele>
    </rtept>
    <rtept lat="45.54692262" lon="15.12335005" >
      <name>rte1_184</name>
      <ele>477.30</ele>
    </rtept>
    <rtept lat="45.54690921" lon="15.12327318" >
      <name>rte1_185</name>
      <ele>478.90</ele>
    </rtept>
    <rtept lat="45.54689584" lon="15.12315149" >
      <name>rte1_186</name>
      <ele>478.90</ele>
    </rtept>
    <rtept lat="45.54689597" lon="15.12303623" >
      <name>rte1_187</name>
      <ele>478.90</ele>
    </rtept>
    <rtept lat="45.54690958" lon="15.12293381" >
      <name>rte1_188</name>
      <ele>480.00</ele>
    </rtept>
    <rtept lat="45.54692769" lon="15.12283140" >
      <name>rte1_189</name>
      <ele>480.00</ele>
    </rtept>
    <rtept lat="45.54694579" lon="15.12273539" >
      <name>rte1_190</name>
      <ele>480.00</ele>
    </rtept>
    <rtept lat="45.54695490" lon="15.12263295" >
      <name>rte1_191</name>
      <ele>480.00</ele>
    </rtept>
    <rtept lat="45.54695502" lon="15.12252410" >
      <name>rte1_192</name>
      <ele>480.00</ele>
    </rtept>
    <rtept lat="45.54693715" lon="15.12240880" >
      <name>rte1_193</name>
      <ele>480.00</ele>
    </rtept>
    <rtept lat="45.54690126" lon="15.12230627" >
      <name>rte1_194</name>
      <ele>480.00</ele>
    </rtept>
    <rtept lat="45.54686086" lon="15.12222293" >
      <name>rte1_195</name>
      <ele>480.00</ele>
    </rtept>
    <rtept lat="45.54681145" lon="15.12215239" >
      <name>rte1_196</name>
      <ele>480.00</ele>
    </rtept>
    <rtept lat="45.54676203" lon="15.12208184" >
      <name>rte1_197</name>
      <ele>480.00</ele>
    </rtept>
    <rtept lat="45.54671711" lon="15.12201771" >
      <name>rte1_198</name>
      <ele>481.90</ele>
    </rtept>
    <rtept lat="45.54667669" lon="15.12194719" >
      <name>rte1_199</name>
      <ele>481.90</ele>
    </rtept>
    <rtept lat="45.54664979" lon="15.12186389" >
      <name>rte1_200</name>
      <ele>481.90</ele>
    </rtept>
    <rtept lat="45.54664090" lon="15.12176141" >
      <name>rte1_201</name>
      <ele>481.90</ele>
    </rtept>
    <rtept lat="45.54664098" lon="15.12168457" >
      <name>rte1_202</name>
      <ele>486.30</ele>
    </rtept>
    <rtept lat="45.54664555" lon="15.12162055" >
      <name>rte1_203</name>
      <ele>486.30</ele>
    </rtept>
    <rtept lat="45.54665912" lon="15.12155655" >
      <name>rte1_204</name>
      <ele>486.30</ele>
    </rtept>
    <rtept lat="45.54667718" lon="15.12149896" >
      <name>rte1_205</name>
      <ele>486.30</ele>
    </rtept>
    <rtept lat="45.54672229" lon="15.12139020" >
      <name>rte1_206</name>
      <ele>486.30</ele>
    </rtept>
    <rtept lat="45.54678088" lon="15.12129428" >
      <name>rte1_207</name>
      <ele>490.00</ele>
    </rtept>
    <rtept lat="45.54683497" lon="15.12119835" >
      <name>rte1_208</name>
      <ele>490.00</ele>
    </rtept>
    <rtept lat="45.54688907" lon="15.12109601" >
      <name>rte1_209</name>
      <ele>490.00</ele>
    </rtept>
    <rtept lat="45.54691163" lon="15.12103843" >
      <name>rte1_210</name>
      <ele>490.00</ele>
    </rtept>
    <rtept lat="45.54693420" lon="15.12097445" >
      <name>rte1_211</name>
      <ele>490.00</ele>
    </rtept>
    <rtept lat="45.54694776" lon="15.12091045" >
      <name>rte1_212</name>
      <ele>490.00</ele>
    </rtept>
    <rtept lat="45.54696134" lon="15.12084004" >
      <name>rte1_213</name>
      <ele>490.00</ele>
    </rtept>
    <rtept lat="45.54696593" lon="15.12075680" >
      <name>rte1_214</name>
      <ele>490.00</ele>
    </rtept>
    <rtept lat="45.54697051" lon="15.12067357" >
      <name>rte1_215</name>
      <ele>490.00</ele>
    </rtept>
    <rtept lat="45.54697959" lon="15.12059675" >
      <name>rte1_216</name>
      <ele>490.00</ele>
    </rtept>
    <rtept lat="45.54698417" lon="15.12052632" >
      <name>rte1_217</name>
      <ele>490.00</ele>
    </rtept>
    <rtept lat="45.54698425" lon="15.12044949" >
      <name>rte1_218</name>
      <ele>490.00</ele>
    </rtept>
    <rtept lat="45.54698883" lon="15.12037906" >
      <name>rte1_219</name>
      <ele>490.00</ele>
    </rtept>
    <rtept lat="45.54698890" lon="15.12030862" >
      <name>rte1_220</name>
      <ele>490.00</ele>
    </rtept>
    <rtept lat="45.54699347" lon="15.12024460" >
      <name>rte1_221</name>
      <ele>490.00</ele>
    </rtept>
    <rtept lat="45.54699354" lon="15.12017416" >
      <name>rte1_222</name>
      <ele>490.00</ele>
    </rtept>
    <rtept lat="45.54699361" lon="15.12011013" >
      <name>rte1_223</name>
      <ele>490.00</ele>
    </rtept>
    <rtept lat="45.54699375" lon="15.11998206" >
      <name>rte1_224</name>
      <ele>490.00</ele>
    </rtept>
    <rtept lat="45.54699382" lon="15.11991803" >
      <name>rte1_225</name>
      <ele>490.00</ele>
    </rtept>
    <rtept lat="45.54698939" lon="15.11985399" >
      <name>rte1_226</name>
      <ele>490.00</ele>
    </rtept>
    <rtept lat="45.54698952" lon="15.11973232" >
      <name>rte1_227</name>
      <ele>488.99</ele>
    </rtept>
    <rtept lat="45.54698509" lon="15.11966828" >
      <name>rte1_228</name>
      <ele>488.99</ele>
    </rtept>
    <rtept lat="45.54698515" lon="15.11960425" >
      <name>rte1_229</name>
      <ele>488.99</ele>
    </rtept>
    <rtept lat="45.54698072" lon="15.11954021" >
      <name>rte1_230</name>
      <ele>488.99</ele>
    </rtept>
    <rtept lat="45.54698079" lon="15.11947617" >
      <name>rte1_231</name>
      <ele>488.99</ele>
    </rtept>
    <rtept lat="45.54697635" lon="15.11941853" >
      <name>rte1_232</name>
      <ele>489.43</ele>
    </rtept>
    <rtept lat="45.54697643" lon="15.11934810" >
      <name>rte1_233</name>
      <ele>489.43</ele>
    </rtept>
    <rtept lat="45.54697649" lon="15.11928406" >
      <name>rte1_234</name>
      <ele>489.43</ele>
    </rtept>
    <rtept lat="45.54697206" lon="15.11922002" >
      <name>rte1_235</name>
      <ele>489.43</ele>
    </rtept>
    <rtept lat="45.54697214" lon="15.11914958" >
      <name>rte1_236</name>
      <ele>489.43</ele>
    </rtept>
    <rtept lat="45.54697221" lon="15.11907915" >
      <name>rte1_237</name>
      <ele>491.90</ele>
    </rtept>
    <rtept lat="45.54697229" lon="15.11900871" >
      <name>rte1_238</name>
      <ele>491.90</ele>
    </rtept>
    <rtept lat="45.54697236" lon="15.11893828" >
      <name>rte1_239</name>
      <ele>491.90</ele>
    </rtept>
    <rtept lat="45.54697244" lon="15.11886144" >
      <name>rte1_240</name>
      <ele>491.90</ele>
    </rtept>
    <rtept lat="45.54697702" lon="15.11878461" >
      <name>rte1_241</name>
      <ele>495.00</ele>
    </rtept>
    <rtept lat="45.54697710" lon="15.11870777" >
      <name>rte1_242</name>
      <ele>495.00</ele>
    </rtept>
    <rtept lat="45.54698168" lon="15.11863094" >
      <name>rte1_243</name>
      <ele>495.00</ele>
    </rtept>
    <rtept lat="45.54698179" lon="15.11852848" >
      <name>rte1_244</name>
      <ele>495.00</ele>
    </rtept>
    <rtept lat="45.54698639" lon="15.11843885" >
      <name>rte1_245</name>
      <ele>495.00</ele>
    </rtept>
    <rtept lat="45.54699098" lon="15.11834921" >
      <name>rte1_246</name>
      <ele>495.00</ele>
    </rtept>
    <rtept lat="45.54699557" lon="15.11826598" >
      <name>rte1_247</name>
      <ele>495.00</ele>
    </rtept>
    <rtept lat="45.54700015" lon="15.11818915" >
      <name>rte1_248</name>
      <ele>495.00</ele>
    </rtept>
    <rtept lat="45.54700473" lon="15.11810591" >
      <name>rte1_249</name>
      <ele>495.00</ele>
    </rtept>
    <rtept lat="45.54700931" lon="15.11803549" >
      <name>rte1_250</name>
      <ele>495.00</ele>
    </rtept>
    <rtept lat="45.54701389" lon="15.11795866" >
      <name>rte1_251</name>
      <ele>495.00</ele>
    </rtept>
    <rtept lat="45.54702296" lon="15.11788824" >
      <name>rte1_252</name>
      <ele>495.00</ele>
    </rtept>
    <rtept lat="45.54702754" lon="15.11781141" >
      <name>rte1_253</name>
      <ele>498.72</ele>
    </rtept>
    <rtept lat="45.54703661" lon="15.11774099" >
      <name>rte1_254</name>
      <ele>498.72</ele>
    </rtept>
    <rtept lat="45.54704119" lon="15.11766416" >
      <name>rte1_255</name>
      <ele>498.72</ele>
    </rtept>
    <rtept lat="45.54705027" lon="15.11758734" >
      <name>rte1_256</name>
      <ele>498.72</ele>
    </rtept>
    <rtept lat="45.54705935" lon="15.11750412" >
      <name>rte1_257</name>
      <ele>500.00</ele>
    </rtept>
    <rtept lat="45.54707294" lon="15.11742090" >
      <name>rte1_258</name>
      <ele>500.00</ele>
    </rtept>
    <rtept lat="45.54708652" lon="15.11733769" >
      <name>rte1_259</name>
      <ele>500.00</ele>
    </rtept>
    <rtept lat="45.54718555" lon="15.11729307" >
      <name>rte1_260</name>
      <ele>500.00</ele>
    </rtept>
    <rtept lat="45.54725749" lon="15.11734445" >
      <name>rte1_261</name>
      <ele>500.00</ele>
    </rtept>
    <rtept lat="45.54732493" lon="15.11738942" >
      <name>rte1_262</name>
      <ele>500.00</ele>
    </rtept>
    <rtept lat="45.54739238" lon="15.11742798" >
      <name>rte1_263</name>
      <ele>500.00</ele>
    </rtept>
    <rtept lat="45.54746433" lon="15.11746015" >
      <name>rte1_264</name>
      <ele>500.00</ele>
    </rtept>
    <rtept lat="45.54753628" lon="15.11749232" >
      <name>rte1_265</name>
      <ele>500.00</ele>
    </rtept>
    <rtept lat="45.54761274" lon="15.11751809" >
      <name>rte1_266</name>
      <ele>500.00</ele>
    </rtept>
    <rtept lat="45.54769820" lon="15.11754389" >
      <name>rte1_267</name>
      <ele>496.40</ele>
    </rtept>
    <rtept lat="45.54774318" lon="15.11755679" >
      <name>rte1_268</name>
      <ele>496.40</ele>
    </rtept>
    <rtept lat="45.54779265" lon="15.11757610" >
      <name>rte1_269</name>
      <ele>496.40</ele>
    </rtept>
    <rtept lat="45.54783764" lon="15.11758260" >
      <name>rte1_270</name>
      <ele>496.40</ele>
    </rtept>
    <rtept lat="45.54788262" lon="15.11758910" >
      <name>rte1_271</name>
      <ele>495.00</ele>
    </rtept>
    <rtept lat="45.54796360" lon="15.11759568" >
      <name>rte1_272</name>
      <ele>495.00</ele>
    </rtept>
    <rtept lat="45.54804009" lon="15.11759584" >
      <name>rte1_273</name>
      <ele>495.00</ele>
    </rtept>
    <rtept lat="45.54811658" lon="15.11758960" >
      <name>rte1_274</name>
      <ele>495.00</ele>
    </rtept>
    <rtept lat="45.54818858" lon="15.11757694" >
      <name>rte1_275</name>
      <ele>495.00</ele>
    </rtept>
    <rtept lat="45.54826958" lon="15.11756431" >
      <name>rte1_276</name>
      <ele>495.00</ele>
    </rtept>
    <rtept lat="45.54835508" lon="15.11755168" >
      <name>rte1_277</name>
      <ele>495.00</ele>
    </rtept>
    <rtept lat="45.54840008" lon="15.11754537" >
      <name>rte1_278</name>
      <ele>495.00</ele>
    </rtept>
    <rtept lat="45.54844958" lon="15.11753907" >
      <name>rte1_279</name>
      <ele>494.86</ele>
    </rtept>
    <rtept lat="45.54851260" lon="15.11750719" >
      <name>rte1_280</name>
      <ele>494.86</ele>
    </rtept>
    <rtept lat="45.54856664" lon="15.11746248" >
      <name>rte1_281</name>
      <ele>491.12</ele>
    </rtept>
    <rtept lat="45.54862517" lon="15.11742418" >
      <name>rte1_282</name>
      <ele>491.12</ele>
    </rtept>
    <rtept lat="45.54869716" lon="15.11741793" >
      <name>rte1_283</name>
      <ele>491.12</ele>
    </rtept>
    <rtept lat="45.54877364" lon="15.11742450" >
      <name>rte1_284</name>
      <ele>490.00</ele>
    </rtept>
    <rtept lat="45.54884562" lon="15.11743746" >
      <name>rte1_285</name>
      <ele>490.00</ele>
    </rtept>
    <rtept lat="45.54890858" lon="15.11746320" >
      <name>rte1_286</name>
      <ele>490.00</ele>
    </rtept>
    <rtept lat="45.54897153" lon="15.11750176" >
      <name>rte1_287</name>
      <ele>490.00</ele>
    </rtept>
    <rtept lat="45.54920549" lon="15.11750225" >
      <name>rte1_288</name>
      <ele>493.94</ele>
    </rtept>
    <rtept lat="45.54936777" lon="15.11720163" >
      <name>rte1_289</name>
      <ele>495.00</ele>
    </rtept>
    <rtept lat="45.54936844" lon="15.11656127" >
      <name>rte1_290</name>
      <ele>496.40</ele>
    </rtept>
    <rtept lat="45.54916624" lon="15.11630470" >
      <name>rte1_291</name>
      <ele>497.63</ele>
    </rtept>
    <rtept lat="45.54904505" lon="15.11602269" >
      <name>rte1_292</name>
      <ele>500.00</ele>
    </rtept>
    <rtept lat="45.54931946" lon="15.11606809" >
      <name>rte1_293</name>
      <ele>496.00</ele>
    </rtept>
    <rtept lat="45.54947222" lon="15.11627333" >
      <name>rte1_294</name>
      <ele>495.00</ele>
    </rtept>
    <rtept lat="45.54950321" lon="15.11675366" >
      <name>rte1_295</name>
      <ele>495.00</ele>
    </rtept>
    <rtept lat="45.54948924" lon="15.11721469" >
      <name>rte1_296</name>
      <ele>494.52</ele>
    </rtept>
    <rtept lat="45.54938983" lon="15.11761791" >
      <name>rte1_297</name>
      <ele>495.00</ele>
    </rtept>
    <rtept lat="45.54934019" lon="15.11776509" >
      <name>rte1_298</name>
      <ele>495.00</ele>
    </rtept>
    <rtept lat="45.54940756" lon="15.11788049" >
      <name>rte1_299</name>
      <ele>490.00</ele>
    </rtept>
    <rtept lat="45.54964107" lon="15.11830363" >
      <name>rte1_300</name>
      <ele>490.00</ele>
    </rtept>
    <rtept lat="45.54980718" lon="15.11864338" >
      <name>rte1_301</name>
      <ele>490.00</ele>
    </rtept>
    <rtept lat="45.54996448" lon="15.11881021" >
      <name>rte1_302</name>
      <ele>490.00</ele>
    </rtept>
    <rtept lat="45.55013540" lon="15.11885540" >
      <name>rte1_303</name>
      <ele>480.00</ele>
    </rtept>
    <rtept lat="45.55024790" lon="15.11883643" >
      <name>rte1_304</name>
      <ele>480.00</ele>
    </rtept>
    <rtept lat="45.55044597" lon="15.11874080" >
      <name>rte1_305</name>
      <ele>480.00</ele>
    </rtept>
    <rtept lat="45.55056300" lon="15.11869622" >
      <name>rte1_306</name>
      <ele>480.00</ele>
    </rtept>
    <rtept lat="45.55071137" lon="15.11879259" >
      <name>rte1_307</name>
      <ele>480.00</ele>
    </rtept>
    <rtept lat="45.55089983" lon="15.11927328" >
      <name>rte1_308</name>
      <ele>480.00</ele>
    </rtept>
    <rtept lat="45.55098962" lon="15.11945918" >
      <name>rte1_309</name>
      <ele>480.00</ele>
    </rtept>
    <rtept lat="45.55106595" lon="15.11960023" >
      <name>rte1_310</name>
      <ele>480.00</ele>
    </rtept>
    <rtept lat="45.55109279" lon="15.11975398" >
      <name>rte1_311</name>
      <ele>480.00</ele>
    </rtept>
    <rtept lat="45.55112865" lon="15.11987573" >
      <name>rte1_312</name>
      <ele>480.00</ele>
    </rtept>
    <rtept lat="45.55118255" lon="15.11995909" >
      <name>rte1_313</name>
      <ele>480.00</ele>
    </rtept>
    <rtept lat="45.55130403" lon="15.11995936" >
      <name>rte1_314</name>
      <ele>470.00</ele>
    </rtept>
    <rtept lat="45.55144787" lon="15.12008134" >
      <name>rte1_315</name>
      <ele>470.00</ele>
    </rtept>
    <rtept lat="45.55164550" lon="15.12039556" >
      <name>rte1_316</name>
      <ele>470.00</ele>
    </rtept>
    <rtept lat="45.55173093" lon="15.12044697" >
      <name>rte1_317</name>
      <ele>470.00</ele>
    </rtept>
    <rtept lat="45.55206372" lon="15.12059498" >
      <name>rte1_318</name>
      <ele>473.70</ele>
    </rtept>
    <rtept lat="45.55217616" lon="15.12063365" >
      <name>rte1_319</name>
      <ele>473.30</ele>
    </rtept>
    <rtept lat="45.55225261" lon="15.12066584" >
      <name>rte1_320</name>
      <ele>473.30</ele>
    </rtept>
    <rtept lat="45.55237409" lon="15.12066610" >
      <name>rte1_321</name>
      <ele>470.00</ele>
    </rtept>
    <rtept lat="45.55289603" lon="15.12063521" >
      <name>rte1_322</name>
      <ele>468.00</ele>
    </rtept>
    <rtept lat="45.55303551" lon="15.12063552" >
      <name>rte1_323</name>
      <ele>468.00</ele>
    </rtept>
    <rtept lat="45.55324247" lon="15.12063597" >
      <name>rte1_324</name>
      <ele>470.00</ele>
    </rtept>
    <rtept lat="45.55336831" lon="15.12076432" >
      <name>rte1_325</name>
      <ele>460.00</ele>
    </rtept>
    <rtept lat="45.55344012" lon="15.12093098" >
      <name>rte1_326</name>
      <ele>460.00</ele>
    </rtept>
    <rtept lat="45.55364703" lon="15.12098267" >
      <name>rte1_327</name>
      <ele>460.00</ele>
    </rtept>
    <rtept lat="45.55383134" lon="15.12113036" >
      <name>rte1_328</name>
      <ele>460.00</ele>
    </rtept>
    <rtept lat="45.55396172" lon="15.12122030" >
      <name>rte1_329</name>
      <ele>450.00</ele>
    </rtept>
    <rtept lat="45.55406965" lon="15.12126537" >
      <name>rte1_330</name>
      <ele>450.00</ele>
    </rtept>
    <rtept lat="45.55417315" lon="15.12124638" >
      <name>rte1_331</name>
      <ele>450.00</ele>
    </rtept>
    <rtept lat="45.55429472" lon="15.12116339" >
      <name>rte1_332</name>
      <ele>450.00</ele>
    </rtept>
    <rtept lat="45.55439829" lon="15.12108036" >
      <name>rte1_333</name>
      <ele>450.00</ele>
    </rtept>
    <rtept lat="45.55481235" lon="15.12095959" >
      <name>rte1_334</name>
      <ele>450.00</ele>
    </rtept>
    <rtept lat="45.55524445" lon="15.12079402" >
      <name>rte1_335</name>
      <ele>445.56</ele>
    </rtept>
    <rtept lat="45.55559545" lon="15.12073714" >
      <name>rte1_336</name>
      <ele>445.00</ele>
    </rtept>
    <rtept lat="45.55572149" lon="15.12067978" >
      <name>rte1_337</name>
      <ele>445.00</ele>
    </rtept>
    <rtept lat="45.55581604" lon="15.12062234" >
      <name>rte1_338</name>
      <ele>440.00</ele>
    </rtept>
    <rtept lat="45.55592872" lon="15.12043046" >
      <name>rte1_339</name>
      <ele>450.00</ele>
    </rtept>
    <rtept lat="45.55616733" lon="15.12029008" >
      <name>rte1_340</name>
      <ele>445.00</ele>
    </rtept>
    <rtept lat="45.55633830" lon="15.12029045" >
      <name>rte1_341</name>
      <ele>442.00</ele>
    </rtept>
    <rtept lat="45.55645051" lon="15.12054687" >
      <name>rte1_342</name>
      <ele>430.00</ele>
    </rtept>
    <rtept lat="45.55641879" lon="15.12075815" >
      <name>rte1_343</name>
      <ele>430.00</ele>
    </rtept>
    <rtept lat="45.55622503" lon="15.12103311" >
      <name>rte1_344</name>
      <ele>430.70</ele>
    </rtept>
    <rtept lat="45.55622492" lon="15.12112918" >
      <name>rte1_345</name>
      <ele>424.76</ele>
    </rtept>
    <rtept lat="45.55626072" lon="15.12131498" >
      <name>rte1_346</name>
      <ele>424.76</ele>
    </rtept>
    <rtept lat="45.55635049" lon="15.12151371" >
      <name>rte1_347</name>
      <ele>421.70</ele>
    </rtept>
    <rtept lat="45.55637730" lon="15.12168029" >
      <name>rte1_348</name>
      <ele>421.70</ele>
    </rtept>
    <rtept lat="45.55635460" lon="15.12187237" >
      <name>rte1_349</name>
      <ele>420.00</ele>
    </rtept>
    <rtept lat="45.55633189" lon="15.12207086" >
      <name>rte1_350</name>
      <ele>410.00</ele>
    </rtept>
    <rtept lat="45.55631833" lon="15.12212847" >
      <name>rte1_351</name>
      <ele>410.00</ele>
    </rtept>
    <rtept lat="45.55634977" lon="15.12217977" >
      <name>rte1_352</name>
      <ele>410.00</ele>
    </rtept>
    <rtept lat="45.55640376" lon="15.12217989" >
      <name>rte1_353</name>
      <ele>410.00</ele>
    </rtept>
    <rtept lat="45.55665139" lon="15.12202032" >
      <name>rte1_354</name>
      <ele>410.00</ele>
    </rtept>
    <rtept lat="45.55683140" lon="15.12198229" >
      <name>rte1_355</name>
      <ele>410.00</ele>
    </rtept>
    <rtept lat="45.55696633" lon="15.12202101" >
      <name>rte1_356</name>
      <ele>410.00</ele>
    </rtept>
    <rtept lat="45.55710124" lon="15.12208536" >
      <name>rte1_357</name>
      <ele>410.00</ele>
    </rtept>
    <rtept lat="45.55737562" lon="15.12215000" >
      <name>rte1_358</name>
      <ele>410.00</ele>
    </rtept>
    <rtept lat="45.55748788" lon="15.12235520" >
      <name>rte1_359</name>
      <ele>410.00</ele>
    </rtept>
    <rtept lat="45.55751931" lon="15.12241291" >
      <name>rte1_360</name>
      <ele>405.80</ele>
    </rtept>
    <rtept lat="45.55739292" lon="15.12279049" >
      <name>rte1_361</name>
      <ele>403.20</ele>
    </rtept>
    <rtept lat="45.55736136" lon="15.12284806" >
      <name>rte1_362</name>
      <ele>403.20</ele>
    </rtept>
    <rtept lat="45.55733430" lon="15.12291205" >
      <name>rte1_363</name>
      <ele>403.20</ele>
    </rtept>
    <rtept lat="45.55730724" lon="15.12296963" >
      <name>rte1_364</name>
      <ele>400.00</ele>
    </rtept>
    <rtept lat="45.55728467" lon="15.12303362" >
      <name>rte1_365</name>
      <ele>400.00</ele>
    </rtept>
    <rtept lat="45.55726211" lon="15.12309121" >
      <name>rte1_366</name>
      <ele>400.00</ele>
    </rtept>
    <rtept lat="45.55723955" lon="15.12314880" >
      <name>rte1_367</name>
      <ele>400.00</ele>
    </rtept>
    <rtept lat="45.55721699" lon="15.12321280" >
      <name>rte1_368</name>
      <ele>400.00</ele>
    </rtept>
    <rtept lat="45.55719443" lon="15.12327039" >
      <name>rte1_369</name>
      <ele>400.00</ele>
    </rtept>
    <rtept lat="45.55717636" lon="15.12333439" >
      <name>rte1_370</name>
      <ele>400.00</ele>
    </rtept>
    <rtept lat="45.55715380" lon="15.12339839" >
      <name>rte1_371</name>
      <ele>400.00</ele>
    </rtept>
    <rtept lat="45.55713573" lon="15.12346239" >
      <name>rte1_372</name>
      <ele>400.00</ele>
    </rtept>
    <rtept lat="45.55711316" lon="15.12353279" >
      <name>rte1_373</name>
      <ele>400.00</ele>
    </rtept>
    <rtept lat="45.55709508" lon="15.12360320" >
      <name>rte1_374</name>
      <ele>400.00</ele>
    </rtept>
    <rtept lat="45.55707250" lon="15.12368001" >
      <name>rte1_375</name>
      <ele>391.10</ele>
    </rtept>
    <rtept lat="45.55704992" lon="15.12375681" >
      <name>rte1_376</name>
      <ele>391.10</ele>
    </rtept>
    <rtept lat="45.55703183" lon="15.12384003" >
      <name>rte1_377</name>
      <ele>391.10</ele>
    </rtept>
    <rtept lat="45.55700022" lon="15.12394883" >
      <name>rte1_378</name>
      <ele>391.10</ele>
    </rtept>
    <rtept lat="45.55697311" lon="15.12405124" >
      <name>rte1_379</name>
      <ele>391.80</ele>
    </rtept>
    <rtept lat="45.55695500" lon="15.12415367" >
      <name>rte1_380</name>
      <ele>391.80</ele>
    </rtept>
    <rtept lat="45.55694140" lon="15.12424971" >
      <name>rte1_381</name>
      <ele>391.80</ele>
    </rtept>
    <rtept lat="45.55693230" lon="15.12433935" >
      <name>rte1_382</name>
      <ele>391.60</ele>
    </rtept>
    <rtept lat="45.55692319" lon="15.12444180" >
      <name>rte1_383</name>
      <ele>391.60</ele>
    </rtept>
    <rtept lat="45.55692307" lon="15.12454427" >
      <name>rte1_384</name>
      <ele>391.60</ele>
    </rtept>
    <rtept lat="45.55692295" lon="15.12465955" >
      <name>rte1_385</name>
      <ele>391.50</ele>
    </rtept>
    <rtept lat="45.55696755" lon="15.12501190" >
      <name>rte1_386</name>
      <ele>390.00</ele>
    </rtept>
    <rtept lat="45.55698974" lon="15.12528094" >
      <name>rte1_387</name>
      <ele>390.00</ele>
    </rtept>
    <rtept lat="45.55696215" lon="15.12581885" >
      <name>rte1_388</name>
      <ele>390.00</ele>
    </rtept>
    <rtept lat="45.55698878" lon="15.12614554" >
      <name>rte1_389</name>
      <ele>383.60</ele>
    </rtept>
    <rtept lat="45.55705580" lon="15.12656198" >
      <name>rte1_390</name>
      <ele>380.00</ele>
    </rtept>
    <rtept lat="45.55716324" lon="15.12704256" >
      <name>rte1_391</name>
      <ele>374.10</ele>
    </rtept>
    <rtept lat="45.55718114" lon="15.12713226" >
      <name>rte1_392</name>
      <ele>374.10</ele>
    </rtept>
    <rtept lat="45.55711790" lon="15.12734987" >
      <name>rte1_393</name>
      <ele>370.00</ele>
    </rtept>
    <rtept lat="45.55706387" lon="15.12738817" >
      <name>rte1_394</name>
      <ele>370.00</ele>
    </rtept>
    <rtept lat="45.55701435" lon="15.12741368" >
      <name>rte1_395</name>
      <ele>370.00</ele>
    </rtept>
    <rtept lat="45.55696484" lon="15.12742637" >
      <name>rte1_396</name>
      <ele>370.00</ele>
    </rtept>
    <rtept lat="45.55691533" lon="15.12743907" >
      <name>rte1_397</name>
      <ele>370.00</ele>
    </rtept>
    <rtept lat="45.55686584" lon="15.12743896" >
      <name>rte1_398</name>
      <ele>370.00</ele>
    </rtept>
    <rtept lat="45.55681634" lon="15.12744525" >
      <name>rte1_399</name>
      <ele>370.00</ele>
    </rtept>
    <rtept lat="45.55676235" lon="15.12744512" >
      <name>rte1_400</name>
      <ele>370.00</ele>
    </rtept>
    <rtept lat="45.55670385" lon="15.12745780" >
      <name>rte1_401</name>
      <ele>370.00</ele>
    </rtept>
    <rtept lat="45.55664535" lon="15.12747047" >
      <name>rte1_402</name>
      <ele>370.00</ele>
    </rtept>
    <rtept lat="45.55659583" lon="15.12748957" >
      <name>rte1_403</name>
      <ele>370.00</ele>
    </rtept>
    <rtept lat="45.55654631" lon="15.12752148" >
      <name>rte1_404</name>
      <ele>370.00</ele>
    </rtept>
    <rtept lat="45.55650577" lon="15.12755981" >
      <name>rte1_405</name>
      <ele>370.00</ele>
    </rtept>
    <rtept lat="45.55646972" lon="15.12760456" >
      <name>rte1_406</name>
      <ele>370.00</ele>
    </rtept>
    <rtept lat="45.55644266" lon="15.12766214" >
      <name>rte1_407</name>
      <ele>370.00</ele>
    </rtept>
    <rtept lat="45.55642010" lon="15.12772613" >
      <name>rte1_408</name>
      <ele>370.00</ele>
    </rtept>
    <rtept lat="45.55641551" lon="15.12780297" >
      <name>rte1_409</name>
      <ele>370.00</ele>
    </rtept>
    <rtept lat="45.55641539" lon="15.12790544" >
      <name>rte1_410</name>
      <ele>364.80</ele>
    </rtept>
    <rtept lat="45.55643330" lon="15.12798874" >
      <name>rte1_411</name>
      <ele>364.80</ele>
    </rtept>
    <rtept lat="45.55646020" lon="15.12807206" >
      <name>rte1_412</name>
      <ele>364.80</ele>
    </rtept>
    <rtept lat="45.55650061" lon="15.12814260" >
      <name>rte1_413</name>
      <ele>360.00</ele>
    </rtept>
    <rtept lat="45.55655003" lon="15.12820676" >
      <name>rte1_414</name>
      <ele>360.00</ele>
    </rtept>
    <rtept lat="45.55660394" lon="15.12827093" >
      <name>rte1_415</name>
      <ele>360.00</ele>
    </rtept>
    <rtept lat="45.55665786" lon="15.12833510" >
      <name>rte1_416</name>
      <ele>360.00</ele>
    </rtept>
    <rtept lat="45.55672077" lon="15.12840569" >
      <name>rte1_417</name>
      <ele>360.00</ele>
    </rtept>
    <rtept lat="45.55677467" lon="15.12848267" >
      <name>rte1_418</name>
      <ele>360.00</ele>
    </rtept>
    <rtept lat="45.55681957" lon="15.12856603" >
      <name>rte1_419</name>
      <ele>360.00</ele>
    </rtept>
    <rtept lat="45.55685547" lon="15.12864937" >
      <name>rte1_420</name>
      <ele>360.00</ele>
    </rtept>
    <rtept lat="45.55688235" lon="15.12874550" >
      <name>rte1_421</name>
      <ele>360.00</ele>
    </rtept>
    <rtept lat="45.55689575" lon="15.12883519" >
      <name>rte1_422</name>
      <ele>350.00</ele>
    </rtept>
    <rtept lat="45.55689563" lon="15.12893766" >
      <name>rte1_423</name>
      <ele>350.00</ele>
    </rtept>
    <rtept lat="45.55688202" lon="15.12903370" >
      <name>rte1_424</name>
      <ele>350.00</ele>
    </rtept>
    <rtept lat="45.55685490" lon="15.12914251" >
      <name>rte1_425</name>
      <ele>341.14</ele>
    </rtept>
    <rtept lat="45.55682784" lon="15.12920649" >
      <name>rte1_426</name>
      <ele>350.00</ele>
    </rtept>
    <rtept lat="45.55680077" lon="15.12927048" >
      <name>rte1_427</name>
      <ele>350.00</ele>
    </rtept>
    <rtept lat="45.55677371" lon="15.12932805" >
      <name>rte1_428</name>
      <ele>350.00</ele>
    </rtept>
    <rtept lat="45.55674664" lon="15.12938563" >
      <name>rte1_429</name>
      <ele>350.00</ele>
    </rtept>
    <rtept lat="45.55668804" lon="15.12948156" >
      <name>rte1_430</name>
      <ele>329.88</ele>
    </rtept>
    <rtept lat="45.55662946" lon="15.12956468" >
      <name>rte1_431</name>
      <ele>329.88</ele>
    </rtept>
    <rtept lat="45.55659342" lon="15.12960302" >
      <name>rte1_432</name>
      <ele>324.19</ele>
    </rtept>
    <rtept lat="45.55655738" lon="15.12964777" >
      <name>rte1_433</name>
      <ele>324.19</ele>
    </rtept>
    <rtept lat="45.55648530" lon="15.12972445" >
      <name>rte1_434</name>
      <ele>324.19</ele>
    </rtept>
    <rtept lat="45.55644926" lon="15.12976280" >
      <name>rte1_435</name>
      <ele>320.00</ele>
    </rtept>
    <rtept lat="45.55640872" lon="15.12980753" >
      <name>rte1_436</name>
      <ele>320.00</ele>
    </rtept>
    <rtept lat="45.55636367" lon="15.12985226" >
      <name>rte1_437</name>
      <ele>320.00</ele>
    </rtept>
    <rtept lat="45.55632312" lon="15.12990340" >
      <name>rte1_438</name>
      <ele>320.00</ele>
    </rtept>
  </rte>
</gpx>
