<?xml version="1.0" encoding="UTF-8" standalone="no" ?>
<gpx xmlns="http://www.topografix.com/GPX/1/1"
creator="OCAD 2020.5.5.3227" version="1.1"
xmlns:xsi="http://www.w3.org/2001/XMLSchema-instance" 
xsi:schemaLocation="http://www.topografix.com/GPX/1/1 
http://www.topografix.com/GPX/1/1/gpx.xsd">

  <metadata>
    <name>Z:\PROJEKTI\druge_pogodbe\bela krajina pohodna\paket za splet\Bela krajina pohodne poti - pot 14 - ucna pot.gpx</name>
    <desc>Bela krajina - pohodna pot 14 - ucna pot</desc>
    <author><name>Kartografija d.o.o.</name></author>
    <link href="http://www.ocad.com">
      <text>OCAD AG</text>
    </link>
    <time>2020-11-05T09:49:26</time>
    <bounds maxlat="45.86687249" maxlon="15.60571704" minlat="45.32979540" minlon="14.93303760"/>
  </metadata>

  <rte>
    <name>rte1</name>
    <cmt>pohodne poti za izris profilov</cmt>
    <rtept lat="45.62188647" lon="15.10751283" >
      <name>rte1_0</name>
      <ele>740.00</ele>
    </rtept>
    <rtept lat="45.62203108" lon="15.10685268" >
      <name>rte1_1</name>
      <ele>745.20</ele>
    </rtept>
    <rtept lat="45.62204913" lon="15.10679501" >
      <name>rte1_2</name>
      <ele>750.00</ele>
    </rtept>
    <rtept lat="45.62207168" lon="15.10673735" >
      <name>rte1_3</name>
      <ele>750.00</ele>
    </rtept>
    <rtept lat="45.62211677" lon="15.10662843" >
      <name>rte1_4</name>
      <ele>750.00</ele>
    </rtept>
    <rtept lat="45.62216636" lon="15.10652594" >
      <name>rte1_5</name>
      <ele>750.00</ele>
    </rtept>
    <rtept lat="45.62222494" lon="15.10642987" >
      <name>rte1_6</name>
      <ele>750.00</ele>
    </rtept>
    <rtept lat="45.62228352" lon="15.10633381" >
      <name>rte1_7</name>
      <ele>750.00</ele>
    </rtept>
    <rtept lat="45.62234660" lon="15.10624416" >
      <name>rte1_8</name>
      <ele>750.00</ele>
    </rtept>
    <rtept lat="45.62240967" lon="15.10615452" >
      <name>rte1_9</name>
      <ele>760.00</ele>
    </rtept>
    <rtept lat="45.62244571" lon="15.10610970" >
      <name>rte1_10</name>
      <ele>760.00</ele>
    </rtept>
    <rtept lat="45.62248174" lon="15.10606489" >
      <name>rte1_11</name>
      <ele>760.00</ele>
    </rtept>
    <rtept lat="45.62251777" lon="15.10602649" >
      <name>rte1_12</name>
      <ele>760.00</ele>
    </rtept>
    <rtept lat="45.62255381" lon="15.10598167" >
      <name>rte1_13</name>
      <ele>760.00</ele>
    </rtept>
    <rtept lat="45.62258984" lon="15.10594327" >
      <name>rte1_14</name>
      <ele>761.96</ele>
    </rtept>
    <rtept lat="45.62263037" lon="15.10589847" >
      <name>rte1_15</name>
      <ele>761.96</ele>
    </rtept>
    <rtept lat="45.62267090" lon="15.10586007" >
      <name>rte1_16</name>
      <ele>761.96</ele>
    </rtept>
    <rtept lat="45.62270693" lon="15.10581526" >
      <name>rte1_17</name>
      <ele>765.59</ele>
    </rtept>
    <rtept lat="45.62274746" lon="15.10577686" >
      <name>rte1_18</name>
      <ele>765.59</ele>
    </rtept>
    <rtept lat="45.62279249" lon="15.10573848" >
      <name>rte1_19</name>
      <ele>770.00</ele>
    </rtept>
    <rtept lat="45.62283303" lon="15.10569367" >
      <name>rte1_20</name>
      <ele>770.00</ele>
    </rtept>
    <rtept lat="45.62287355" lon="15.10565528" >
      <name>rte1_21</name>
      <ele>770.00</ele>
    </rtept>
    <rtept lat="45.62291859" lon="15.10561048" >
      <name>rte1_22</name>
      <ele>770.00</ele>
    </rtept>
    <rtept lat="45.62296362" lon="15.10557209" >
      <name>rte1_23</name>
      <ele>770.00</ele>
    </rtept>
    <rtept lat="45.62300415" lon="15.10552729" >
      <name>rte1_24</name>
      <ele>770.00</ele>
    </rtept>
    <rtept lat="45.62304918" lon="15.10548249" >
      <name>rte1_25</name>
      <ele>776.55</ele>
    </rtept>
    <rtept lat="45.62309422" lon="15.10543769" >
      <name>rte1_26</name>
      <ele>776.55</ele>
    </rtept>
    <rtept lat="45.62314375" lon="15.10539931" >
      <name>rte1_27</name>
      <ele>776.55</ele>
    </rtept>
    <rtept lat="45.62319779" lon="15.10534171" >
      <name>rte1_28</name>
      <ele>776.55</ele>
    </rtept>
    <rtept lat="45.62325183" lon="15.10529052" >
      <name>rte1_29</name>
      <ele>784.35</ele>
    </rtept>
    <rtept lat="45.62331036" lon="15.10523933" >
      <name>rte1_30</name>
      <ele>784.35</ele>
    </rtept>
    <rtept lat="45.62335990" lon="15.10519454" >
      <name>rte1_31</name>
      <ele>783.86</ele>
    </rtept>
    <rtept lat="45.62341393" lon="15.10514976" >
      <name>rte1_32</name>
      <ele>783.86</ele>
    </rtept>
    <rtept lat="45.62346796" lon="15.10510498" >
      <name>rte1_33</name>
      <ele>790.00</ele>
    </rtept>
    <rtept lat="45.62351749" lon="15.10506660" >
      <name>rte1_34</name>
      <ele>790.00</ele>
    </rtept>
    <rtept lat="45.62356702" lon="15.10502181" >
      <name>rte1_35</name>
      <ele>790.00</ele>
    </rtept>
    <rtept lat="45.62361655" lon="15.10498343" >
      <name>rte1_36</name>
      <ele>790.00</ele>
    </rtept>
    <rtept lat="45.62366607" lon="15.10494505" >
      <name>rte1_37</name>
      <ele>790.00</ele>
    </rtept>
    <rtept lat="45.62371110" lon="15.10490667" >
      <name>rte1_38</name>
      <ele>800.00</ele>
    </rtept>
    <rtept lat="45.62376062" lon="15.10487470" >
      <name>rte1_39</name>
      <ele>800.00</ele>
    </rtept>
    <rtept lat="45.62380565" lon="15.10483631" >
      <name>rte1_40</name>
      <ele>800.00</ele>
    </rtept>
    <rtept lat="45.62385517" lon="15.10480435" >
      <name>rte1_41</name>
      <ele>800.00</ele>
    </rtept>
    <rtept lat="45.62390020" lon="15.10476596" >
      <name>rte1_42</name>
      <ele>800.00</ele>
    </rtept>
    <rtept lat="45.62394522" lon="15.10473399" >
      <name>rte1_43</name>
      <ele>805.00</ele>
    </rtept>
    <rtept lat="45.62399475" lon="15.10469561" >
      <name>rte1_44</name>
      <ele>805.00</ele>
    </rtept>
    <rtept lat="45.62403977" lon="15.10465722" >
      <name>rte1_45</name>
      <ele>805.00</ele>
    </rtept>
    <rtept lat="45.62408480" lon="15.10461883" >
      <name>rte1_46</name>
      <ele>805.00</ele>
    </rtept>
    <rtept lat="45.62412983" lon="15.10458044" >
      <name>rte1_47</name>
      <ele>805.00</ele>
    </rtept>
    <rtept lat="45.62417486" lon="15.10454206" >
      <name>rte1_48</name>
      <ele>815.36</ele>
    </rtept>
    <rtept lat="45.62422438" lon="15.10450368" >
      <name>rte1_49</name>
      <ele>815.36</ele>
    </rtept>
    <rtept lat="45.62426941" lon="15.10446529" >
      <name>rte1_50</name>
      <ele>815.36</ele>
    </rtept>
    <rtept lat="45.62431444" lon="15.10442049" >
      <name>rte1_51</name>
      <ele>815.36</ele>
    </rtept>
    <rtept lat="45.62436397" lon="15.10437570" >
      <name>rte1_52</name>
      <ele>815.36</ele>
    </rtept>
    <rtept lat="45.62440901" lon="15.10432449" >
      <name>rte1_53</name>
      <ele>821.32</ele>
    </rtept>
    <rtept lat="45.62445855" lon="15.10427970" >
      <name>rte1_54</name>
      <ele>821.32</ele>
    </rtept>
    <rtept lat="45.62450809" lon="15.10422208" >
      <name>rte1_55</name>
      <ele>827.30</ele>
    </rtept>
    <rtept lat="45.62455763" lon="15.10417088" >
      <name>rte1_56</name>
      <ele>827.30</ele>
    </rtept>
    <rtept lat="45.62460717" lon="15.10411326" >
      <name>rte1_57</name>
      <ele>831.57</ele>
    </rtept>
    <rtept lat="45.62465672" lon="15.10404923" >
      <name>rte1_58</name>
      <ele>831.57</ele>
    </rtept>
    <rtept lat="45.62471077" lon="15.10399162" >
      <name>rte1_59</name>
      <ele>831.57</ele>
    </rtept>
    <rtept lat="45.62477384" lon="15.10390197" >
      <name>rte1_60</name>
      <ele>837.30</ele>
    </rtept>
    <rtept lat="45.62483240" lon="15.10382514" >
      <name>rte1_61</name>
      <ele>840.88</ele>
    </rtept>
    <rtept lat="45.62488647" lon="15.10374188" >
      <name>rte1_62</name>
      <ele>840.88</ele>
    </rtept>
    <rtept lat="45.62493603" lon="15.10365861" >
      <name>rte1_63</name>
      <ele>840.88</ele>
    </rtept>
    <rtept lat="45.62498110" lon="15.10358175" >
      <name>rte1_64</name>
      <ele>850.00</ele>
    </rtept>
    <rtept lat="45.62502166" lon="15.10350488" >
      <name>rte1_65</name>
      <ele>850.00</ele>
    </rtept>
    <rtept lat="45.62506223" lon="15.10342160" >
      <name>rte1_66</name>
      <ele>862.14</ele>
    </rtept>
    <rtept lat="45.62509830" lon="15.10333831" >
      <name>rte1_67</name>
      <ele>862.14</ele>
    </rtept>
    <rtept lat="45.62513437" lon="15.10325502" >
      <name>rte1_68</name>
      <ele>868.27</ele>
    </rtept>
    <rtept lat="45.62516595" lon="15.10316530" >
      <name>rte1_69</name>
      <ele>868.27</ele>
    </rtept>
    <rtept lat="45.62520202" lon="15.10307560" >
      <name>rte1_70</name>
      <ele>868.27</ele>
    </rtept>
    <rtept lat="45.62523360" lon="15.10298589" >
      <name>rte1_71</name>
      <ele>868.27</ele>
    </rtept>
    <rtept lat="45.62526519" lon="15.10288335" >
      <name>rte1_72</name>
      <ele>875.24</ele>
    </rtept>
    <rtept lat="45.62529677" lon="15.10278082" >
      <name>rte1_73</name>
      <ele>883.34</ele>
    </rtept>
    <rtept lat="45.62532837" lon="15.10267187" >
      <name>rte1_74</name>
      <ele>883.34</ele>
    </rtept>
    <rtept lat="45.62536446" lon="15.10256292" >
      <name>rte1_75</name>
      <ele>891.63</ele>
    </rtept>
    <rtept lat="45.62539605" lon="15.10246039" >
      <name>rte1_76</name>
      <ele>891.63</ele>
    </rtept>
    <rtept lat="45.62542763" lon="15.10236426" >
      <name>rte1_77</name>
      <ele>891.63</ele>
    </rtept>
    <rtept lat="45.62546370" lon="15.10228097" >
      <name>rte1_78</name>
      <ele>894.66</ele>
    </rtept>
    <rtept lat="45.62550426" lon="15.10220410" >
      <name>rte1_79</name>
      <ele>898.12</ele>
    </rtept>
    <rtept lat="45.62554482" lon="15.10212723" >
      <name>rte1_80</name>
      <ele>898.12</ele>
    </rtept>
    <rtept lat="45.62558538" lon="15.10205677" >
      <name>rte1_81</name>
      <ele>898.12</ele>
    </rtept>
    <rtept lat="45.62563042" lon="15.10199914" >
      <name>rte1_82</name>
      <ele>898.12</ele>
    </rtept>
    <rtept lat="45.62567997" lon="15.10194152" >
      <name>rte1_83</name>
      <ele>903.17</ele>
    </rtept>
    <rtept lat="45.62572951" lon="15.10188390" >
      <name>rte1_84</name>
      <ele>911.06</ele>
    </rtept>
    <rtept lat="45.62578355" lon="15.10183270" >
      <name>rte1_85</name>
      <ele>911.06</ele>
    </rtept>
    <rtept lat="45.62583758" lon="15.10178150" >
      <name>rte1_86</name>
      <ele>911.06</ele>
    </rtept>
    <rtept lat="45.62590061" lon="15.10173673" >
      <name>rte1_87</name>
      <ele>911.06</ele>
    </rtept>
    <rtept lat="45.62595914" lon="15.10169195" >
      <name>rte1_88</name>
      <ele>913.05</ele>
    </rtept>
    <rtept lat="45.62602666" lon="15.10165361" >
      <name>rte1_89</name>
      <ele>916.39</ele>
    </rtept>
    <rtept lat="45.62609419" lon="15.10160884" >
      <name>rte1_90</name>
      <ele>916.39</ele>
    </rtept>
    <rtept lat="45.62617071" lon="15.10157051" >
      <name>rte1_91</name>
      <ele>920.00</ele>
    </rtept>
    <rtept lat="45.62623374" lon="15.10153215" >
      <name>rte1_92</name>
      <ele>920.00</ele>
    </rtept>
    <rtept lat="45.62629226" lon="15.10149379" >
      <name>rte1_93</name>
      <ele>920.00</ele>
    </rtept>
    <rtept lat="45.62634629" lon="15.10144900" >
      <name>rte1_94</name>
      <ele>920.00</ele>
    </rtept>
    <rtept lat="45.62640031" lon="15.10141062" >
      <name>rte1_95</name>
      <ele>924.87</ele>
    </rtept>
    <rtept lat="45.62644534" lon="15.10137223" >
      <name>rte1_96</name>
      <ele>924.87</ele>
    </rtept>
    <rtept lat="45.62649487" lon="15.10132744" >
      <name>rte1_97</name>
      <ele>930.00</ele>
    </rtept>
    <rtept lat="45.62653541" lon="15.10127621" >
      <name>rte1_98</name>
      <ele>930.00</ele>
    </rtept>
    <rtept lat="45.62658044" lon="15.10123141" >
      <name>rte1_99</name>
      <ele>930.00</ele>
    </rtept>
    <rtept lat="45.62662098" lon="15.10118018" >
      <name>rte1_100</name>
      <ele>933.64</ele>
    </rtept>
    <rtept lat="45.62665702" lon="15.10112895" >
      <name>rte1_101</name>
      <ele>933.64</ele>
    </rtept>
    <rtept lat="45.62669757" lon="15.10107131" >
      <name>rte1_102</name>
      <ele>933.64</ele>
    </rtept>
    <rtept lat="45.62673812" lon="15.10100726" >
      <name>rte1_103</name>
      <ele>933.87</ele>
    </rtept>
    <rtept lat="45.62677416" lon="15.10094962" >
      <name>rte1_104</name>
      <ele>933.87</ele>
    </rtept>
    <rtept lat="45.62681472" lon="15.10087915" >
      <name>rte1_105</name>
      <ele>933.87</ele>
    </rtept>
    <rtept lat="45.62685527" lon="15.10080869" >
      <name>rte1_106</name>
      <ele>940.00</ele>
    </rtept>
    <rtept lat="45.62690033" lon="15.10073824" >
      <name>rte1_107</name>
      <ele>940.00</ele>
    </rtept>
    <rtept lat="45.62679260" lon="15.10045590" >
      <name>rte1_108</name>
      <ele>934.58</ele>
    </rtept>
    <rtept lat="45.62678369" lon="15.10035969" >
      <name>rte1_109</name>
      <ele>934.94</ele>
    </rtept>
    <rtept lat="45.62678377" lon="15.10026351" >
      <name>rte1_110</name>
      <ele>934.94</ele>
    </rtept>
    <rtept lat="45.62679286" lon="15.10016093" >
      <name>rte1_111</name>
      <ele>934.94</ele>
    </rtept>
    <rtept lat="45.62680196" lon="15.10005193" >
      <name>rte1_112</name>
      <ele>930.58</ele>
    </rtept>
    <rtept lat="45.62681106" lon="15.09994294" >
      <name>rte1_113</name>
      <ele>930.58</ele>
    </rtept>
    <rtept lat="45.62682016" lon="15.09982753" >
      <name>rte1_114</name>
      <ele>930.58</ele>
    </rtept>
    <rtept lat="45.62682476" lon="15.09971211" >
      <name>rte1_115</name>
      <ele>927.70</ele>
    </rtept>
    <rtept lat="45.62682486" lon="15.09960310" >
      <name>rte1_116</name>
      <ele>927.70</ele>
    </rtept>
    <rtept lat="45.62681592" lon="15.09953255" >
      <name>rte1_117</name>
      <ele>927.70</ele>
    </rtept>
    <rtept lat="45.62681147" lon="15.09947483" >
      <name>rte1_118</name>
      <ele>927.70</ele>
    </rtept>
    <rtept lat="45.62678908" lon="15.09935296" >
      <name>rte1_119</name>
      <ele>925.00</ele>
    </rtept>
    <rtept lat="45.62675768" lon="15.09925030" >
      <name>rte1_120</name>
      <ele>925.00</ele>
    </rtept>
    <rtept lat="45.62672177" lon="15.09915405" >
      <name>rte1_121</name>
      <ele>925.00</ele>
    </rtept>
    <rtept lat="45.62668136" lon="15.09906420" >
      <name>rte1_122</name>
      <ele>920.25</ele>
    </rtept>
    <rtept lat="45.62663194" lon="15.09898717" >
      <name>rte1_123</name>
      <ele>920.25</ele>
    </rtept>
    <rtept lat="45.62657351" lon="15.09891653" >
      <name>rte1_124</name>
      <ele>916.77</ele>
    </rtept>
    <rtept lat="45.62651508" lon="15.09884588" >
      <name>rte1_125</name>
      <ele>916.77</ele>
    </rtept>
    <rtept lat="45.62644765" lon="15.09878805" >
      <name>rte1_126</name>
      <ele>912.25</ele>
    </rtept>
    <rtept lat="45.62637571" lon="15.09873021" >
      <name>rte1_127</name>
      <ele>911.78</ele>
    </rtept>
    <rtept lat="45.62630377" lon="15.09867879" >
      <name>rte1_128</name>
      <ele>911.78</ele>
    </rtept>
    <rtept lat="45.62622283" lon="15.09862734" >
      <name>rte1_129</name>
      <ele>911.78</ele>
    </rtept>
    <rtept lat="45.62614638" lon="15.09858232" >
      <name>rte1_130</name>
      <ele>913.68</ele>
    </rtept>
    <rtept lat="45.62610591" lon="15.09855660" >
      <name>rte1_131</name>
      <ele>913.68</ele>
    </rtept>
    <rtept lat="45.62606095" lon="15.09853087" >
      <name>rte1_132</name>
      <ele>913.68</ele>
    </rtept>
    <rtept lat="45.62598000" lon="15.09848584" >
      <name>rte1_133</name>
      <ele>913.68</ele>
    </rtept>
    <rtept lat="45.62593503" lon="15.09846011" >
      <name>rte1_134</name>
      <ele>912.10</ele>
    </rtept>
    <rtept lat="45.62589456" lon="15.09844080" >
      <name>rte1_135</name>
      <ele>912.10</ele>
    </rtept>
    <rtept lat="45.62584059" lon="15.09841505" >
      <name>rte1_136</name>
      <ele>912.10</ele>
    </rtept>
    <rtept lat="45.62579562" lon="15.09838932" >
      <name>rte1_137</name>
      <ele>912.10</ele>
    </rtept>
    <rtept lat="45.62575064" lon="15.09837001" >
      <name>rte1_138</name>
      <ele>912.10</ele>
    </rtept>
    <rtept lat="45.62571017" lon="15.09834429" >
      <name>rte1_139</name>
      <ele>912.71</ele>
    </rtept>
    <rtept lat="45.62562923" lon="15.09829926" >
      <name>rte1_140</name>
      <ele>912.71</ele>
    </rtept>
    <rtept lat="45.62555729" lon="15.09824783" >
      <name>rte1_141</name>
      <ele>912.71</ele>
    </rtept>
    <rtept lat="45.62548535" lon="15.09818999" >
      <name>rte1_142</name>
      <ele>910.10</ele>
    </rtept>
    <rtept lat="45.62541793" lon="15.09811934" >
      <name>rte1_143</name>
      <ele>910.00</ele>
    </rtept>
    <rtept lat="45.62534601" lon="15.09804226" >
      <name>rte1_144</name>
      <ele>910.00</ele>
    </rtept>
    <rtept lat="45.62530555" lon="15.09800372" >
      <name>rte1_145</name>
      <ele>910.00</ele>
    </rtept>
    <rtept lat="45.62526959" lon="15.09795877" >
      <name>rte1_146</name>
      <ele>910.00</ele>
    </rtept>
    <rtept lat="45.62521118" lon="15.09787530" >
      <name>rte1_147</name>
      <ele>910.00</ele>
    </rtept>
    <rtept lat="45.62517076" lon="15.09779187" >
      <name>rte1_148</name>
      <ele>908.96</ele>
    </rtept>
    <rtept lat="45.62513934" lon="15.09770205" >
      <name>rte1_149</name>
      <ele>908.96</ele>
    </rtept>
    <rtept lat="45.62511243" lon="15.09761223" >
      <name>rte1_150</name>
      <ele>908.96</ele>
    </rtept>
    <rtept lat="45.62508550" lon="15.09752882" >
      <name>rte1_151</name>
      <ele>908.96</ele>
    </rtept>
    <rtept lat="45.62505408" lon="15.09744541" >
      <name>rte1_152</name>
      <ele>906.37</ele>
    </rtept>
    <rtept lat="45.62500916" lon="15.09736838" >
      <name>rte1_153</name>
      <ele>905.00</ele>
    </rtept>
    <rtept lat="45.62495072" lon="15.09731057" >
      <name>rte1_154</name>
      <ele>905.00</ele>
    </rtept>
    <rtept lat="45.62490576" lon="15.09727202" >
      <name>rte1_155</name>
      <ele>905.00</ele>
    </rtept>
    <rtept lat="45.62486529" lon="15.09723989" >
      <name>rte1_156</name>
      <ele>905.00</ele>
    </rtept>
    <rtept lat="45.62482483" lon="15.09720775" >
      <name>rte1_157</name>
      <ele>905.00</ele>
    </rtept>
    <rtept lat="45.62478437" lon="15.09717562" >
      <name>rte1_158</name>
      <ele>908.21</ele>
    </rtept>
    <rtept lat="45.62474390" lon="15.09714349" >
      <name>rte1_159</name>
      <ele>908.21</ele>
    </rtept>
    <rtept lat="45.62470343" lon="15.09711777" >
      <name>rte1_160</name>
      <ele>908.21</ele>
    </rtept>
    <rtept lat="45.62463149" lon="15.09705993" >
      <name>rte1_161</name>
      <ele>908.21</ele>
    </rtept>
    <rtept lat="45.62455955" lon="15.09700851" >
      <name>rte1_162</name>
      <ele>910.00</ele>
    </rtept>
    <rtept lat="45.62448760" lon="15.09696350" >
      <name>rte1_163</name>
      <ele>910.00</ele>
    </rtept>
    <rtept lat="45.62441566" lon="15.09691849" >
      <name>rte1_164</name>
      <ele>910.00</ele>
    </rtept>
    <rtept lat="45.62434370" lon="15.09687989" >
      <name>rte1_165</name>
      <ele>913.85</ele>
    </rtept>
    <rtept lat="45.62427175" lon="15.09684129" >
      <name>rte1_166</name>
      <ele>912.55</ele>
    </rtept>
    <rtept lat="45.62419979" lon="15.09680910" >
      <name>rte1_167</name>
      <ele>912.55</ele>
    </rtept>
    <rtept lat="45.62412333" lon="15.09677691" >
      <name>rte1_168</name>
      <ele>914.77</ele>
    </rtept>
    <rtept lat="45.62404688" lon="15.09674471" >
      <name>rte1_169</name>
      <ele>914.77</ele>
    </rtept>
    <rtept lat="45.62396141" lon="15.09671891" >
      <name>rte1_170</name>
      <ele>914.77</ele>
    </rtept>
    <rtept lat="45.62388046" lon="15.09668671" >
      <name>rte1_171</name>
      <ele>911.18</ele>
    </rtept>
    <rtept lat="45.62383548" lon="15.09667381" >
      <name>rte1_172</name>
      <ele>911.18</ele>
    </rtept>
    <rtept lat="45.62379050" lon="15.09666091" >
      <name>rte1_173</name>
      <ele>911.18</ele>
    </rtept>
    <rtept lat="45.62374102" lon="15.09664800" >
      <name>rte1_174</name>
      <ele>911.18</ele>
    </rtept>
    <rtept lat="45.62369604" lon="15.09663509" >
      <name>rte1_175</name>
      <ele>903.93</ele>
    </rtept>
    <rtept lat="45.62362854" lon="15.09664139" >
      <name>rte1_176</name>
      <ele>903.93</ele>
    </rtept>
    <rtept lat="45.62356554" lon="15.09665410" >
      <name>rte1_177</name>
      <ele>903.93</ele>
    </rtept>
    <rtept lat="45.62350704" lon="15.09667323" >
      <name>rte1_178</name>
      <ele>903.93</ele>
    </rtept>
    <rtept lat="45.62344854" lon="15.09668596" >
      <name>rte1_179</name>
      <ele>900.00</ele>
    </rtept>
    <rtept lat="45.62339453" lon="15.09670510" >
      <name>rte1_180</name>
      <ele>900.00</ele>
    </rtept>
    <rtept lat="45.62334502" lon="15.09672425" >
      <name>rte1_181</name>
      <ele>900.00</ele>
    </rtept>
    <rtept lat="45.62329551" lon="15.09674981" >
      <name>rte1_182</name>
      <ele>900.00</ele>
    </rtept>
    <rtept lat="45.62324600" lon="15.09677537" >
      <name>rte1_183</name>
      <ele>896.67</ele>
    </rtept>
    <rtept lat="45.62319648" lon="15.09680734" >
      <name>rte1_184</name>
      <ele>896.67</ele>
    </rtept>
    <rtept lat="45.62315146" lon="15.09683932" >
      <name>rte1_185</name>
      <ele>896.67</ele>
    </rtept>
    <rtept lat="45.62310194" lon="15.09687130" >
      <name>rte1_186</name>
      <ele>900.00</ele>
    </rtept>
    <rtept lat="45.62305692" lon="15.09690969" >
      <name>rte1_187</name>
      <ele>900.00</ele>
    </rtept>
    <rtept lat="45.62300739" lon="15.09695449" >
      <name>rte1_188</name>
      <ele>890.00</ele>
    </rtept>
    <rtept lat="45.62295785" lon="15.09700569" >
      <name>rte1_189</name>
      <ele>890.00</ele>
    </rtept>
    <rtept lat="45.62290832" lon="15.09705690" >
      <name>rte1_190</name>
      <ele>890.00</ele>
    </rtept>
    <rtept lat="45.62285878" lon="15.09711452" >
      <name>rte1_191</name>
      <ele>890.00</ele>
    </rtept>
    <rtept lat="45.62278673" lon="15.09717852" >
      <name>rte1_192</name>
      <ele>886.15</ele>
    </rtept>
    <rtept lat="45.62271919" lon="15.09724893" >
      <name>rte1_193</name>
      <ele>890.00</ele>
    </rtept>
    <rtept lat="45.62265165" lon="15.09730652" >
      <name>rte1_194</name>
      <ele>890.00</ele>
    </rtept>
    <rtept lat="45.62258411" lon="15.09736411" >
      <name>rte1_195</name>
      <ele>890.00</ele>
    </rtept>
    <rtept lat="45.62251658" lon="15.09741528" >
      <name>rte1_196</name>
      <ele>880.00</ele>
    </rtept>
    <rtept lat="45.62244455" lon="15.09746004" >
      <name>rte1_197</name>
      <ele>880.00</ele>
    </rtept>
    <rtept lat="45.62237704" lon="15.09749198" >
      <name>rte1_198</name>
      <ele>880.00</ele>
    </rtept>
    <rtept lat="45.62230952" lon="15.09752392" >
      <name>rte1_199</name>
      <ele>875.17</ele>
    </rtept>
    <rtept lat="45.62223752" lon="15.09754303" >
      <name>rte1_200</name>
      <ele>875.17</ele>
    </rtept>
    <rtept lat="45.62217003" lon="15.09754932" >
      <name>rte1_201</name>
      <ele>875.17</ele>
    </rtept>
    <rtept lat="45.62209804" lon="15.09754919" >
      <name>rte1_202</name>
      <ele>870.00</ele>
    </rtept>
    <rtept lat="45.62203056" lon="15.09754266" >
      <name>rte1_203</name>
      <ele>870.00</ele>
    </rtept>
    <rtept lat="45.62195859" lon="15.09751689" >
      <name>rte1_204</name>
      <ele>870.00</ele>
    </rtept>
    <rtept lat="45.62189113" lon="15.09748471" >
      <name>rte1_205</name>
      <ele>860.00</ele>
    </rtept>
    <rtept lat="45.62181919" lon="15.09743970" >
      <name>rte1_206</name>
      <ele>860.00</ele>
    </rtept>
    <rtept lat="45.62175175" lon="15.09738187" >
      <name>rte1_207</name>
      <ele>860.00</ele>
    </rtept>
    <rtept lat="45.62170681" lon="15.09732409" >
      <name>rte1_208</name>
      <ele>860.00</ele>
    </rtept>
    <rtept lat="45.62166187" lon="15.09725989" >
      <name>rte1_209</name>
      <ele>860.00</ele>
    </rtept>
    <rtept lat="45.62161695" lon="15.09718287" >
      <name>rte1_210</name>
      <ele>860.00</ele>
    </rtept>
    <rtept lat="45.62157652" lon="15.09711227" >
      <name>rte1_211</name>
      <ele>854.17</ele>
    </rtept>
    <rtept lat="45.62132928" lon="15.09686177" >
      <name>rte1_212</name>
      <ele>848.38</ele>
    </rtept>
    <rtept lat="45.62126633" lon="15.09681678" >
      <name>rte1_213</name>
      <ele>844.67</ele>
    </rtept>
    <rtept lat="45.62120336" lon="15.09679102" >
      <name>rte1_214</name>
      <ele>839.77</ele>
    </rtept>
    <rtept lat="45.62114489" lon="15.09677168" >
      <name>rte1_215</name>
      <ele>839.77</ele>
    </rtept>
    <rtept lat="45.62108640" lon="15.09677158" >
      <name>rte1_216</name>
      <ele>839.77</ele>
    </rtept>
    <rtept lat="45.62102790" lon="15.09678430" >
      <name>rte1_217</name>
      <ele>839.77</ele>
    </rtept>
    <rtept lat="45.62096938" lon="15.09681626" >
      <name>rte1_218</name>
      <ele>835.63</ele>
    </rtept>
    <rtept lat="45.62091536" lon="15.09686105" >
      <name>rte1_219</name>
      <ele>839.31</ele>
    </rtept>
    <rtept lat="45.62087031" lon="15.09692508" >
      <name>rte1_220</name>
      <ele>839.31</ele>
    </rtept>
    <rtept lat="45.62082527" lon="15.09698271" >
      <name>rte1_221</name>
      <ele>839.31</ele>
    </rtept>
    <rtept lat="45.62078472" lon="15.09704676" >
      <name>rte1_222</name>
      <ele>839.31</ele>
    </rtept>
    <rtept lat="45.62074418" lon="15.09710439" >
      <name>rte1_223</name>
      <ele>839.73</ele>
    </rtept>
    <rtept lat="45.62070363" lon="15.09716203" >
      <name>rte1_224</name>
      <ele>839.73</ele>
    </rtept>
    <rtept lat="45.62066760" lon="15.09721326" >
      <name>rte1_225</name>
      <ele>843.67</ele>
    </rtept>
    <rtept lat="45.62063156" lon="15.09726449" >
      <name>rte1_226</name>
      <ele>843.67</ele>
    </rtept>
    <rtept lat="45.62059552" lon="15.09731572" >
      <name>rte1_227</name>
      <ele>843.67</ele>
    </rtept>
    <rtept lat="45.62056398" lon="15.09737337" >
      <name>rte1_228</name>
      <ele>843.67</ele>
    </rtept>
    <rtept lat="45.62053243" lon="15.09743102" >
      <name>rte1_229</name>
      <ele>840.47</ele>
    </rtept>
    <rtept lat="45.62050539" lon="15.09748226" >
      <name>rte1_230</name>
      <ele>840.47</ele>
    </rtept>
    <rtept lat="45.62048284" lon="15.09754634" >
      <name>rte1_231</name>
      <ele>841.41</ele>
    </rtept>
    <rtept lat="45.62046029" lon="15.09761041" >
      <name>rte1_232</name>
      <ele>841.41</ele>
    </rtept>
    <rtept lat="45.62043774" lon="15.09767449" >
      <name>rte1_233</name>
      <ele>841.41</ele>
    </rtept>
    <rtept lat="45.62042417" lon="15.09775141" >
      <name>rte1_234</name>
      <ele>841.41</ele>
    </rtept>
    <rtept lat="45.62041061" lon="15.09782832" >
      <name>rte1_235</name>
      <ele>839.11</ele>
    </rtept>
    <rtept lat="45.62040153" lon="15.09791807" >
      <name>rte1_236</name>
      <ele>839.11</ele>
    </rtept>
    <rtept lat="45.62061263" lon="15.09833521" >
      <name>rte1_237</name>
      <ele>835.52</ele>
    </rtept>
    <rtept lat="45.62065758" lon="15.09838658" >
      <name>rte1_238</name>
      <ele>835.52</ele>
    </rtept>
    <rtept lat="45.62069802" lon="15.09844436" >
      <name>rte1_239</name>
      <ele>835.52</ele>
    </rtept>
    <rtept lat="45.62072945" lon="15.09850853" >
      <name>rte1_240</name>
      <ele>829.57</ele>
    </rtept>
    <rtept lat="45.62075189" lon="15.09857910" >
      <name>rte1_241</name>
      <ele>829.57</ele>
    </rtept>
    <rtept lat="45.62076532" lon="15.09865606" >
      <name>rte1_242</name>
      <ele>829.57</ele>
    </rtept>
    <rtept lat="45.62077425" lon="15.09873302" >
      <name>rte1_243</name>
      <ele>834.58</ele>
    </rtept>
    <rtept lat="45.62077418" lon="15.09881637" >
      <name>rte1_244</name>
      <ele>830.44</ele>
    </rtept>
    <rtept lat="45.62076509" lon="15.09891253" >
      <name>rte1_245</name>
      <ele>822.63</ele>
    </rtept>
    <rtept lat="45.62075154" lon="15.09897663" >
      <name>rte1_246</name>
      <ele>822.63</ele>
    </rtept>
    <rtept lat="45.62073798" lon="15.09904713" >
      <name>rte1_247</name>
      <ele>822.63</ele>
    </rtept>
    <rtept lat="45.62072442" lon="15.09911122" >
      <name>rte1_248</name>
      <ele>820.00</ele>
    </rtept>
    <rtept lat="45.62071087" lon="15.09917532" >
      <name>rte1_249</name>
      <ele>820.00</ele>
    </rtept>
    <rtept lat="45.62067927" lon="15.09929067" >
      <name>rte1_250</name>
      <ele>820.00</ele>
    </rtept>
    <rtept lat="45.62064768" lon="15.09940602" >
      <name>rte1_251</name>
      <ele>820.00</ele>
    </rtept>
    <rtept lat="45.62061609" lon="15.09950855" >
      <name>rte1_252</name>
      <ele>820.00</ele>
    </rtept>
    <rtept lat="45.62058001" lon="15.09961108" >
      <name>rte1_253</name>
      <ele>820.00</ele>
    </rtept>
    <rtept lat="45.62053942" lon="15.09971359" >
      <name>rte1_254</name>
      <ele>810.00</ele>
    </rtept>
    <rtept lat="45.62050335" lon="15.09980970" >
      <name>rte1_255</name>
      <ele>810.00</ele>
    </rtept>
    <rtept lat="45.62046277" lon="15.09990580" >
      <name>rte1_256</name>
      <ele>810.00</ele>
    </rtept>
    <rtept lat="45.62042668" lon="15.10000832" >
      <name>rte1_257</name>
      <ele>810.00</ele>
    </rtept>
    <rtept lat="45.62038611" lon="15.10010442" >
      <name>rte1_258</name>
      <ele>810.00</ele>
    </rtept>
    <rtept lat="45.62035001" lon="15.10021336" >
      <name>rte1_259</name>
      <ele>810.00</ele>
    </rtept>
    <rtept lat="45.62030942" lon="15.10032228" >
      <name>rte1_260</name>
      <ele>803.08</ele>
    </rtept>
    <rtept lat="45.62029138" lon="15.10037995" >
      <name>rte1_261</name>
      <ele>803.08</ele>
    </rtept>
    <rtept lat="45.62027332" lon="15.10044404" >
      <name>rte1_262</name>
      <ele>800.00</ele>
    </rtept>
    <rtept lat="45.62025527" lon="15.10050171" >
      <name>rte1_263</name>
      <ele>800.00</ele>
    </rtept>
    <rtept lat="45.62023722" lon="15.10056579" >
      <name>rte1_264</name>
      <ele>800.00</ele>
    </rtept>
    <rtept lat="45.62021916" lon="15.10063629" >
      <name>rte1_265</name>
      <ele>800.00</ele>
    </rtept>
    <rtept lat="45.62020560" lon="15.10070679" >
      <name>rte1_266</name>
      <ele>800.00</ele>
    </rtept>
    <rtept lat="45.62018752" lon="15.10079652" >
      <name>rte1_267</name>
      <ele>800.00</ele>
    </rtept>
    <rtept lat="45.62017845" lon="15.10087986" >
      <name>rte1_268</name>
      <ele>800.00</ele>
    </rtept>
    <rtept lat="45.62017837" lon="15.10096321" >
      <name>rte1_269</name>
      <ele>800.00</ele>
    </rtept>
    <rtept lat="45.62018730" lon="15.10104658" >
      <name>rte1_270</name>
      <ele>800.00</ele>
    </rtept>
    <rtept lat="45.62019622" lon="15.10112995" >
      <name>rte1_271</name>
      <ele>800.00</ele>
    </rtept>
    <rtept lat="45.62020514" lon="15.10121331" >
      <name>rte1_272</name>
      <ele>800.00</ele>
    </rtept>
    <rtept lat="45.62020956" lon="15.10130308" >
      <name>rte1_273</name>
      <ele>800.00</ele>
    </rtept>
    <rtept lat="45.62020947" lon="15.10140567" >
      <name>rte1_274</name>
      <ele>800.00</ele>
    </rtept>
    <rtept lat="45.62014188" lon="15.10152096" >
      <name>rte1_275</name>
      <ele>800.00</ele>
    </rtept>
    <rtept lat="45.62001533" lon="15.10214906" >
      <name>rte1_276</name>
      <ele>780.00</ele>
    </rtept>
    <rtept lat="45.62004224" lon="15.10223888" >
      <name>rte1_277</name>
      <ele>780.00</ele>
    </rtept>
    <rtept lat="45.62007366" lon="15.10232870" >
      <name>rte1_278</name>
      <ele>772.43</ele>
    </rtept>
    <rtept lat="45.62011857" lon="15.10241854" >
      <name>rte1_279</name>
      <ele>776.05</ele>
    </rtept>
    <rtept lat="45.62017697" lon="15.10251483" >
      <name>rte1_280</name>
      <ele>776.05</ele>
    </rtept>
    <rtept lat="45.62022192" lon="15.10255979" >
      <name>rte1_281</name>
      <ele>776.05</ele>
    </rtept>
    <rtept lat="45.62028038" lon="15.10258555" >
      <name>rte1_282</name>
      <ele>776.05</ele>
    </rtept>
    <rtept lat="45.62034337" lon="15.10258566" >
      <name>rte1_283</name>
      <ele>779.87</ele>
    </rtept>
    <rtept lat="45.62040636" lon="15.10258578" >
      <name>rte1_284</name>
      <ele>779.87</ele>
    </rtept>
    <rtept lat="45.62046485" lon="15.10258589" >
      <name>rte1_285</name>
      <ele>779.87</ele>
    </rtept>
    <rtept lat="45.62052333" lon="15.10259882" >
      <name>rte1_286</name>
      <ele>779.87</ele>
    </rtept>
    <rtept lat="45.62057279" lon="15.10263097" >
      <name>rte1_287</name>
      <ele>776.67</ele>
    </rtept>
    <rtept lat="45.62061321" lon="15.10270799" >
      <name>rte1_288</name>
      <ele>776.67</ele>
    </rtept>
    <rtept lat="45.62063562" lon="15.10279779" >
      <name>rte1_289</name>
      <ele>776.67</ele>
    </rtept>
    <rtept lat="45.62064454" lon="15.10288757" >
      <name>rte1_290</name>
      <ele>776.67</ele>
    </rtept>
    <rtept lat="45.62064446" lon="15.10297092" >
      <name>rte1_291</name>
      <ele>765.61</ele>
    </rtept>
    <rtept lat="45.62063988" lon="15.10306068" >
      <name>rte1_292</name>
      <ele>765.61</ele>
    </rtept>
    <rtept lat="45.62063531" lon="15.10314402" >
      <name>rte1_293</name>
      <ele>765.61</ele>
    </rtept>
    <rtept lat="45.62063072" lon="15.10323378" >
      <name>rte1_294</name>
      <ele>765.61</ele>
    </rtept>
    <rtept lat="45.62063513" lon="15.10332996" >
      <name>rte1_295</name>
      <ele>763.06</ele>
    </rtept>
    <rtept lat="45.62065304" lon="15.10343258" >
      <name>rte1_296</name>
      <ele>763.06</ele>
    </rtept>
    <rtept lat="45.62066198" lon="15.10349672" >
      <name>rte1_297</name>
      <ele>763.06</ele>
    </rtept>
    <rtept lat="45.62067541" lon="15.10356727" >
      <name>rte1_298</name>
      <ele>763.06</ele>
    </rtept>
    <rtept lat="45.62068435" lon="15.10363140" >
      <name>rte1_299</name>
      <ele>754.67</ele>
    </rtept>
    <rtept lat="45.62069779" lon="15.10369555" >
      <name>rte1_300</name>
      <ele>754.67</ele>
    </rtept>
    <rtept lat="45.62070672" lon="15.10375968" >
      <name>rte1_301</name>
      <ele>754.67</ele>
    </rtept>
    <rtept lat="45.62072016" lon="15.10382382" >
      <name>rte1_302</name>
      <ele>754.67</ele>
    </rtept>
    <rtept lat="45.62073809" lon="15.10389439" >
      <name>rte1_303</name>
      <ele>754.67</ele>
    </rtept>
    <rtept lat="45.62076052" lon="15.10396496" >
      <name>rte1_304</name>
      <ele>747.71</ele>
    </rtept>
    <rtept lat="45.62078294" lon="15.10404835" >
      <name>rte1_305</name>
      <ele>757.07</ele>
    </rtept>
    <rtept lat="45.62080086" lon="15.10413174" >
      <name>rte1_306</name>
      <ele>757.07</ele>
    </rtept>
    <rtept lat="45.62081879" lon="15.10420230" >
      <name>rte1_307</name>
      <ele>757.07</ele>
    </rtept>
    <rtept lat="45.62083223" lon="15.10427285" >
      <name>rte1_308</name>
      <ele>751.49</ele>
    </rtept>
    <rtept lat="45.62084565" lon="15.10434982" >
      <name>rte1_309</name>
      <ele>751.49</ele>
    </rtept>
    <rtept lat="45.62085908" lon="15.10442679" >
      <name>rte1_310</name>
      <ele>751.49</ele>
    </rtept>
    <rtept lat="45.62086800" lon="15.10451016" >
      <name>rte1_311</name>
      <ele>751.49</ele>
    </rtept>
    <rtept lat="45.62088590" lon="15.10461278" >
      <name>rte1_312</name>
      <ele>750.00</ele>
    </rtept>
    <rtept lat="45.62089482" lon="15.10469615" >
      <name>rte1_313</name>
      <ele>750.00</ele>
    </rtept>
    <rtept lat="45.62089925" lon="15.10477310" >
      <name>rte1_314</name>
      <ele>750.00</ele>
    </rtept>
    <rtept lat="45.62089919" lon="15.10483721" >
      <name>rte1_315</name>
      <ele>750.00</ele>
    </rtept>
    <rtept lat="45.62089463" lon="15.10490132" >
      <name>rte1_316</name>
      <ele>750.00</ele>
    </rtept>
    <rtept lat="45.62088557" lon="15.10496542" >
      <name>rte1_317</name>
      <ele>750.00</ele>
    </rtept>
    <rtept lat="45.62087201" lon="15.10503593" >
      <name>rte1_318</name>
      <ele>750.00</ele>
    </rtept>
    <rtept lat="45.62085394" lon="15.10510642" >
      <name>rte1_319</name>
      <ele>750.00</ele>
    </rtept>
    <rtept lat="45.62083586" lon="15.10519615" >
      <name>rte1_320</name>
      <ele>746.30</ele>
    </rtept>
    <rtept lat="45.62081330" lon="15.10527305" >
      <name>rte1_321</name>
      <ele>746.30</ele>
    </rtept>
    <rtept lat="45.62079073" lon="15.10534353" >
      <name>rte1_322</name>
      <ele>746.30</ele>
    </rtept>
    <rtept lat="45.62077267" lon="15.10541403" >
      <name>rte1_323</name>
      <ele>746.30</ele>
    </rtept>
    <rtept lat="45.62075461" lon="15.10547811" >
      <name>rte1_324</name>
      <ele>740.00</ele>
    </rtept>
    <rtept lat="45.62073656" lon="15.10553578" >
      <name>rte1_325</name>
      <ele>740.00</ele>
    </rtept>
    <rtept lat="45.62072301" lon="15.10559987" >
      <name>rte1_326</name>
      <ele>740.00</ele>
    </rtept>
    <rtept lat="45.62068690" lon="15.10571521" >
      <name>rte1_327</name>
      <ele>740.00</ele>
    </rtept>
    <rtept lat="45.62065081" lon="15.10582414" >
      <name>rte1_328</name>
      <ele>740.00</ele>
    </rtept>
    <rtept lat="45.62063276" lon="15.10588182" >
      <name>rte1_329</name>
      <ele>740.00</ele>
    </rtept>
    <rtept lat="45.62061021" lon="15.10593948" >
      <name>rte1_330</name>
      <ele>740.00</ele>
    </rtept>
    <rtept lat="45.62058316" lon="15.10599713" >
      <name>rte1_331</name>
      <ele>740.00</ele>
    </rtept>
    <rtept lat="45.62055610" lon="15.10606120" >
      <name>rte1_332</name>
      <ele>740.00</ele>
    </rtept>
    <rtept lat="45.62052005" lon="15.10612524" >
      <name>rte1_333</name>
      <ele>740.00</ele>
    </rtept>
    <rtept lat="45.62048849" lon="15.10619571" >
      <name>rte1_334</name>
      <ele>737.50</ele>
    </rtept>
    <rtept lat="45.62047487" lon="15.10631751" >
      <name>rte1_335</name>
      <ele>737.50</ele>
    </rtept>
    <rtept lat="45.62047475" lon="15.10644574" >
      <name>rte1_336</name>
      <ele>737.50</ele>
    </rtept>
    <rtept lat="45.62047464" lon="15.10656115" >
      <name>rte1_337</name>
      <ele>733.70</ele>
    </rtept>
    <rtept lat="45.62048803" lon="15.10668300" >
      <name>rte1_338</name>
      <ele>733.70</ele>
    </rtept>
    <rtept lat="45.62063598" lon="15.10722187" >
      <name>rte1_339</name>
      <ele>734.00</ele>
    </rtept>
    <rtept lat="45.62066294" lon="15.10726680" >
      <name>rte1_340</name>
      <ele>734.00</ele>
    </rtept>
    <rtept lat="45.62069888" lon="15.10731817" >
      <name>rte1_341</name>
      <ele>734.00</ele>
    </rtept>
    <rtept lat="45.62073482" lon="15.10736953" >
      <name>rte1_342</name>
      <ele>734.00</ele>
    </rtept>
    <rtept lat="45.62077078" lon="15.10741448" >
      <name>rte1_343</name>
      <ele>740.00</ele>
    </rtept>
    <rtept lat="45.62080672" lon="15.10746584" >
      <name>rte1_344</name>
      <ele>730.00</ele>
    </rtept>
    <rtept lat="45.62084267" lon="15.10751080" >
      <name>rte1_345</name>
      <ele>730.00</ele>
    </rtept>
    <rtept lat="45.62091008" lon="15.10759428" >
      <name>rte1_346</name>
      <ele>730.00</ele>
    </rtept>
    <rtept lat="45.62136892" lon="15.10767211" >
      <name>rte1_347</name>
      <ele>740.00</ele>
    </rtept>
    <rtept lat="45.62174250" lon="15.10751255" >
      <name>rte1_348</name>
      <ele>740.00</ele>
    </rtept>
  </rte>
</gpx>
