<?xml version="1.0" encoding="UTF-8" standalone="no" ?>
<gpx xmlns="http://www.topografix.com/GPX/1/1"
creator="OCAD 2020.5.5.3227" version="1.1"
xmlns:xsi="http://www.w3.org/2001/XMLSchema-instance" 
xsi:schemaLocation="http://www.topografix.com/GPX/1/1 
http://www.topografix.com/GPX/1/1/gpx.xsd">

  <metadata>
    <name>Učna pot Kučar - Kolpa</name>
    <desc>Bela krajina - Učna pot Kučar - Kolpa</desc>
    <time>2020-11-05T08:39:41</time>
    <bounds maxlat="45.86687249" maxlon="15.60571704" minlat="45.32979540" minlon="14.93303760"/>
  </metadata>

  <rte>
    <name>rte1</name>
    <cmt>pohodne poti za izris profilov</cmt>
    <rtept lat="45.60469160" lon="15.27474539" >
      <name>rte1_0</name>
      <ele>138.30</ele>
    </rtept>
    <rtept lat="45.60474565" lon="15.27472001" >
      <name>rte1_1</name>
      <ele>138.30</ele>
    </rtept>
    <rtept lat="45.60479969" lon="15.27470105" >
      <name>rte1_2</name>
      <ele>138.90</ele>
    </rtept>
    <rtept lat="45.60485372" lon="15.27468209" >
      <name>rte1_3</name>
      <ele>138.90</ele>
    </rtept>
    <rtept lat="45.60490777" lon="15.27465671" >
      <name>rte1_4</name>
      <ele>138.90</ele>
    </rtept>
    <rtept lat="45.60496631" lon="15.27463777" >
      <name>rte1_5</name>
      <ele>138.60</ele>
    </rtept>
    <rtept lat="45.60502034" lon="15.27461880" >
      <name>rte1_6</name>
      <ele>138.60</ele>
    </rtept>
    <rtept lat="45.60507888" lon="15.27459986" >
      <name>rte1_7</name>
      <ele>138.60</ele>
    </rtept>
    <rtept lat="45.60513741" lon="15.27458092" >
      <name>rte1_8</name>
      <ele>138.60</ele>
    </rtept>
    <rtept lat="45.60519145" lon="15.27456196" >
      <name>rte1_9</name>
      <ele>138.60</ele>
    </rtept>
    <rtept lat="45.60524999" lon="15.27454301" >
      <name>rte1_10</name>
      <ele>138.60</ele>
    </rtept>
    <rtept lat="45.60530852" lon="15.27452407" >
      <name>rte1_11</name>
      <ele>138.60</ele>
    </rtept>
    <rtept lat="45.60536707" lon="15.27449872" >
      <name>rte1_12</name>
      <ele>138.60</ele>
    </rtept>
    <rtept lat="45.60543011" lon="15.27447980" >
      <name>rte1_13</name>
      <ele>138.70</ele>
    </rtept>
    <rtept lat="45.60548864" lon="15.27446086" >
      <name>rte1_14</name>
      <ele>138.70</ele>
    </rtept>
    <rtept lat="45.60554718" lon="15.27444191" >
      <name>rte1_15</name>
      <ele>138.70</ele>
    </rtept>
    <rtept lat="45.60561021" lon="15.27442299" >
      <name>rte1_16</name>
      <ele>138.70</ele>
    </rtept>
    <rtept lat="45.60566875" lon="15.27440405" >
      <name>rte1_17</name>
      <ele>139.00</ele>
    </rtept>
    <rtept lat="45.60573178" lon="15.27438513" >
      <name>rte1_18</name>
      <ele>139.50</ele>
    </rtept>
    <rtept lat="45.60579481" lon="15.27436621" >
      <name>rte1_19</name>
      <ele>139.50</ele>
    </rtept>
    <rtept lat="45.60585785" lon="15.27434729" >
      <name>rte1_20</name>
      <ele>139.50</ele>
    </rtept>
    <rtept lat="45.60592088" lon="15.27432837" >
      <name>rte1_21</name>
      <ele>139.60</ele>
    </rtept>
    <rtept lat="45.60598392" lon="15.27430945" >
      <name>rte1_22</name>
      <ele>139.60</ele>
    </rtept>
    <rtept lat="45.60604695" lon="15.27429053" >
      <name>rte1_23</name>
      <ele>139.60</ele>
    </rtept>
    <rtept lat="45.60611448" lon="15.27427163" >
      <name>rte1_24</name>
      <ele>139.80</ele>
    </rtept>
    <rtept lat="45.60617752" lon="15.27425271" >
      <name>rte1_25</name>
      <ele>139.80</ele>
    </rtept>
    <rtept lat="45.60624507" lon="15.27422740" >
      <name>rte1_26</name>
      <ele>139.80</ele>
    </rtept>
    <rtept lat="45.60630810" lon="15.27420848" >
      <name>rte1_27</name>
      <ele>139.80</ele>
    </rtept>
    <rtept lat="45.60637564" lon="15.27418958" >
      <name>rte1_28</name>
      <ele>140.00</ele>
    </rtept>
    <rtept lat="45.60644317" lon="15.27417068" >
      <name>rte1_29</name>
      <ele>140.00</ele>
    </rtept>
    <rtept lat="45.60651072" lon="15.27414537" >
      <name>rte1_30</name>
      <ele>140.00</ele>
    </rtept>
    <rtept lat="45.60657825" lon="15.27412647" >
      <name>rte1_31</name>
      <ele>140.00</ele>
    </rtept>
    <rtept lat="45.60665028" lon="15.27410759" >
      <name>rte1_32</name>
      <ele>140.00</ele>
    </rtept>
    <rtept lat="45.60669982" lon="15.27408861" >
      <name>rte1_33</name>
      <ele>140.00</ele>
    </rtept>
    <rtept lat="45.60674484" lon="15.27407601" >
      <name>rte1_34</name>
      <ele>140.00</ele>
    </rtept>
    <rtept lat="45.60679436" lon="15.27406343" >
      <name>rte1_35</name>
      <ele>141.80</ele>
    </rtept>
    <rtept lat="45.60683939" lon="15.27405083" >
      <name>rte1_36</name>
      <ele>141.80</ele>
    </rtept>
    <rtept lat="45.60688441" lon="15.27403823" >
      <name>rte1_37</name>
      <ele>141.80</ele>
    </rtept>
    <rtept lat="45.60692943" lon="15.27402563" >
      <name>rte1_38</name>
      <ele>141.80</ele>
    </rtept>
    <rtept lat="45.60701494" lon="15.27401323" >
      <name>rte1_39</name>
      <ele>143.30</ele>
    </rtept>
    <rtept lat="45.60710046" lon="15.27400083" >
      <name>rte1_40</name>
      <ele>143.30</ele>
    </rtept>
    <rtept lat="45.60718146" lon="15.27399481" >
      <name>rte1_41</name>
      <ele>143.30</ele>
    </rtept>
    <rtept lat="45.60726244" lon="15.27399521" >
      <name>rte1_42</name>
      <ele>145.00</ele>
    </rtept>
    <rtept lat="45.60734341" lon="15.27400202" >
      <name>rte1_43</name>
      <ele>145.00</ele>
    </rtept>
    <rtept lat="45.60742436" lon="15.27401524" >
      <name>rte1_44</name>
      <ele>145.00</ele>
    </rtept>
    <rtept lat="45.60750532" lon="15.27402845" >
      <name>rte1_45</name>
      <ele>145.00</ele>
    </rtept>
    <rtept lat="45.60759074" lon="15.27405451" >
      <name>rte1_46</name>
      <ele>145.00</ele>
    </rtept>
    <rtept lat="45.60767166" lon="15.27408055" >
      <name>rte1_47</name>
      <ele>147.50</ele>
    </rtept>
    <rtept lat="45.60775707" lon="15.27411302" >
      <name>rte1_48</name>
      <ele>147.50</ele>
    </rtept>
    <rtept lat="45.60780201" lon="15.27413247" >
      <name>rte1_49</name>
      <ele>147.50</ele>
    </rtept>
    <rtept lat="45.60784696" lon="15.27415192" >
      <name>rte1_50</name>
      <ele>147.50</ele>
    </rtept>
    <rtept lat="45.60789190" lon="15.27417137" >
      <name>rte1_51</name>
      <ele>150.00</ele>
    </rtept>
    <rtept lat="45.60794133" lon="15.27419726" >
      <name>rte1_52</name>
      <ele>150.00</ele>
    </rtept>
    <rtept lat="45.60799077" lon="15.27421673" >
      <name>rte1_53</name>
      <ele>150.00</ele>
    </rtept>
    <rtept lat="45.60804019" lon="15.27424902" >
      <name>rte1_54</name>
      <ele>150.00</ele>
    </rtept>
    <rtept lat="45.60810775" lon="15.27421730" >
      <name>rte1_55</name>
      <ele>150.00</ele>
    </rtept>
    <rtept lat="45.60817533" lon="15.27417917" >
      <name>rte1_56</name>
      <ele>150.00</ele>
    </rtept>
    <rtept lat="45.60823393" lon="15.27413459" >
      <name>rte1_57</name>
      <ele>150.00</ele>
    </rtept>
    <rtept lat="45.60828353" lon="15.27408996" >
      <name>rte1_58</name>
      <ele>150.00</ele>
    </rtept>
    <rtept lat="45.60833316" lon="15.27403251" >
      <name>rte1_59</name>
      <ele>150.00</ele>
    </rtept>
    <rtept lat="45.60837830" lon="15.27396863" >
      <name>rte1_60</name>
      <ele>160.00</ele>
    </rtept>
    <rtept lat="45.60842348" lon="15.27389193" >
      <name>rte1_61</name>
      <ele>160.00</ele>
    </rtept>
    <rtept lat="45.60847317" lon="15.27380884" >
      <name>rte1_62</name>
      <ele>160.00</ele>
    </rtept>
    <rtept lat="45.60849582" lon="15.27374484" >
      <name>rte1_63</name>
      <ele>150.00</ele>
    </rtept>
    <rtept lat="45.60851847" lon="15.27368085" >
      <name>rte1_64</name>
      <ele>150.00</ele>
    </rtept>
    <rtept lat="45.60854112" lon="15.27361686" >
      <name>rte1_65</name>
      <ele>150.00</ele>
    </rtept>
    <rtept lat="45.60855929" lon="15.27354643" >
      <name>rte1_66</name>
      <ele>150.00</ele>
    </rtept>
    <rtept lat="45.60857294" lon="15.27348240" >
      <name>rte1_67</name>
      <ele>157.57</ele>
    </rtept>
    <rtept lat="45.60858659" lon="15.27341836" >
      <name>rte1_68</name>
      <ele>155.26</ele>
    </rtept>
    <rtept lat="45.60860024" lon="15.27335432" >
      <name>rte1_69</name>
      <ele>155.26</ele>
    </rtept>
    <rtept lat="45.60861390" lon="15.27329029" >
      <name>rte1_70</name>
      <ele>155.26</ele>
    </rtept>
    <rtept lat="45.60894233" lon="15.27329189" >
      <name>rte1_71</name>
      <ele>160.00</ele>
    </rtept>
    <rtept lat="45.60899181" lon="15.27329855" >
      <name>rte1_72</name>
      <ele>160.00</ele>
    </rtept>
    <rtept lat="45.60904127" lon="15.27331161" >
      <name>rte1_73</name>
      <ele>162.80</ele>
    </rtept>
    <rtept lat="45.60908621" lon="15.27333106" >
      <name>rte1_74</name>
      <ele>162.80</ele>
    </rtept>
    <rtept lat="45.60913117" lon="15.27334410" >
      <name>rte1_75</name>
      <ele>162.80</ele>
    </rtept>
    <rtept lat="45.60921659" lon="15.27337016" >
      <name>rte1_76</name>
      <ele>162.80</ele>
    </rtept>
    <rtept lat="45.60929750" lon="15.27340261" >
      <name>rte1_77</name>
      <ele>165.70</ele>
    </rtept>
    <rtept lat="45.60928298" lon="15.27382562" >
      <name>rte1_78</name>
      <ele>173.12</ele>
    </rtept>
    <rtept lat="45.60922432" lon="15.27389585" >
      <name>rte1_79</name>
      <ele>170.00</ele>
    </rtept>
    <rtept lat="45.60917463" lon="15.27397894" >
      <name>rte1_80</name>
      <ele>170.00</ele>
    </rtept>
    <rtept lat="45.60912493" lon="15.27406844" >
      <name>rte1_81</name>
      <ele>170.00</ele>
    </rtept>
    <rtept lat="45.60907972" lon="15.27415797" >
      <name>rte1_82</name>
      <ele>172.65</ele>
    </rtept>
    <rtept lat="45.60904801" lon="15.27424756" >
      <name>rte1_83</name>
      <ele>172.65</ele>
    </rtept>
    <rtept lat="45.60902078" lon="15.27434358" >
      <name>rte1_84</name>
      <ele>172.65</ele>
    </rtept>
    <rtept lat="45.60900257" lon="15.27443324" >
      <name>rte1_85</name>
      <ele>170.00</ele>
    </rtept>
    <rtept lat="45.60900236" lon="15.27451657" >
      <name>rte1_86</name>
      <ele>170.00</ele>
    </rtept>
    <rtept lat="45.60902914" lon="15.27460645" >
      <name>rte1_87</name>
      <ele>177.10</ele>
    </rtept>
    <rtept lat="45.60909652" lon="15.27465165" >
      <name>rte1_88</name>
      <ele>177.10</ele>
    </rtept>
    <rtept lat="45.60917288" lon="15.27470331" >
      <name>rte1_89</name>
      <ele>177.10</ele>
    </rtept>
    <rtept lat="45.60920878" lon="15.27474195" >
      <name>rte1_90</name>
      <ele>180.00</ele>
    </rtept>
    <rtept lat="45.60924015" lon="15.27479338" >
      <name>rte1_91</name>
      <ele>184.23</ele>
    </rtept>
    <rtept lat="45.60926249" lon="15.27485760" >
      <name>rte1_92</name>
      <ele>184.23</ele>
    </rtept>
    <rtept lat="45.60928483" lon="15.27492181" >
      <name>rte1_93</name>
      <ele>184.23</ele>
    </rtept>
    <rtept lat="45.60930267" lon="15.27498600" >
      <name>rte1_94</name>
      <ele>184.23</ele>
    </rtept>
    <rtept lat="45.60931152" lon="15.27505015" >
      <name>rte1_95</name>
      <ele>190.00</ele>
    </rtept>
    <rtept lat="45.60932034" lon="15.27512071" >
      <name>rte1_96</name>
      <ele>190.00</ele>
    </rtept>
    <rtept lat="45.60932017" lon="15.27519122" >
      <name>rte1_97</name>
      <ele>190.00</ele>
    </rtept>
    <rtept lat="45.60931999" lon="15.27526815" >
      <name>rte1_98</name>
      <ele>190.00</ele>
    </rtept>
    <rtept lat="45.60931527" lon="15.27535787" >
      <name>rte1_99</name>
      <ele>190.00</ele>
    </rtept>
    <rtept lat="45.60929712" lon="15.27542188" >
      <name>rte1_100</name>
      <ele>190.00</ele>
    </rtept>
    <rtept lat="45.60927896" lon="15.27548590" >
      <name>rte1_101</name>
      <ele>190.00</ele>
    </rtept>
    <rtept lat="45.60925633" lon="15.27554348" >
      <name>rte1_102</name>
      <ele>190.00</ele>
    </rtept>
    <rtept lat="45.60922921" lon="15.27559463" >
      <name>rte1_103</name>
      <ele>185.11</ele>
    </rtept>
    <rtept lat="45.60919759" lon="15.27564576" >
      <name>rte1_104</name>
      <ele>185.11</ele>
    </rtept>
    <rtept lat="45.60916599" lon="15.27569048" >
      <name>rte1_105</name>
      <ele>188.11</ele>
    </rtept>
    <rtept lat="45.60913438" lon="15.27573519" >
      <name>rte1_106</name>
      <ele>188.11</ele>
    </rtept>
    <rtept lat="45.60909828" lon="15.27577989" >
      <name>rte1_107</name>
      <ele>188.11</ele>
    </rtept>
    <rtept lat="45.60903958" lon="15.27586934" >
      <name>rte1_108</name>
      <ele>188.11</ele>
    </rtept>
    <rtept lat="45.60898985" lon="15.27596525" >
      <name>rte1_109</name>
      <ele>180.43</ele>
    </rtept>
    <rtept lat="45.60895808" lon="15.27608048" >
      <name>rte1_110</name>
      <ele>182.50</ele>
    </rtept>
    <rtept lat="45.60894892" lon="15.27614454" >
      <name>rte1_111</name>
      <ele>182.50</ele>
    </rtept>
    <rtept lat="45.60895324" lon="15.27622149" >
      <name>rte1_112</name>
      <ele>182.50</ele>
    </rtept>
    <rtept lat="45.60896645" lon="15.27633694" >
      <name>rte1_113</name>
      <ele>182.86</ele>
    </rtept>
    <rtept lat="45.60899770" lon="15.27643966" >
      <name>rte1_114</name>
      <ele>182.86</ele>
    </rtept>
    <rtept lat="45.60903797" lon="15.27652960" >
      <name>rte1_115</name>
      <ele>190.00</ele>
    </rtept>
    <rtept lat="45.60908726" lon="15.27661318" >
      <name>rte1_116</name>
      <ele>190.00</ele>
    </rtept>
    <rtept lat="45.60914104" lon="15.27669678" >
      <name>rte1_117</name>
      <ele>190.00</ele>
    </rtept>
    <rtept lat="45.60919483" lon="15.27678039" >
      <name>rte1_118</name>
      <ele>190.00</ele>
    </rtept>
    <rtept lat="45.60923957" lon="15.27688317" >
      <name>rte1_119</name>
      <ele>200.00</ele>
    </rtept>
    <rtept lat="45.60926192" lon="15.27694098" >
      <name>rte1_120</name>
      <ele>200.00</ele>
    </rtept>
    <rtept lat="45.60928426" lon="15.27700519" >
      <name>rte1_121</name>
      <ele>195.68</ele>
    </rtept>
    <rtept lat="45.60929309" lon="15.27707575" >
      <name>rte1_122</name>
      <ele>195.68</ele>
    </rtept>
    <rtept lat="45.60929290" lon="15.27715267" >
      <name>rte1_123</name>
      <ele>195.68</ele>
    </rtept>
    <rtept lat="45.60928825" lon="15.27721676" >
      <name>rte1_124</name>
      <ele>195.68</ele>
    </rtept>
    <rtept lat="45.60927458" lon="15.27728720" >
      <name>rte1_125</name>
      <ele>195.68</ele>
    </rtept>
    <rtept lat="45.60926091" lon="15.27735765" >
      <name>rte1_126</name>
      <ele>192.29</ele>
    </rtept>
    <rtept lat="45.60925174" lon="15.27742812" >
      <name>rte1_127</name>
      <ele>192.29</ele>
    </rtept>
    <rtept lat="45.60925155" lon="15.27750504" >
      <name>rte1_128</name>
      <ele>192.29</ele>
    </rtept>
    <rtept lat="45.60926034" lon="15.27758842" >
      <name>rte1_129</name>
      <ele>192.29</ele>
    </rtept>
    <rtept lat="45.60953449" lon="15.27771158" >
      <name>rte1_130</name>
      <ele>195.93</ele>
    </rtept>
    <rtept lat="45.60960649" lon="15.27770553" >
      <name>rte1_131</name>
      <ele>195.93</ele>
    </rtept>
    <rtept lat="45.60967849" lon="15.27769948" >
      <name>rte1_132</name>
      <ele>201.44</ele>
    </rtept>
    <rtept lat="45.60974153" lon="15.27768056" >
      <name>rte1_133</name>
      <ele>201.44</ele>
    </rtept>
    <rtept lat="45.60980458" lon="15.27765523" >
      <name>rte1_134</name>
      <ele>201.44</ele>
    </rtept>
    <rtept lat="45.60985865" lon="15.27762344" >
      <name>rte1_135</name>
      <ele>201.44</ele>
    </rtept>
    <rtept lat="45.60991726" lon="15.27757245" >
      <name>rte1_136</name>
      <ele>208.80</ele>
    </rtept>
    <rtept lat="45.60997589" lon="15.27751505" >
      <name>rte1_137</name>
      <ele>208.80</ele>
    </rtept>
    <rtept lat="45.61003454" lon="15.27745123" >
      <name>rte1_138</name>
      <ele>208.80</ele>
    </rtept>
    <rtept lat="45.61007519" lon="15.27738733" >
      <name>rte1_139</name>
      <ele>208.80</ele>
    </rtept>
    <rtept lat="45.61011132" lon="15.27732982" >
      <name>rte1_140</name>
      <ele>208.80</ele>
    </rtept>
    <rtept lat="45.61013846" lon="15.27727226" >
      <name>rte1_141</name>
      <ele>220.00</ele>
    </rtept>
    <rtept lat="45.61016561" lon="15.27720829" >
      <name>rte1_142</name>
      <ele>220.00</ele>
    </rtept>
    <rtept lat="45.61018824" lon="15.27715070" >
      <name>rte1_143</name>
      <ele>220.00</ele>
    </rtept>
    <rtept lat="45.61020640" lon="15.27708669" >
      <name>rte1_144</name>
      <ele>220.00</ele>
    </rtept>
    <rtept lat="45.61022005" lon="15.27702265" >
      <name>rte1_145</name>
      <ele>220.00</ele>
    </rtept>
    <rtept lat="45.61023370" lon="15.27695861" >
      <name>rte1_146</name>
      <ele>220.00</ele>
    </rtept>
    <rtept lat="45.61024737" lon="15.27688817" >
      <name>rte1_147</name>
      <ele>220.00</ele>
    </rtept>
    <rtept lat="45.61025653" lon="15.27682411" >
      <name>rte1_148</name>
      <ele>220.00</ele>
    </rtept>
    <rtept lat="45.61027020" lon="15.27675366" >
      <name>rte1_149</name>
      <ele>220.00</ele>
    </rtept>
    <rtept lat="45.61027937" lon="15.27668319" >
      <name>rte1_150</name>
      <ele>220.00</ele>
    </rtept>
    <rtept lat="45.61029305" lon="15.27660633" >
      <name>rte1_151</name>
      <ele>220.00</ele>
    </rtept>
    <rtept lat="45.61030674" lon="15.27652947" >
      <name>rte1_152</name>
      <ele>220.00</ele>
    </rtept>
    <rtept lat="45.61032042" lon="15.27645261" >
      <name>rte1_153</name>
      <ele>220.00</ele>
    </rtept>
    <rtept lat="45.61034310" lon="15.27637580" >
      <name>rte1_154</name>
      <ele>220.00</ele>
    </rtept>
    <rtept lat="45.61054755" lon="15.27556267" >
      <name>rte1_155</name>
      <ele>211.21</ele>
    </rtept>
    <rtept lat="45.61062392" lon="15.27560792" >
      <name>rte1_156</name>
      <ele>216.36</ele>
    </rtept>
    <rtept lat="45.61070030" lon="15.27565317" >
      <name>rte1_157</name>
      <ele>216.36</ele>
    </rtept>
    <rtept lat="45.61077669" lon="15.27569201" >
      <name>rte1_158</name>
      <ele>216.36</ele>
    </rtept>
    <rtept lat="45.61085758" lon="15.27573087" >
      <name>rte1_159</name>
      <ele>220.00</ele>
    </rtept>
    <rtept lat="45.61092944" lon="15.27578251" >
      <name>rte1_160</name>
      <ele>220.00</ele>
    </rtept>
    <rtept lat="45.61100579" lon="15.27584058" >
      <name>rte1_161</name>
      <ele>220.00</ele>
    </rtept>
    <rtept lat="45.61107309" lon="15.27591784" >
      <name>rte1_162</name>
      <ele>215.00</ele>
    </rtept>
    <rtept lat="45.61110445" lon="15.27596928" >
      <name>rte1_163</name>
      <ele>215.00</ele>
    </rtept>
    <rtept lat="45.61114031" lon="15.27602715" >
      <name>rte1_164</name>
      <ele>216.55</ele>
    </rtept>
    <rtept lat="45.61118510" lon="15.27611071" >
      <name>rte1_165</name>
      <ele>216.55</ele>
    </rtept>
    <rtept lat="45.61122537" lon="15.27620066" >
      <name>rte1_166</name>
      <ele>216.55</ele>
    </rtept>
    <rtept lat="45.61127017" lon="15.27627781" >
      <name>rte1_167</name>
      <ele>210.00</ele>
    </rtept>
    <rtept lat="45.61130596" lon="15.27636133" >
      <name>rte1_168</name>
      <ele>209.12</ele>
    </rtept>
    <rtept lat="45.61134177" lon="15.27643843" >
      <name>rte1_169</name>
      <ele>209.12</ele>
    </rtept>
    <rtept lat="45.61137756" lon="15.27652195" >
      <name>rte1_170</name>
      <ele>209.12</ele>
    </rtept>
    <rtept lat="45.61140887" lon="15.27659903" >
      <name>rte1_171</name>
      <ele>209.12</ele>
    </rtept>
    <rtept lat="45.61143566" lon="15.27668250" >
      <name>rte1_172</name>
      <ele>209.80</ele>
    </rtept>
    <rtept lat="45.61146245" lon="15.27676597" >
      <name>rte1_173</name>
      <ele>209.80</ele>
    </rtept>
    <rtept lat="45.61148474" lon="15.27684942" >
      <name>rte1_174</name>
      <ele>205.78</ele>
    </rtept>
    <rtept lat="45.61150252" lon="15.27693926" >
      <name>rte1_175</name>
      <ele>205.78</ele>
    </rtept>
    <rtept lat="45.61152030" lon="15.27702909" >
      <name>rte1_176</name>
      <ele>205.00</ele>
    </rtept>
    <rtept lat="45.61153356" lon="15.27712532" >
      <name>rte1_177</name>
      <ele>205.00</ele>
    </rtept>
    <rtept lat="45.61154681" lon="15.27722796" >
      <name>rte1_178</name>
      <ele>205.00</ele>
    </rtept>
    <rtept lat="45.61155104" lon="15.27733696" >
      <name>rte1_179</name>
      <ele>203.84</ele>
    </rtept>
    <rtept lat="45.61155975" lon="15.27745239" >
      <name>rte1_180</name>
      <ele>203.84</ele>
    </rtept>
    <rtept lat="45.61155952" lon="15.27754855" >
      <name>rte1_181</name>
      <ele>203.84</ele>
    </rtept>
    <rtept lat="45.61156378" lon="15.27764473" >
      <name>rte1_182</name>
      <ele>199.55</ele>
    </rtept>
    <rtept lat="45.61156356" lon="15.27773448" >
      <name>rte1_183</name>
      <ele>199.55</ele>
    </rtept>
    <rtept lat="45.61155884" lon="15.27782421" >
      <name>rte1_184</name>
      <ele>199.55</ele>
    </rtept>
    <rtept lat="45.61154966" lon="15.27790109" >
      <name>rte1_185</name>
      <ele>199.55</ele>
    </rtept>
    <rtept lat="45.61153147" lon="15.27797793" >
      <name>rte1_186</name>
      <ele>197.53</ele>
    </rtept>
    <rtept lat="45.61149529" lon="15.27805468" >
      <name>rte1_187</name>
      <ele>197.53</ele>
    </rtept>
    <rtept lat="45.61145014" lon="15.27811856" >
      <name>rte1_188</name>
      <ele>197.90</ele>
    </rtept>
    <rtept lat="45.61140506" lon="15.27815680" >
      <name>rte1_189</name>
      <ele>197.90</ele>
    </rtept>
    <rtept lat="45.61135997" lon="15.27819504" >
      <name>rte1_190</name>
      <ele>197.90</ele>
    </rtept>
    <rtept lat="45.61131939" lon="15.27823330" >
      <name>rte1_191</name>
      <ele>197.90</ele>
    </rtept>
    <rtept lat="45.61127432" lon="15.27826513" >
      <name>rte1_192</name>
      <ele>193.01</ele>
    </rtept>
    <rtept lat="45.61123375" lon="15.27829698" >
      <name>rte1_193</name>
      <ele>192.91</ele>
    </rtept>
    <rtept lat="45.61119318" lon="15.27832883" >
      <name>rte1_194</name>
      <ele>192.91</ele>
    </rtept>
    <rtept lat="45.61115262" lon="15.27835427" >
      <name>rte1_195</name>
      <ele>192.91</ele>
    </rtept>
    <rtept lat="45.61111205" lon="15.27838612" >
      <name>rte1_196</name>
      <ele>192.91</ele>
    </rtept>
    <rtept lat="45.61103544" lon="15.27843703" >
      <name>rte1_197</name>
      <ele>192.91</ele>
    </rtept>
    <rtept lat="45.61095884" lon="15.27848152" >
      <name>rte1_198</name>
      <ele>193.92</ele>
    </rtept>
    <rtept lat="45.61088226" lon="15.27851960" >
      <name>rte1_199</name>
      <ele>193.92</ele>
    </rtept>
    <rtept lat="45.61080567" lon="15.27856409" >
      <name>rte1_200</name>
      <ele>193.92</ele>
    </rtept>
    <rtept lat="45.61072461" lon="15.27859574" >
      <name>rte1_201</name>
      <ele>186.15</ele>
    </rtept>
    <rtept lat="45.61064803" lon="15.27863382" >
      <name>rte1_202</name>
      <ele>186.15</ele>
    </rtept>
    <rtept lat="45.61056695" lon="15.27867188" >
      <name>rte1_203</name>
      <ele>187.59</ele>
    </rtept>
    <rtept lat="45.61048587" lon="15.27870994" >
      <name>rte1_204</name>
      <ele>187.59</ele>
    </rtept>
    <rtept lat="45.61040029" lon="15.27874798" >
      <name>rte1_205</name>
      <ele>187.59</ele>
    </rtept>
    <rtept lat="45.61035525" lon="15.27876699" >
      <name>rte1_206</name>
      <ele>187.59</ele>
    </rtept>
    <rtept lat="45.61031020" lon="15.27879240" >
      <name>rte1_207</name>
      <ele>190.00</ele>
    </rtept>
    <rtept lat="45.61026514" lon="15.27881782" >
      <name>rte1_208</name>
      <ele>190.00</ele>
    </rtept>
    <rtept lat="45.61022011" lon="15.27883683" >
      <name>rte1_209</name>
      <ele>190.00</ele>
    </rtept>
    <rtept lat="45.61017055" lon="15.27886222" >
      <name>rte1_210</name>
      <ele>190.00</ele>
    </rtept>
    <rtept lat="45.61012548" lon="15.27889405" >
      <name>rte1_211</name>
      <ele>190.00</ele>
    </rtept>
    <rtept lat="45.61003992" lon="15.27892568" >
      <name>rte1_212</name>
      <ele>180.00</ele>
    </rtept>
    <rtept lat="45.60995889" lon="15.27894450" >
      <name>rte1_213</name>
      <ele>180.00</ele>
    </rtept>
    <rtept lat="45.60988239" lon="15.27895053" >
      <name>rte1_214</name>
      <ele>180.00</ele>
    </rtept>
    <rtept lat="45.60980592" lon="15.27894374" >
      <name>rte1_215</name>
      <ele>180.00</ele>
    </rtept>
    <rtept lat="45.60972948" lon="15.27892413" >
      <name>rte1_216</name>
      <ele>180.00</ele>
    </rtept>
    <rtept lat="45.60966209" lon="15.27888533" >
      <name>rte1_217</name>
      <ele>180.00</ele>
    </rtept>
    <rtept lat="45.60959471" lon="15.27884012" >
      <name>rte1_218</name>
      <ele>180.00</ele>
    </rtept>
    <rtept lat="45.60953187" lon="15.27878211" >
      <name>rte1_219</name>
      <ele>180.00</ele>
    </rtept>
    <rtept lat="45.60947742" lon="15.27896774" >
      <name>rte1_220</name>
      <ele>180.00</ele>
    </rtept>
    <rtept lat="45.60949008" lon="15.27930756" >
      <name>rte1_221</name>
      <ele>174.09</ele>
    </rtept>
    <rtept lat="45.60959711" lon="15.27969272" >
      <name>rte1_222</name>
      <ele>170.00</ele>
    </rtept>
    <rtept lat="45.60973152" lon="15.27992417" >
      <name>rte1_223</name>
      <ele>160.00</ele>
    </rtept>
    <rtept lat="45.60998323" lon="15.28002159" >
      <name>rte1_224</name>
      <ele>160.00</ele>
    </rtept>
    <rtept lat="45.61023037" lon="15.28015103" >
      <name>rte1_225</name>
      <ele>160.00</ele>
    </rtept>
    <rtept lat="45.61045485" lon="15.28034448" >
      <name>rte1_226</name>
      <ele>156.50</ele>
    </rtept>
    <rtept lat="45.61048175" lon="15.28038307" >
      <name>rte1_227</name>
      <ele>156.50</ele>
    </rtept>
    <rtept lat="45.61077821" lon="15.28057688" >
      <name>rte1_228</name>
      <ele>150.00</ele>
    </rtept>
    <rtept lat="45.61081856" lon="15.28063478" >
      <name>rte1_229</name>
      <ele>150.00</ele>
    </rtept>
    <rtept lat="45.61085438" lon="15.28070547" >
      <name>rte1_230</name>
      <ele>150.00</ele>
    </rtept>
    <rtept lat="45.61088567" lon="15.28078897" >
      <name>rte1_231</name>
      <ele>150.00</ele>
    </rtept>
    <rtept lat="45.61091691" lon="15.28089169" >
      <name>rte1_232</name>
      <ele>147.70</ele>
    </rtept>
    <rtept lat="45.61094365" lon="15.28099440" >
      <name>rte1_233</name>
      <ele>147.70</ele>
    </rtept>
    <rtept lat="45.61096141" lon="15.28109065" >
      <name>rte1_234</name>
      <ele>147.70</ele>
    </rtept>
    <rtept lat="45.61097918" lon="15.28118048" >
      <name>rte1_235</name>
      <ele>146.50</ele>
    </rtept>
    <rtept lat="45.61098796" lon="15.28127028" >
      <name>rte1_236</name>
      <ele>146.50</ele>
    </rtept>
    <rtept lat="45.61099224" lon="15.28136005" >
      <name>rte1_237</name>
      <ele>146.50</ele>
    </rtept>
    <rtept lat="45.61099650" lon="15.28145623" >
      <name>rte1_238</name>
      <ele>146.50</ele>
    </rtept>
    <rtept lat="45.61099174" lon="15.28155877" >
      <name>rte1_239</name>
      <ele>145.00</ele>
    </rtept>
    <rtept lat="45.61098696" lon="15.28167414" >
      <name>rte1_240</name>
      <ele>145.00</ele>
    </rtept>
    <rtept lat="45.61092786" lon="15.28191744" >
      <name>rte1_241</name>
      <ele>145.00</ele>
    </rtept>
    <rtept lat="45.61086950" lon="15.28186586" >
      <name>rte1_242</name>
      <ele>145.00</ele>
    </rtept>
    <rtept lat="45.61081113" lon="15.28182070" >
      <name>rte1_243</name>
      <ele>145.00</ele>
    </rtept>
    <rtept lat="45.61074374" lon="15.28178189" >
      <name>rte1_244</name>
      <ele>145.00</ele>
    </rtept>
    <rtept lat="45.61067634" lon="15.28174309" >
      <name>rte1_245</name>
      <ele>145.00</ele>
    </rtept>
    <rtept lat="45.61062242" lon="15.28171718" >
      <name>rte1_246</name>
      <ele>145.00</ele>
    </rtept>
    <rtept lat="45.61057747" lon="15.28169772" >
      <name>rte1_247</name>
      <ele>145.00</ele>
    </rtept>
    <rtept lat="45.61052802" lon="15.28168465" >
      <name>rte1_248</name>
      <ele>145.00</ele>
    </rtept>
    <rtept lat="45.61048754" lon="15.28167803" >
      <name>rte1_249</name>
      <ele>145.00</ele>
    </rtept>
    <rtept lat="45.61040207" lon="15.28167119" >
      <name>rte1_250</name>
      <ele>145.00</ele>
    </rtept>
    <rtept lat="45.61032110" lon="15.28166437" >
      <name>rte1_251</name>
      <ele>145.00</ele>
    </rtept>
    <rtept lat="45.61024012" lon="15.28166397" >
      <name>rte1_252</name>
      <ele>145.00</ele>
    </rtept>
    <rtept lat="45.61015917" lon="15.28165074" >
      <name>rte1_253</name>
      <ele>145.00</ele>
    </rtept>
    <rtept lat="45.61007376" lon="15.28161825" >
      <name>rte1_254</name>
      <ele>142.60</ele>
    </rtept>
    <rtept lat="45.61003332" lon="15.28159882" >
      <name>rte1_255</name>
      <ele>142.60</ele>
    </rtept>
    <rtept lat="45.60998839" lon="15.28157295" >
      <name>rte1_256</name>
      <ele>142.60</ele>
    </rtept>
    <rtept lat="45.60991207" lon="15.28150846" >
      <name>rte1_257</name>
      <ele>142.60</ele>
    </rtept>
    <rtept lat="45.60984924" lon="15.28144404" >
      <name>rte1_258</name>
      <ele>145.00</ele>
    </rtept>
    <rtept lat="45.60979541" lon="15.28137966" >
      <name>rte1_259</name>
      <ele>145.00</ele>
    </rtept>
    <rtept lat="45.60974609" lon="15.28130890" >
      <name>rte1_260</name>
      <ele>145.00</ele>
    </rtept>
    <rtept lat="45.60969678" lon="15.28123814" >
      <name>rte1_261</name>
      <ele>145.00</ele>
    </rtept>
    <rtept lat="45.60964295" lon="15.28117376" >
      <name>rte1_262</name>
      <ele>145.00</ele>
    </rtept>
    <rtept lat="45.60958463" lon="15.28110295" >
      <name>rte1_263</name>
      <ele>145.00</ele>
    </rtept>
    <rtept lat="45.60951730" lon="15.28103851" >
      <name>rte1_264</name>
      <ele>145.00</ele>
    </rtept>
    <rtept lat="45.60945894" lon="15.28098693" >
      <name>rte1_265</name>
      <ele>145.00</ele>
    </rtept>
    <rtept lat="45.60940056" lon="15.28094177" >
      <name>rte1_266</name>
      <ele>145.00</ele>
    </rtept>
    <rtept lat="45.60934219" lon="15.28089660" >
      <name>rte1_267</name>
      <ele>145.00</ele>
    </rtept>
    <rtept lat="45.60928829" lon="15.28085787" >
      <name>rte1_268</name>
      <ele>145.00</ele>
    </rtept>
    <rtept lat="45.60922990" lon="15.28081911" >
      <name>rte1_269</name>
      <ele>145.00</ele>
    </rtept>
    <rtept lat="45.60917600" lon="15.28078038" >
      <name>rte1_270</name>
      <ele>145.76</ele>
    </rtept>
    <rtept lat="45.60911760" lon="15.28074803" >
      <name>rte1_271</name>
      <ele>145.76</ele>
    </rtept>
    <rtept lat="45.60906367" lon="15.28072212" >
      <name>rte1_272</name>
      <ele>145.76</ele>
    </rtept>
    <rtept lat="45.60900976" lon="15.28068980" >
      <name>rte1_273</name>
      <ele>145.76</ele>
    </rtept>
    <rtept lat="45.60895583" lon="15.28066389" >
      <name>rte1_274</name>
      <ele>145.00</ele>
    </rtept>
    <rtept lat="45.60890642" lon="15.28063159" >
      <name>rte1_275</name>
      <ele>145.00</ele>
    </rtept>
    <rtept lat="45.60885250" lon="15.28060568" >
      <name>rte1_276</name>
      <ele>145.00</ele>
    </rtept>
    <rtept lat="45.60880307" lon="15.28057979" >
      <name>rte1_277</name>
      <ele>145.00</ele>
    </rtept>
    <rtept lat="45.60874914" lon="15.28055387" >
      <name>rte1_278</name>
      <ele>140.00</ele>
    </rtept>
    <rtept lat="45.60869972" lon="15.28052798" >
      <name>rte1_279</name>
      <ele>140.00</ele>
    </rtept>
    <rtept lat="45.60865029" lon="15.28050210" >
      <name>rte1_280</name>
      <ele>140.00</ele>
    </rtept>
    <rtept lat="45.60860088" lon="15.28046980" >
      <name>rte1_281</name>
      <ele>142.55</ele>
    </rtept>
    <rtept lat="45.60855595" lon="15.28044393" >
      <name>rte1_282</name>
      <ele>142.55</ele>
    </rtept>
    <rtept lat="45.60850654" lon="15.28041163" >
      <name>rte1_283</name>
      <ele>140.43</ele>
    </rtept>
    <rtept lat="45.60846163" lon="15.28037935" >
      <name>rte1_284</name>
      <ele>140.43</ele>
    </rtept>
    <rtept lat="45.60841223" lon="15.28034064" >
      <name>rte1_285</name>
      <ele>140.43</ele>
    </rtept>
    <rtept lat="45.60836734" lon="15.28030196" >
      <name>rte1_286</name>
      <ele>140.43</ele>
    </rtept>
    <rtept lat="45.60832694" lon="15.28026329" >
      <name>rte1_287</name>
      <ele>140.43</ele>
    </rtept>
    <rtept lat="45.60828204" lon="15.28022461" >
      <name>rte1_288</name>
      <ele>139.40</ele>
    </rtept>
    <rtept lat="45.60823718" lon="15.28017310" >
      <name>rte1_289</name>
      <ele>139.40</ele>
    </rtept>
    <rtept lat="45.60819680" lon="15.28012802" >
      <name>rte1_290</name>
      <ele>140.00</ele>
    </rtept>
    <rtept lat="45.60815645" lon="15.28007013" >
      <name>rte1_291</name>
      <ele>140.00</ele>
    </rtept>
    <rtept lat="45.60811610" lon="15.28001223" >
      <name>rte1_292</name>
      <ele>140.00</ele>
    </rtept>
    <rtept lat="45.60807576" lon="15.27994793" >
      <name>rte1_293</name>
      <ele>138.68</ele>
    </rtept>
    <rtept lat="45.60803993" lon="15.27988365" >
      <name>rte1_294</name>
      <ele>138.68</ele>
    </rtept>
    <rtept lat="45.60800411" lon="15.27981296" >
      <name>rte1_295</name>
      <ele>140.00</ele>
    </rtept>
    <rtept lat="45.60796831" lon="15.27973585" >
      <name>rte1_296</name>
      <ele>140.00</ele>
    </rtept>
    <rtept lat="45.60795937" lon="15.27971017" >
      <name>rte1_297</name>
      <ele>140.00</ele>
    </rtept>
    <rtept lat="45.60795042" lon="15.27969089" >
      <name>rte1_298</name>
      <ele>140.00</ele>
    </rtept>
    <rtept lat="45.60779851" lon="15.27926065" >
      <name>rte1_299</name>
      <ele>140.00</ele>
    </rtept>
    <rtept lat="45.60775816" lon="15.27920275" >
      <name>rte1_300</name>
      <ele>140.00</ele>
    </rtept>
    <rtept lat="45.60772227" lon="15.27915770" >
      <name>rte1_301</name>
      <ele>140.00</ele>
    </rtept>
    <rtept lat="45.60768639" lon="15.27911265" >
      <name>rte1_302</name>
      <ele>140.00</ele>
    </rtept>
    <rtept lat="45.60765049" lon="15.27907401" >
      <name>rte1_303</name>
      <ele>140.00</ele>
    </rtept>
    <rtept lat="45.60757867" lon="15.27900955" >
      <name>rte1_304</name>
      <ele>140.00</ele>
    </rtept>
    <rtept lat="45.60750231" lon="15.27895789" >
      <name>rte1_305</name>
      <ele>140.00</ele>
    </rtept>
    <rtept lat="45.60742142" lon="15.27891902" >
      <name>rte1_306</name>
      <ele>140.00</ele>
    </rtept>
    <rtept lat="45.60733601" lon="15.27888654" >
      <name>rte1_307</name>
      <ele>140.00</ele>
    </rtept>
    <rtept lat="45.60729107" lon="15.27886709" >
      <name>rte1_308</name>
      <ele>140.00</ele>
    </rtept>
    <rtept lat="45.60724611" lon="15.27885405" >
      <name>rte1_309</name>
      <ele>140.00</ele>
    </rtept>
    <rtept lat="45.60719665" lon="15.27884098" >
      <name>rte1_310</name>
      <ele>140.00</ele>
    </rtept>
    <rtept lat="45.60714719" lon="15.27882791" >
      <name>rte1_311</name>
      <ele>140.00</ele>
    </rtept>
    <rtept lat="45.60706630" lon="15.27878905" >
      <name>rte1_312</name>
      <ele>140.00</ele>
    </rtept>
    <rtept lat="45.60699892" lon="15.27874384" >
      <name>rte1_313</name>
      <ele>140.00</ele>
    </rtept>
    <rtept lat="45.60694058" lon="15.27868586" >
      <name>rte1_314</name>
      <ele>137.50</ele>
    </rtept>
    <rtept lat="45.60689124" lon="15.27862151" >
      <name>rte1_315</name>
      <ele>137.50</ele>
    </rtept>
    <rtept lat="45.60684193" lon="15.27855075" >
      <name>rte1_316</name>
      <ele>138.40</ele>
    </rtept>
    <rtept lat="45.60678814" lon="15.27846715" >
      <name>rte1_317</name>
      <ele>138.40</ele>
    </rtept>
    <rtept lat="45.60673434" lon="15.27838996" >
      <name>rte1_318</name>
      <ele>137.50</ele>
    </rtept>
    <rtept lat="45.60667606" lon="15.27830634" >
      <name>rte1_319</name>
      <ele>137.50</ele>
    </rtept>
    <rtept lat="45.60663121" lon="15.27824843" >
      <name>rte1_320</name>
      <ele>137.50</ele>
    </rtept>
    <rtept lat="45.60658636" lon="15.27819051" >
      <name>rte1_321</name>
      <ele>137.50</ele>
    </rtept>
    <rtept lat="45.60654601" lon="15.27813262" >
      <name>rte1_322</name>
      <ele>137.50</ele>
    </rtept>
    <rtept lat="45.60650564" lon="15.27808114" >
      <name>rte1_323</name>
      <ele>137.50</ele>
    </rtept>
    <rtept lat="45.60646527" lon="15.27802966" >
      <name>rte1_324</name>
      <ele>137.50</ele>
    </rtept>
    <rtept lat="45.60642941" lon="15.27797820" >
      <name>rte1_325</name>
      <ele>137.50</ele>
    </rtept>
    <rtept lat="45.60639354" lon="15.27792674" >
      <name>rte1_326</name>
      <ele>137.50</ele>
    </rtept>
    <rtept lat="45.60635767" lon="15.27787528" >
      <name>rte1_327</name>
      <ele>137.50</ele>
    </rtept>
    <rtept lat="45.60632180" lon="15.27782382" >
      <name>rte1_328</name>
      <ele>137.50</ele>
    </rtept>
    <rtept lat="45.60629044" lon="15.27777239" >
      <name>rte1_329</name>
      <ele>137.50</ele>
    </rtept>
    <rtept lat="45.60625455" lon="15.27772734" >
      <name>rte1_330</name>
      <ele>137.50</ele>
    </rtept>
    <rtept lat="45.60622318" lon="15.27767590" >
      <name>rte1_331</name>
      <ele>137.50</ele>
    </rtept>
    <rtept lat="45.60616042" lon="15.27758585" >
      <name>rte1_332</name>
      <ele>137.50</ele>
    </rtept>
    <rtept lat="45.60612455" lon="15.27753439" >
      <name>rte1_333</name>
      <ele>137.50</ele>
    </rtept>
    <rtept lat="45.60609316" lon="15.27748937" >
      <name>rte1_334</name>
      <ele>137.50</ele>
    </rtept>
    <rtept lat="45.60603040" lon="15.27739931" >
      <name>rte1_335</name>
      <ele>137.50</ele>
    </rtept>
    <rtept lat="45.60599451" lon="15.27735426" >
      <name>rte1_336</name>
      <ele>137.50</ele>
    </rtept>
    <rtept lat="45.60596313" lon="15.27730924" >
      <name>rte1_337</name>
      <ele>137.50</ele>
    </rtept>
    <rtept lat="45.60592725" lon="15.27726419" >
      <name>rte1_338</name>
      <ele>137.50</ele>
    </rtept>
    <rtept lat="45.60589136" lon="15.27721914" >
      <name>rte1_339</name>
      <ele>137.50</ele>
    </rtept>
    <rtept lat="45.60585548" lon="15.27717409" >
      <name>rte1_340</name>
      <ele>137.50</ele>
    </rtept>
    <rtept lat="45.60581510" lon="15.27712902" >
      <name>rte1_341</name>
      <ele>137.50</ele>
    </rtept>
    <rtept lat="45.60577920" lon="15.27709039" >
      <name>rte1_342</name>
      <ele>137.50</ele>
    </rtept>
    <rtept lat="45.60573881" lon="15.27704532" >
      <name>rte1_343</name>
      <ele>137.50</ele>
    </rtept>
    <rtept lat="45.60569843" lon="15.27700025" >
      <name>rte1_344</name>
      <ele>137.50</ele>
    </rtept>
    <rtept lat="45.60565355" lon="15.27695515" >
      <name>rte1_345</name>
      <ele>137.50</ele>
    </rtept>
    <rtept lat="45.60560867" lon="15.27691006" >
      <name>rte1_346</name>
      <ele>136.80</ele>
    </rtept>
    <rtept lat="45.60556379" lon="15.27686497" >
      <name>rte1_347</name>
      <ele>136.80</ele>
    </rtept>
    <rtept lat="45.60551441" lon="15.27681985" >
      <name>rte1_348</name>
      <ele>136.80</ele>
    </rtept>
    <rtept lat="45.60546501" lon="15.27678115" >
      <name>rte1_349</name>
      <ele>136.80</ele>
    </rtept>
    <rtept lat="45.60540666" lon="15.27672317" >
      <name>rte1_350</name>
      <ele>136.80</ele>
    </rtept>
    <rtept lat="45.60535284" lon="15.27665240" >
      <name>rte1_351</name>
      <ele>135.80</ele>
    </rtept>
    <rtept lat="45.60530354" lon="15.27657523" >
      <name>rte1_352</name>
      <ele>136.70</ele>
    </rtept>
    <rtept lat="45.60524977" lon="15.27648523" >
      <name>rte1_353</name>
      <ele>136.70</ele>
    </rtept>
    <rtept lat="45.60520053" lon="15.27638242" >
      <name>rte1_354</name>
      <ele>136.70</ele>
    </rtept>
    <rtept lat="45.60515129" lon="15.27627962" >
      <name>rte1_355</name>
      <ele>137.50</ele>
    </rtept>
    <rtept lat="45.60510656" lon="15.27617043" >
      <name>rte1_356</name>
      <ele>137.50</ele>
    </rtept>
    <rtept lat="45.60508421" lon="15.27611263" >
      <name>rte1_357</name>
      <ele>137.50</ele>
    </rtept>
    <rtept lat="45.60506185" lon="15.27605483" >
      <name>rte1_358</name>
      <ele>137.50</ele>
    </rtept>
    <rtept lat="45.60503950" lon="15.27599703" >
      <name>rte1_359</name>
      <ele>137.50</ele>
    </rtept>
    <rtept lat="45.60501714" lon="15.27593923" >
      <name>rte1_360</name>
      <ele>137.50</ele>
    </rtept>
    <rtept lat="45.60499479" lon="15.27588143" >
      <name>rte1_361</name>
      <ele>137.50</ele>
    </rtept>
    <rtept lat="45.60497243" lon="15.27582363" >
      <name>rte1_362</name>
      <ele>137.50</ele>
    </rtept>
    <rtept lat="45.60495008" lon="15.27576583" >
      <name>rte1_363</name>
      <ele>137.50</ele>
    </rtept>
    <rtept lat="45.60493222" lon="15.27570806" >
      <name>rte1_364</name>
      <ele>137.50</ele>
    </rtept>
    <rtept lat="45.60490986" lon="15.27565026" >
      <name>rte1_365</name>
      <ele>137.50</ele>
    </rtept>
    <rtept lat="45.60489201" lon="15.27559248" >
      <name>rte1_366</name>
      <ele>137.50</ele>
    </rtept>
    <rtept lat="45.60485628" lon="15.27548334" >
      <name>rte1_367</name>
      <ele>137.50</ele>
    </rtept>
    <rtept lat="45.60482053" lon="15.27538060" >
      <name>rte1_368</name>
      <ele>137.50</ele>
    </rtept>
    <rtept lat="45.60478477" lon="15.27528428" >
      <name>rte1_369</name>
      <ele>138.00</ele>
    </rtept>
    <rtept lat="45.60475348" lon="15.27520079" >
      <name>rte1_370</name>
      <ele>138.00</ele>
    </rtept>
  </rte>
</gpx>
