<?xml version="1.0" encoding="UTF-8" standalone="no" ?>
<gpx xmlns="http://www.topografix.com/GPX/1/1"
creator="OCAD 2020.5.5.3227" version="1.1"
xmlns:xsi="http://www.w3.org/2001/XMLSchema-instance" 
xsi:schemaLocation="http://www.topografix.com/GPX/1/1 
http://www.topografix.com/GPX/1/1/gpx.xsd">

  <metadata>
    <name>Urbanova pot</name>
    <desc>Bela krajina - Urbanova pot</desc>
    <time>2020-11-05T08:41:23</time>
    <bounds maxlat="45.86687249" maxlon="15.60571704" minlat="45.32979540" minlon="14.93303760"/>
  </metadata>

  <rte>
    <name>rte1</name>
    <cmt>pohodne poti za izris profilov</cmt>
    <rtept lat="45.65399930" lon="15.31247383" >
      <name>rte1_0</name>
      <ele>165.00</ele>
    </rtept>
    <rtept lat="45.65399952" lon="15.31239685" >
      <name>rte1_1</name>
      <ele>165.00</ele>
    </rtept>
    <rtept lat="45.65400428" lon="15.31230064" >
      <name>rte1_2</name>
      <ele>165.00</ele>
    </rtept>
    <rtept lat="45.65400910" lon="15.31218519" >
      <name>rte1_3</name>
      <ele>165.00</ele>
    </rtept>
    <rtept lat="45.65401393" lon="15.31206332" >
      <name>rte1_4</name>
      <ele>165.00</ele>
    </rtept>
    <rtept lat="45.65401428" lon="15.31193501" >
      <name>rte1_5</name>
      <ele>165.00</ele>
    </rtept>
    <rtept lat="45.65401458" lon="15.31182595" >
      <name>rte1_6</name>
      <ele>165.00</ele>
    </rtept>
    <rtept lat="45.65400585" lon="15.31172967" >
      <name>rte1_7</name>
      <ele>165.00</ele>
    </rtept>
    <rtept lat="45.65399255" lon="15.31165903" >
      <name>rte1_8</name>
      <ele>165.00</ele>
    </rtept>
    <rtept lat="45.65397023" lon="15.31159475" >
      <name>rte1_9</name>
      <ele>165.00</ele>
    </rtept>
    <rtept lat="45.65394791" lon="15.31153047" >
      <name>rte1_10</name>
      <ele>165.00</ele>
    </rtept>
    <rtept lat="45.65392557" lon="15.31147260" >
      <name>rte1_11</name>
      <ele>165.00</ele>
    </rtept>
    <rtept lat="45.65390775" lon="15.31140835" >
      <name>rte1_12</name>
      <ele>165.00</ele>
    </rtept>
    <rtept lat="45.65388541" lon="15.31135048" >
      <name>rte1_13</name>
      <ele>165.00</ele>
    </rtept>
    <rtept lat="45.65386757" lon="15.31129265" >
      <name>rte1_14</name>
      <ele>165.00</ele>
    </rtept>
    <rtept lat="45.65384524" lon="15.31123478" >
      <name>rte1_15</name>
      <ele>165.00</ele>
    </rtept>
    <rtept lat="45.65382740" lon="15.31117694" >
      <name>rte1_16</name>
      <ele>167.50</ele>
    </rtept>
    <rtept lat="45.65379171" lon="15.31106768" >
      <name>rte1_17</name>
      <ele>167.50</ele>
    </rtept>
    <rtept lat="45.65376051" lon="15.31095844" >
      <name>rte1_18</name>
      <ele>167.50</ele>
    </rtept>
    <rtept lat="45.65372932" lon="15.31084921" >
      <name>rte1_19</name>
      <ele>167.90</ele>
    </rtept>
    <rtept lat="45.65370712" lon="15.31074002" >
      <name>rte1_20</name>
      <ele>167.90</ele>
    </rtept>
    <rtept lat="45.65368942" lon="15.31063086" >
      <name>rte1_21</name>
      <ele>167.90</ele>
    </rtept>
    <rtept lat="45.65367622" lon="15.31052172" >
      <name>rte1_22</name>
      <ele>171.29</ele>
    </rtept>
    <rtept lat="45.65366752" lon="15.31041261" >
      <name>rte1_23</name>
      <ele>171.29</ele>
    </rtept>
    <rtept lat="45.65367232" lon="15.31030357" >
      <name>rte1_24</name>
      <ele>171.29</ele>
    </rtept>
    <rtept lat="45.65368163" lon="15.31018815" >
      <name>rte1_25</name>
      <ele>173.51</ele>
    </rtept>
    <rtept lat="45.65369994" lon="15.31007277" >
      <name>rte1_26</name>
      <ele>170.00</ele>
    </rtept>
    <rtept lat="45.65372725" lon="15.30995744" >
      <name>rte1_27</name>
      <ele>170.00</ele>
    </rtept>
    <rtept lat="45.65374542" lon="15.30989339" >
      <name>rte1_28</name>
      <ele>170.00</ele>
    </rtept>
    <rtept lat="45.65376808" lon="15.30983578" >
      <name>rte1_29</name>
      <ele>170.00</ele>
    </rtept>
    <rtept lat="45.65379077" lon="15.30976533" >
      <name>rte1_30</name>
      <ele>170.00</ele>
    </rtept>
    <rtept lat="45.65382243" lon="15.30970135" >
      <name>rte1_31</name>
      <ele>170.00</ele>
    </rtept>
    <rtept lat="45.65384959" lon="15.30964376" >
      <name>rte1_32</name>
      <ele>170.00</ele>
    </rtept>
    <rtept lat="45.65388120" lon="15.30959903" >
      <name>rte1_33</name>
      <ele>170.00</ele>
    </rtept>
    <rtept lat="45.65391282" lon="15.30955430" >
      <name>rte1_34</name>
      <ele>175.00</ele>
    </rtept>
    <rtept lat="45.65394893" lon="15.30950959" >
      <name>rte1_35</name>
      <ele>175.00</ele>
    </rtept>
    <rtept lat="45.65398503" lon="15.30947130" >
      <name>rte1_36</name>
      <ele>175.00</ele>
    </rtept>
    <rtept lat="45.65402561" lon="15.30943944" >
      <name>rte1_37</name>
      <ele>175.00</ele>
    </rtept>
    <rtept lat="45.65406171" lon="15.30940115" >
      <name>rte1_38</name>
      <ele>175.00</ele>
    </rtept>
    <rtept lat="45.65410229" lon="15.30936930" >
      <name>rte1_39</name>
      <ele>175.00</ele>
    </rtept>
    <rtept lat="45.65414738" lon="15.30933105" >
      <name>rte1_40</name>
      <ele>175.00</ele>
    </rtept>
    <rtept lat="45.65418796" lon="15.30929920" >
      <name>rte1_41</name>
      <ele>175.00</ele>
    </rtept>
    <rtept lat="45.65423306" lon="15.30926096" >
      <name>rte1_42</name>
      <ele>175.00</ele>
    </rtept>
    <rtept lat="45.65427817" lon="15.30921630" >
      <name>rte1_43</name>
      <ele>175.00</ele>
    </rtept>
    <rtept lat="45.65432778" lon="15.30917166" >
      <name>rte1_44</name>
      <ele>175.00</ele>
    </rtept>
    <rtept lat="45.65437739" lon="15.30912703" >
      <name>rte1_45</name>
      <ele>176.80</ele>
    </rtept>
    <rtept lat="45.65465656" lon="15.30904517" >
      <name>rte1_46</name>
      <ele>178.61</ele>
    </rtept>
    <rtept lat="45.65469268" lon="15.30900046" >
      <name>rte1_47</name>
      <ele>178.61</ele>
    </rtept>
    <rtept lat="45.65473329" lon="15.30895578" >
      <name>rte1_48</name>
      <ele>178.61</ele>
    </rtept>
    <rtept lat="45.65479201" lon="15.30887270" >
      <name>rte1_49</name>
      <ele>180.00</ele>
    </rtept>
    <rtept lat="45.65485072" lon="15.30878962" >
      <name>rte1_50</name>
      <ele>180.00</ele>
    </rtept>
    <rtept lat="45.65490042" lon="15.30871291" >
      <name>rte1_51</name>
      <ele>180.00</ele>
    </rtept>
    <rtept lat="45.65495012" lon="15.30863620" >
      <name>rte1_52</name>
      <ele>180.00</ele>
    </rtept>
    <rtept lat="45.65499532" lon="15.30855946" >
      <name>rte1_53</name>
      <ele>180.50</ele>
    </rtept>
    <rtept lat="45.65503602" lon="15.30848270" >
      <name>rte1_54</name>
      <ele>180.50</ele>
    </rtept>
    <rtept lat="45.65507224" lon="15.30839949" >
      <name>rte1_55</name>
      <ele>181.20</ele>
    </rtept>
    <rtept lat="45.65511294" lon="15.30832273" >
      <name>rte1_56</name>
      <ele>181.20</ele>
    </rtept>
    <rtept lat="45.65514914" lon="15.30824594" >
      <name>rte1_57</name>
      <ele>182.00</ele>
    </rtept>
    <rtept lat="45.65518536" lon="15.30816274" >
      <name>rte1_58</name>
      <ele>182.00</ele>
    </rtept>
    <rtept lat="45.65522156" lon="15.30808595" >
      <name>rte1_59</name>
      <ele>182.00</ele>
    </rtept>
    <rtept lat="45.65526228" lon="15.30800277" >
      <name>rte1_60</name>
      <ele>182.00</ele>
    </rtept>
    <rtept lat="45.65530751" lon="15.30791320" >
      <name>rte1_61</name>
      <ele>185.00</ele>
    </rtept>
    <rtept lat="45.65535273" lon="15.30783005" >
      <name>rte1_62</name>
      <ele>185.00</ele>
    </rtept>
    <rtept lat="45.65540246" lon="15.30774050" >
      <name>rte1_63</name>
      <ele>185.00</ele>
    </rtept>
    <rtept lat="45.65545670" lon="15.30765098" >
      <name>rte1_64</name>
      <ele>185.00</ele>
    </rtept>
    <rtept lat="45.65550190" lon="15.30757424" >
      <name>rte1_65</name>
      <ele>185.00</ele>
    </rtept>
    <rtept lat="45.65554260" lon="15.30749748" >
      <name>rte1_66</name>
      <ele>185.00</ele>
    </rtept>
    <rtept lat="45.65558776" lon="15.30743357" >
      <name>rte1_67</name>
      <ele>185.00</ele>
    </rtept>
    <rtept lat="45.65563292" lon="15.30736966" >
      <name>rte1_68</name>
      <ele>185.00</ele>
    </rtept>
    <rtept lat="45.65567359" lon="15.30730573" >
      <name>rte1_69</name>
      <ele>185.00</ele>
    </rtept>
    <rtept lat="45.65571874" lon="15.30724824" >
      <name>rte1_70</name>
      <ele>185.00</ele>
    </rtept>
    <rtept lat="45.65575938" lon="15.30719072" >
      <name>rte1_71</name>
      <ele>185.00</ele>
    </rtept>
    <rtept lat="45.65580003" lon="15.30713320" >
      <name>rte1_72</name>
      <ele>185.00</ele>
    </rtept>
    <rtept lat="45.65584068" lon="15.30707568" >
      <name>rte1_73</name>
      <ele>185.00</ele>
    </rtept>
    <rtept lat="45.65588131" lon="15.30702458" >
      <name>rte1_74</name>
      <ele>185.00</ele>
    </rtept>
    <rtept lat="45.65592194" lon="15.30697348" >
      <name>rte1_75</name>
      <ele>185.00</ele>
    </rtept>
    <rtept lat="45.65596257" lon="15.30692238" >
      <name>rte1_76</name>
      <ele>185.00</ele>
    </rtept>
    <rtept lat="45.65600320" lon="15.30687127" >
      <name>rte1_77</name>
      <ele>185.00</ele>
    </rtept>
    <rtept lat="45.65604385" lon="15.30681376" >
      <name>rte1_78</name>
      <ele>185.00</ele>
    </rtept>
    <rtept lat="45.65608448" lon="15.30676265" >
      <name>rte1_79</name>
      <ele>185.00</ele>
    </rtept>
    <rtept lat="45.65612511" lon="15.30671155" >
      <name>rte1_80</name>
      <ele>185.00</ele>
    </rtept>
    <rtept lat="45.65625524" lon="15.30684058" >
      <name>rte1_81</name>
      <ele>185.00</ele>
    </rtept>
    <rtept lat="45.65629111" lon="15.30688569" >
      <name>rte1_82</name>
      <ele>185.00</ele>
    </rtept>
    <rtept lat="45.65632698" lon="15.30693079" >
      <name>rte1_83</name>
      <ele>185.00</ele>
    </rtept>
    <rtept lat="45.65636737" lon="15.30696951" >
      <name>rte1_84</name>
      <ele>185.00</ele>
    </rtept>
    <rtept lat="45.65640325" lon="15.30700820" >
      <name>rte1_85</name>
      <ele>185.00</ele>
    </rtept>
    <rtept lat="45.65643914" lon="15.30704690" >
      <name>rte1_86</name>
      <ele>185.00</ele>
    </rtept>
    <rtept lat="45.65647955" lon="15.30707920" >
      <name>rte1_87</name>
      <ele>185.00</ele>
    </rtept>
    <rtept lat="45.65655586" lon="15.30714377" >
      <name>rte1_88</name>
      <ele>185.00</ele>
    </rtept>
    <rtept lat="45.65659628" lon="15.30716966" >
      <name>rte1_89</name>
      <ele>185.00</ele>
    </rtept>
    <rtept lat="45.65664122" lon="15.30718915" >
      <name>rte1_90</name>
      <ele>185.00</ele>
    </rtept>
    <rtept lat="45.65668166" lon="15.30720862" >
      <name>rte1_91</name>
      <ele>185.00</ele>
    </rtept>
    <rtept lat="45.65673110" lon="15.30722814" >
      <name>rte1_92</name>
      <ele>185.00</ele>
    </rtept>
    <rtept lat="45.65677605" lon="15.30724122" >
      <name>rte1_93</name>
      <ele>185.00</ele>
    </rtept>
    <rtept lat="45.65682551" lon="15.30725433" >
      <name>rte1_94</name>
      <ele>185.00</ele>
    </rtept>
    <rtept lat="45.65687946" lon="15.30726745" >
      <name>rte1_95</name>
      <ele>185.00</ele>
    </rtept>
    <rtept lat="45.65693793" lon="15.30727419" >
      <name>rte1_96</name>
      <ele>185.00</ele>
    </rtept>
    <rtept lat="45.65700992" lon="15.30727459" >
      <name>rte1_97</name>
      <ele>185.00</ele>
    </rtept>
    <rtept lat="45.65708640" lon="15.30727501" >
      <name>rte1_98</name>
      <ele>186.80</ele>
    </rtept>
    <rtept lat="45.65715839" lon="15.30727541" >
      <name>rte1_99</name>
      <ele>186.80</ele>
    </rtept>
    <rtept lat="45.65722589" lon="15.30726936" >
      <name>rte1_100</name>
      <ele>186.80</ele>
    </rtept>
    <rtept lat="45.65729788" lon="15.30726976" >
      <name>rte1_101</name>
      <ele>188.60</ele>
    </rtept>
    <rtept lat="45.65736086" lon="15.30727010" >
      <name>rte1_102</name>
      <ele>188.60</ele>
    </rtept>
    <rtept lat="45.65742835" lon="15.30727047" >
      <name>rte1_103</name>
      <ele>188.60</ele>
    </rtept>
    <rtept lat="45.65749132" lon="15.30727724" >
      <name>rte1_104</name>
      <ele>188.60</ele>
    </rtept>
    <rtept lat="45.65755427" lon="15.30729042" >
      <name>rte1_105</name>
      <ele>190.00</ele>
    </rtept>
    <rtept lat="45.65761272" lon="15.30730357" >
      <name>rte1_106</name>
      <ele>190.00</ele>
    </rtept>
    <rtept lat="45.65767114" lon="15.30732955" >
      <name>rte1_107</name>
      <ele>190.00</ele>
    </rtept>
    <rtept lat="45.65772954" lon="15.30736196" >
      <name>rte1_108</name>
      <ele>190.00</ele>
    </rtept>
    <rtept lat="45.65778791" lon="15.30740719" >
      <name>rte1_109</name>
      <ele>190.00</ele>
    </rtept>
    <rtept lat="45.65784176" lon="15.30745881" >
      <name>rte1_110</name>
      <ele>190.00</ele>
    </rtept>
    <rtept lat="45.65790007" lon="15.30752329" >
      <name>rte1_111</name>
      <ele>190.00</ele>
    </rtept>
    <rtept lat="45.65795384" lon="15.30760700" >
      <name>rte1_112</name>
      <ele>190.00</ele>
    </rtept>
    <rtept lat="45.65801208" lon="15.30769714" >
      <name>rte1_113</name>
      <ele>189.50</ele>
    </rtept>
    <rtept lat="45.65806583" lon="15.30778726" >
      <name>rte1_114</name>
      <ele>189.50</ele>
    </rtept>
    <rtept lat="45.65812409" lon="15.30787099" >
      <name>rte1_115</name>
      <ele>189.50</ele>
    </rtept>
    <rtept lat="45.65817785" lon="15.30795469" >
      <name>rte1_116</name>
      <ele>189.50</ele>
    </rtept>
    <rtept lat="45.65823163" lon="15.30803198" >
      <name>rte1_117</name>
      <ele>190.00</ele>
    </rtept>
    <rtept lat="45.65828541" lon="15.30810927" >
      <name>rte1_118</name>
      <ele>190.00</ele>
    </rtept>
    <rtept lat="45.65833921" lon="15.30818014" >
      <name>rte1_119</name>
      <ele>190.00</ele>
    </rtept>
    <rtept lat="45.65839752" lon="15.30824463" >
      <name>rte1_120</name>
      <ele>190.00</ele>
    </rtept>
    <rtept lat="45.65845585" lon="15.30830269" >
      <name>rte1_121</name>
      <ele>190.00</ele>
    </rtept>
    <rtept lat="45.65851420" lon="15.30835434" >
      <name>rte1_122</name>
      <ele>190.00</ele>
    </rtept>
    <rtept lat="45.65858157" lon="15.30839963" >
      <name>rte1_123</name>
      <ele>190.00</ele>
    </rtept>
    <rtept lat="45.65864895" lon="15.30843849" >
      <name>rte1_124</name>
      <ele>195.00</ele>
    </rtept>
    <rtept lat="45.65871636" lon="15.30846453" >
      <name>rte1_125</name>
      <ele>195.00</ele>
    </rtept>
    <rtept lat="45.65879278" lon="15.30849062" >
      <name>rte1_126</name>
      <ele>195.00</ele>
    </rtept>
    <rtept lat="45.65887373" lon="15.30850390" >
      <name>rte1_127</name>
      <ele>195.00</ele>
    </rtept>
    <rtept lat="45.65891870" lon="15.30851056" >
      <name>rte1_128</name>
      <ele>195.00</ele>
    </rtept>
    <rtept lat="45.65896367" lon="15.30851723" >
      <name>rte1_129</name>
      <ele>195.00</ele>
    </rtept>
    <rtept lat="45.65902218" lon="15.30851113" >
      <name>rte1_130</name>
      <ele>195.00</ele>
    </rtept>
    <rtept lat="45.65908068" lon="15.30850504" >
      <name>rte1_131</name>
      <ele>195.00</ele>
    </rtept>
    <rtept lat="45.65913471" lon="15.30849251" >
      <name>rte1_132</name>
      <ele>197.30</ele>
    </rtept>
    <rtept lat="45.65919323" lon="15.30848000" >
      <name>rte1_133</name>
      <ele>197.30</ele>
    </rtept>
    <rtept lat="45.65924729" lon="15.30845463" >
      <name>rte1_134</name>
      <ele>197.30</ele>
    </rtept>
    <rtept lat="45.65929685" lon="15.30842924" >
      <name>rte1_135</name>
      <ele>197.30</ele>
    </rtept>
    <rtept lat="45.65934641" lon="15.30840385" >
      <name>rte1_136</name>
      <ele>198.40</ele>
    </rtept>
    <rtept lat="45.65939150" lon="15.30836560" >
      <name>rte1_137</name>
      <ele>198.40</ele>
    </rtept>
    <rtept lat="45.65943662" lon="15.30832094" >
      <name>rte1_138</name>
      <ele>200.00</ele>
    </rtept>
    <rtept lat="45.65947723" lon="15.30827625" >
      <name>rte1_139</name>
      <ele>200.00</ele>
    </rtept>
    <rtept lat="45.65951336" lon="15.30822512" >
      <name>rte1_140</name>
      <ele>200.00</ele>
    </rtept>
    <rtept lat="45.65954501" lon="15.30816755" >
      <name>rte1_141</name>
      <ele>200.00</ele>
    </rtept>
    <rtept lat="45.65957668" lon="15.30810356" >
      <name>rte1_142</name>
      <ele>200.00</ele>
    </rtept>
    <rtept lat="45.65959935" lon="15.30803953" >
      <name>rte1_143</name>
      <ele>200.00</ele>
    </rtept>
    <rtept lat="45.65962205" lon="15.30796266" >
      <name>rte1_144</name>
      <ele>200.00</ele>
    </rtept>
    <rtept lat="45.65964026" lon="15.30788576" >
      <name>rte1_145</name>
      <ele>200.00</ele>
    </rtept>
    <rtept lat="45.65964952" lon="15.30778957" >
      <name>rte1_146</name>
      <ele>200.00</ele>
    </rtept>
    <rtept lat="45.65966328" lon="15.30769341" >
      <name>rte1_147</name>
      <ele>205.00</ele>
    </rtept>
    <rtept lat="45.65966802" lon="15.30760361" >
      <name>rte1_148</name>
      <ele>205.00</ele>
    </rtept>
    <rtept lat="45.65967276" lon="15.30751381" >
      <name>rte1_149</name>
      <ele>205.00</ele>
    </rtept>
    <rtept lat="45.65967748" lon="15.30743042" >
      <name>rte1_150</name>
      <ele>205.00</ele>
    </rtept>
    <rtept lat="45.65968223" lon="15.30734062" >
      <name>rte1_151</name>
      <ele>204.22</ele>
    </rtept>
    <rtept lat="45.65968693" lon="15.30726365" >
      <name>rte1_152</name>
      <ele>204.22</ele>
    </rtept>
    <rtept lat="45.65969616" lon="15.30718030" >
      <name>rte1_153</name>
      <ele>204.22</ele>
    </rtept>
    <rtept lat="45.65970536" lon="15.30710335" >
      <name>rte1_154</name>
      <ele>204.22</ele>
    </rtept>
    <rtept lat="45.65971905" lon="15.30703285" >
      <name>rte1_155</name>
      <ele>203.09</ele>
    </rtept>
    <rtept lat="45.65973724" lon="15.30696237" >
      <name>rte1_156</name>
      <ele>203.09</ele>
    </rtept>
    <rtept lat="45.65975993" lon="15.30689192" >
      <name>rte1_157</name>
      <ele>203.09</ele>
    </rtept>
    <rtept lat="45.65978709" lon="15.30682791" >
      <name>rte1_158</name>
      <ele>207.97</ele>
    </rtept>
    <rtept lat="45.65982326" lon="15.30676394" >
      <name>rte1_159</name>
      <ele>207.97</ele>
    </rtept>
    <rtept lat="45.65986841" lon="15.30670645" >
      <name>rte1_160</name>
      <ele>207.04</ele>
    </rtept>
    <rtept lat="45.65992253" lon="15.30665541" >
      <name>rte1_161</name>
      <ele>207.04</ele>
    </rtept>
    <rtept lat="45.65996315" lon="15.30661072" >
      <name>rte1_162</name>
      <ele>207.04</ele>
    </rtept>
    <rtept lat="45.66000374" lon="15.30657245" >
      <name>rte1_163</name>
      <ele>210.00</ele>
    </rtept>
    <rtept lat="45.66004434" lon="15.30653417" >
      <name>rte1_164</name>
      <ele>210.00</ele>
    </rtept>
    <rtept lat="45.66008492" lon="15.30650232" >
      <name>rte1_165</name>
      <ele>210.00</ele>
    </rtept>
    <rtept lat="45.66016604" lon="15.30645143" >
      <name>rte1_166</name>
      <ele>210.00</ele>
    </rtept>
    <rtept lat="45.66025161" lon="15.30641982" >
      <name>rte1_167</name>
      <ele>213.78</ele>
    </rtept>
    <rtept lat="45.66033264" lon="15.30640102" >
      <name>rte1_168</name>
      <ele>213.71</ele>
    </rtept>
    <rtept lat="45.66041809" lon="15.30641432" >
      <name>rte1_169</name>
      <ele>213.71</ele>
    </rtept>
    <rtept lat="45.66046306" lon="15.30642098" >
      <name>rte1_170</name>
      <ele>215.00</ele>
    </rtept>
    <rtept lat="45.66050800" lon="15.30644048" >
      <name>rte1_171</name>
      <ele>215.00</ele>
    </rtept>
    <rtept lat="45.66054842" lon="15.30646636" >
      <name>rte1_172</name>
      <ele>215.00</ele>
    </rtept>
    <rtept lat="45.66059781" lon="15.30650513" >
      <name>rte1_173</name>
      <ele>215.00</ele>
    </rtept>
    <rtept lat="45.66064721" lon="15.30653748" >
      <name>rte1_174</name>
      <ele>215.00</ele>
    </rtept>
    <rtept lat="45.66069660" lon="15.30657625" >
      <name>rte1_175</name>
      <ele>215.50</ele>
    </rtept>
    <rtept lat="45.66074150" lon="15.30660858" >
      <name>rte1_176</name>
      <ele>215.50</ele>
    </rtept>
    <rtept lat="45.66079089" lon="15.30664735" >
      <name>rte1_177</name>
      <ele>215.50</ele>
    </rtept>
    <rtept lat="45.66083131" lon="15.30667324" >
      <name>rte1_178</name>
      <ele>215.50</ele>
    </rtept>
    <rtept lat="45.66087622" lon="15.30670556" >
      <name>rte1_179</name>
      <ele>215.50</ele>
    </rtept>
    <rtept lat="45.66091664" lon="15.30673145" >
      <name>rte1_180</name>
      <ele>217.30</ele>
    </rtept>
    <rtept lat="45.66095704" lon="15.30676376" >
      <name>rte1_181</name>
      <ele>217.90</ele>
    </rtept>
    <rtept lat="45.66099746" lon="15.30678964" >
      <name>rte1_182</name>
      <ele>217.90</ele>
    </rtept>
    <rtept lat="45.66104237" lon="15.30682197" >
      <name>rte1_183</name>
      <ele>217.90</ele>
    </rtept>
    <rtept lat="45.66108279" lon="15.30684786" >
      <name>rte1_184</name>
      <ele>217.90</ele>
    </rtept>
    <rtept lat="45.66112771" lon="15.30687377" >
      <name>rte1_185</name>
      <ele>220.00</ele>
    </rtept>
    <rtept lat="45.66116812" lon="15.30690607" >
      <name>rte1_186</name>
      <ele>220.00</ele>
    </rtept>
    <rtept lat="45.66121752" lon="15.30693843" >
      <name>rte1_187</name>
      <ele>220.00</ele>
    </rtept>
    <rtept lat="45.66126244" lon="15.30696434" >
      <name>rte1_188</name>
      <ele>220.00</ele>
    </rtept>
    <rtept lat="45.66131633" lon="15.30700313" >
      <name>rte1_189</name>
      <ele>220.00</ele>
    </rtept>
    <rtept lat="45.66147855" lon="15.30690778" >
      <name>rte1_190</name>
      <ele>220.00</ele>
    </rtept>
    <rtept lat="45.66155967" lon="15.30685690" >
      <name>rte1_191</name>
      <ele>220.00</ele>
    </rtept>
    <rtept lat="45.66164074" lon="15.30682526" >
      <name>rte1_192</name>
      <ele>221.20</ele>
    </rtept>
    <rtept lat="45.66172176" lon="15.30681287" >
      <name>rte1_193</name>
      <ele>221.20</ele>
    </rtept>
    <rtept lat="45.66180276" lon="15.30680690" >
      <name>rte1_194</name>
      <ele>223.80</ele>
    </rtept>
    <rtept lat="45.66188373" lon="15.30681376" >
      <name>rte1_195</name>
      <ele>223.80</ele>
    </rtept>
    <rtept lat="45.66196018" lon="15.30682701" >
      <name>rte1_196</name>
      <ele>223.80</ele>
    </rtept>
    <rtept lat="45.66204109" lon="15.30685313" >
      <name>rte1_197</name>
      <ele>226.60</ele>
    </rtept>
    <rtept lat="45.66212201" lon="15.30687924" >
      <name>rte1_198</name>
      <ele>226.60</ele>
    </rtept>
    <rtept lat="45.66220289" lon="15.30691818" >
      <name>rte1_199</name>
      <ele>226.60</ele>
    </rtept>
    <rtept lat="45.66228375" lon="15.30696354" >
      <name>rte1_200</name>
      <ele>230.00</ele>
    </rtept>
    <rtept lat="45.66232419" lon="15.30698301" >
      <name>rte1_201</name>
      <ele>230.00</ele>
    </rtept>
    <rtept lat="45.66236911" lon="15.30700892" >
      <name>rte1_202</name>
      <ele>230.00</ele>
    </rtept>
    <rtept lat="45.66240955" lon="15.30702839" >
      <name>rte1_203</name>
      <ele>230.00</ele>
    </rtept>
    <rtept lat="45.66245447" lon="15.30705431" >
      <name>rte1_204</name>
      <ele>230.00</ele>
    </rtept>
    <rtept lat="45.66249939" lon="15.30708022" >
      <name>rte1_205</name>
      <ele>230.00</ele>
    </rtept>
    <rtept lat="45.66254433" lon="15.30709972" >
      <name>rte1_206</name>
      <ele>230.00</ele>
    </rtept>
    <rtept lat="45.66258925" lon="15.30712563" >
      <name>rte1_207</name>
      <ele>230.00</ele>
    </rtept>
    <rtept lat="45.66263417" lon="15.30715154" >
      <name>rte1_208</name>
      <ele>230.00</ele>
    </rtept>
    <rtept lat="45.66267911" lon="15.30717104" >
      <name>rte1_209</name>
      <ele>230.00</ele>
    </rtept>
    <rtept lat="45.66272853" lon="15.30719698" >
      <name>rte1_210</name>
      <ele>240.00</ele>
    </rtept>
    <rtept lat="45.66277797" lon="15.30721650" >
      <name>rte1_211</name>
      <ele>240.00</ele>
    </rtept>
    <rtept lat="45.66282739" lon="15.30724244" >
      <name>rte1_212</name>
      <ele>240.00</ele>
    </rtept>
    <rtept lat="45.66287233" lon="15.30726193" >
      <name>rte1_213</name>
      <ele>240.00</ele>
    </rtept>
    <rtept lat="45.66292178" lon="15.30727504" >
      <name>rte1_214</name>
      <ele>240.00</ele>
    </rtept>
    <rtept lat="45.66296674" lon="15.30728812" >
      <name>rte1_215</name>
      <ele>240.00</ele>
    </rtept>
    <rtept lat="45.66301619" lon="15.30730123" >
      <name>rte1_216</name>
      <ele>240.00</ele>
    </rtept>
    <rtept lat="45.66310162" lon="15.30732095" >
      <name>rte1_217</name>
      <ele>240.00</ele>
    </rtept>
    <rtept lat="45.66318707" lon="15.30733425" >
      <name>rte1_218</name>
      <ele>240.00</ele>
    </rtept>
    <rtept lat="45.66327254" lon="15.30734114" >
      <name>rte1_219</name>
      <ele>240.00</ele>
    </rtept>
    <rtept lat="45.66335352" lon="15.30734158" >
      <name>rte1_220</name>
      <ele>240.00</ele>
    </rtept>
    <rtept lat="45.66343452" lon="15.30733561" >
      <name>rte1_221</name>
      <ele>240.00</ele>
    </rtept>
    <rtept lat="45.66351104" lon="15.30732320" >
      <name>rte1_222</name>
      <ele>240.00</ele>
    </rtept>
    <rtept lat="45.66359206" lon="15.30731081" >
      <name>rte1_223</name>
      <ele>240.70</ele>
    </rtept>
    <rtept lat="45.66367307" lon="15.30729842" >
      <name>rte1_224</name>
      <ele>240.70</ele>
    </rtept>
    <rtept lat="45.66375409" lon="15.30728604" >
      <name>rte1_225</name>
      <ele>240.70</ele>
    </rtept>
    <rtept lat="45.66383963" lon="15.30726726" >
      <name>rte1_226</name>
      <ele>245.10</ele>
    </rtept>
    <rtept lat="45.66392516" lon="15.30724848" >
      <name>rte1_227</name>
      <ele>245.10</ele>
    </rtept>
    <rtept lat="45.66397017" lon="15.30724231" >
      <name>rte1_228</name>
      <ele>245.10</ele>
    </rtept>
    <rtept lat="45.66401518" lon="15.30723614" >
      <name>rte1_229</name>
      <ele>245.10</ele>
    </rtept>
    <rtept lat="45.66406018" lon="15.30722997" >
      <name>rte1_230</name>
      <ele>250.00</ele>
    </rtept>
    <rtept lat="45.66410969" lon="15.30722383" >
      <name>rte1_231</name>
      <ele>250.00</ele>
    </rtept>
    <rtept lat="45.66415470" lon="15.30721766" >
      <name>rte1_232</name>
      <ele>250.00</ele>
    </rtept>
    <rtept lat="45.66420869" lon="15.30721796" >
      <name>rte1_233</name>
      <ele>250.00</ele>
    </rtept>
    <rtept lat="45.66433459" lon="15.30724432" >
      <name>rte1_234</name>
      <ele>250.00</ele>
    </rtept>
    <rtept lat="45.66438853" lon="15.30726386" >
      <name>rte1_235</name>
      <ele>250.00</ele>
    </rtept>
    <rtept lat="45.66443795" lon="15.30728980" >
      <name>rte1_236</name>
      <ele>250.00</ele>
    </rtept>
    <rtept lat="45.66448285" lon="15.30732213" >
      <name>rte1_237</name>
      <ele>250.00</ele>
    </rtept>
    <rtept lat="45.66452776" lon="15.30735446" >
      <name>rte1_238</name>
      <ele>260.00</ele>
    </rtept>
    <rtept lat="45.66456815" lon="15.30739318" >
      <name>rte1_239</name>
      <ele>260.00</ele>
    </rtept>
    <rtept lat="45.66460403" lon="15.30743188" >
      <name>rte1_240</name>
      <ele>260.00</ele>
    </rtept>
    <rtept lat="45.66463990" lon="15.30747700" >
      <name>rte1_241</name>
      <ele>260.00</ele>
    </rtept>
    <rtept lat="45.66467126" lon="15.30752850" >
      <name>rte1_242</name>
      <ele>260.00</ele>
    </rtept>
    <rtept lat="45.66470263" lon="15.30757359" >
      <name>rte1_243</name>
      <ele>260.00</ele>
    </rtept>
    <rtept lat="45.66473398" lon="15.30762510" >
      <name>rte1_244</name>
      <ele>260.00</ele>
    </rtept>
    <rtept lat="45.66476532" lon="15.30768302" >
      <name>rte1_245</name>
      <ele>260.00</ele>
    </rtept>
    <rtept lat="45.66479666" lon="15.30774095" >
      <name>rte1_246</name>
      <ele>260.00</ele>
    </rtept>
    <rtept lat="45.66482800" lon="15.30779887" >
      <name>rte1_247</name>
      <ele>260.00</ele>
    </rtept>
    <rtept lat="45.66486383" lon="15.30785682" >
      <name>rte1_248</name>
      <ele>260.00</ele>
    </rtept>
    <rtept lat="45.66489965" lon="15.30792118" >
      <name>rte1_249</name>
      <ele>260.00</ele>
    </rtept>
    <rtept lat="45.66493997" lon="15.30798557" >
      <name>rte1_250</name>
      <ele>260.00</ele>
    </rtept>
    <rtept lat="45.66499821" lon="15.30807573" >
      <name>rte1_251</name>
      <ele>260.00</ele>
    </rtept>
    <rtept lat="45.66506096" lon="15.30816591" >
      <name>rte1_252</name>
      <ele>260.00</ele>
    </rtept>
    <rtept lat="45.66512373" lon="15.30824326" >
      <name>rte1_253</name>
      <ele>260.00</ele>
    </rtept>
    <rtept lat="45.66518651" lon="15.30832061" >
      <name>rte1_254</name>
      <ele>264.00</ele>
    </rtept>
    <rtept lat="45.66525382" lon="15.30838515" >
      <name>rte1_255</name>
      <ele>260.00</ele>
    </rtept>
    <rtept lat="45.66531665" lon="15.30844324" >
      <name>rte1_256</name>
      <ele>260.00</ele>
    </rtept>
    <rtept lat="45.66538400" lon="15.30849495" >
      <name>rte1_257</name>
      <ele>260.00</ele>
    </rtept>
    <rtept lat="45.66545586" lon="15.30854027" >
      <name>rte1_258</name>
      <ele>260.00</ele>
    </rtept>
    <rtept lat="45.66552324" lon="15.30857914" >
      <name>rte1_259</name>
      <ele>260.00</ele>
    </rtept>
    <rtept lat="45.66559516" lon="15.30860520" >
      <name>rte1_260</name>
      <ele>260.00</ele>
    </rtept>
    <rtept lat="45.66567159" lon="15.30862488" >
      <name>rte1_261</name>
      <ele>270.00</ele>
    </rtept>
    <rtept lat="45.66574804" lon="15.30863813" >
      <name>rte1_262</name>
      <ele>270.00</ele>
    </rtept>
    <rtept lat="45.66582452" lon="15.30863856" >
      <name>rte1_263</name>
      <ele>270.00</ele>
    </rtept>
    <rtept lat="45.66590552" lon="15.30863259" >
      <name>rte1_264</name>
      <ele>270.00</ele>
    </rtept>
    <rtept lat="45.66599104" lon="15.30862023" >
      <name>rte1_265</name>
      <ele>270.00</ele>
    </rtept>
    <rtept lat="45.66603607" lon="15.30860764" >
      <name>rte1_266</name>
      <ele>270.00</ele>
    </rtept>
    <rtept lat="45.66608109" lon="15.30859506" >
      <name>rte1_267</name>
      <ele>270.00</ele>
    </rtept>
    <rtept lat="45.66615768" lon="15.30855698" >
      <name>rte1_268</name>
      <ele>270.00</ele>
    </rtept>
    <rtept lat="45.66623429" lon="15.30851248" >
      <name>rte1_269</name>
      <ele>270.00</ele>
    </rtept>
    <rtept lat="45.66630190" lon="15.30846794" >
      <name>rte1_270</name>
      <ele>270.00</ele>
    </rtept>
    <rtept lat="45.66636504" lon="15.30841054" >
      <name>rte1_271</name>
      <ele>270.00</ele>
    </rtept>
    <rtept lat="45.66642818" lon="15.30835313" >
      <name>rte1_272</name>
      <ele>275.00</ele>
    </rtept>
    <rtept lat="45.66648683" lon="15.30829570" >
      <name>rte1_273</name>
      <ele>275.00</ele>
    </rtept>
    <rtept lat="45.66654099" lon="15.30823183" >
      <name>rte1_274</name>
      <ele>280.00</ele>
    </rtept>
    <rtept lat="45.66659964" lon="15.30817440" >
      <name>rte1_275</name>
      <ele>280.00</ele>
    </rtept>
    <rtept lat="45.66665378" lon="15.30811695" >
      <name>rte1_276</name>
      <ele>280.00</ele>
    </rtept>
    <rtept lat="45.66671241" lon="15.30806594" >
      <name>rte1_277</name>
      <ele>280.00</ele>
    </rtept>
    <rtept lat="45.66677104" lon="15.30801493" >
      <name>rte1_278</name>
      <ele>280.00</ele>
    </rtept>
    <rtept lat="45.66683413" lon="15.30797677" >
      <name>rte1_279</name>
      <ele>280.00</ele>
    </rtept>
    <rtept lat="45.66690170" lon="15.30794506" >
      <name>rte1_280</name>
      <ele>280.00</ele>
    </rtept>
    <rtept lat="45.66696924" lon="15.30792618" >
      <name>rte1_281</name>
      <ele>280.00</ele>
    </rtept>
    <rtept lat="45.66704574" lon="15.30792019" >
      <name>rte1_282</name>
      <ele>280.00</ele>
    </rtept>
    <rtept lat="45.66713120" lon="15.30792708" >
      <name>rte1_283</name>
      <ele>280.00</ele>
    </rtept>
    <rtept lat="45.66719867" lon="15.30793386" >
      <name>rte1_284</name>
      <ele>290.00</ele>
    </rtept>
    <rtept lat="45.66726612" lon="15.30794707" >
      <name>rte1_285</name>
      <ele>290.00</ele>
    </rtept>
    <rtept lat="45.66733357" lon="15.30796028" >
      <name>rte1_286</name>
      <ele>290.00</ele>
    </rtept>
    <rtept lat="45.66739651" lon="15.30797988" >
      <name>rte1_287</name>
      <ele>290.00</ele>
    </rtept>
    <rtept lat="45.66745946" lon="15.30799306" >
      <name>rte1_288</name>
      <ele>290.00</ele>
    </rtept>
    <rtept lat="45.66752243" lon="15.30799982" >
      <name>rte1_289</name>
      <ele>290.00</ele>
    </rtept>
    <rtept lat="45.66758088" lon="15.30801298" >
      <name>rte1_290</name>
      <ele>290.00</ele>
    </rtept>
    <rtept lat="45.66763937" lon="15.30801330" >
      <name>rte1_291</name>
      <ele>290.00</ele>
    </rtept>
    <rtept lat="45.66769786" lon="15.30801362" >
      <name>rte1_292</name>
      <ele>290.00</ele>
    </rtept>
    <rtept lat="45.66775188" lon="15.30800109" >
      <name>rte1_293</name>
      <ele>290.00</ele>
    </rtept>
    <rtept lat="45.66781041" lon="15.30798858" >
      <name>rte1_294</name>
      <ele>290.00</ele>
    </rtept>
    <rtept lat="45.66785996" lon="15.30796318" >
      <name>rte1_295</name>
      <ele>290.00</ele>
    </rtept>
    <rtept lat="45.66791406" lon="15.30792498" >
      <name>rte1_296</name>
      <ele>290.00</ele>
    </rtept>
    <rtept lat="45.66796367" lon="15.30788033" >
      <name>rte1_297</name>
      <ele>290.00</ele>
    </rtept>
    <rtept lat="45.66800882" lon="15.30782283" >
      <name>rte1_298</name>
      <ele>290.00</ele>
    </rtept>
    <rtept lat="45.66805848" lon="15.30775893" >
      <name>rte1_299</name>
      <ele>290.00</ele>
    </rtept>
    <rtept lat="45.66811273" lon="15.30766297" >
      <name>rte1_300</name>
      <ele>292.50</ele>
    </rtept>
    <rtept lat="45.66816246" lon="15.30757340" >
      <name>rte1_301</name>
      <ele>292.50</ele>
    </rtept>
    <rtept lat="45.66820770" lon="15.30748381" >
      <name>rte1_302</name>
      <ele>292.50</ele>
    </rtept>
    <rtept lat="45.66825291" lon="15.30740064" >
      <name>rte1_303</name>
      <ele>300.00</ele>
    </rtept>
    <rtept lat="45.66829363" lon="15.30731744" >
      <name>rte1_304</name>
      <ele>300.00</ele>
    </rtept>
    <rtept lat="45.66833433" lon="15.30724066" >
      <name>rte1_305</name>
      <ele>295.45</ele>
    </rtept>
    <rtept lat="45.66837503" lon="15.30716388" >
      <name>rte1_306</name>
      <ele>295.45</ele>
    </rtept>
    <rtept lat="45.66841123" lon="15.30708707" >
      <name>rte1_307</name>
      <ele>300.00</ele>
    </rtept>
    <rtept lat="45.66845195" lon="15.30700387" >
      <name>rte1_308</name>
      <ele>300.00</ele>
    </rtept>
    <rtept lat="45.66848815" lon="15.30692707" >
      <name>rte1_309</name>
      <ele>300.00</ele>
    </rtept>
    <rtept lat="45.66852885" lon="15.30685028" >
      <name>rte1_310</name>
      <ele>300.00</ele>
    </rtept>
    <rtept lat="45.66856957" lon="15.30676708" >
      <name>rte1_311</name>
      <ele>300.00</ele>
    </rtept>
    <rtept lat="45.66861478" lon="15.30668391" >
      <name>rte1_312</name>
      <ele>300.00</ele>
    </rtept>
    <rtept lat="45.66866450" lon="15.30660076" >
      <name>rte1_313</name>
      <ele>300.00</ele>
    </rtept>
    <rtept lat="45.66871423" lon="15.30651119" >
      <name>rte1_314</name>
      <ele>300.00</ele>
    </rtept>
    <rtept lat="45.66877296" lon="15.30642167" >
      <name>rte1_315</name>
      <ele>300.00</ele>
    </rtept>
    <rtept lat="45.66880912" lon="15.30635770" >
      <name>rte1_316</name>
      <ele>300.00</ele>
    </rtept>
    <rtept lat="45.66884977" lon="15.30630017" >
      <name>rte1_317</name>
      <ele>300.00</ele>
    </rtept>
    <rtept lat="45.66888590" lon="15.30624903" >
      <name>rte1_318</name>
      <ele>300.00</ele>
    </rtept>
    <rtept lat="45.66892653" lon="15.30619791" >
      <name>rte1_319</name>
      <ele>300.00</ele>
    </rtept>
    <rtept lat="45.66896265" lon="15.30615319" >
      <name>rte1_320</name>
      <ele>300.00</ele>
    </rtept>
    <rtept lat="45.66900324" lon="15.30611491" >
      <name>rte1_321</name>
      <ele>303.52</ele>
    </rtept>
    <rtept lat="45.66904384" lon="15.30607663" >
      <name>rte1_322</name>
      <ele>303.52</ele>
    </rtept>
    <rtept lat="45.66908442" lon="15.30604477" >
      <name>rte1_323</name>
      <ele>303.52</ele>
    </rtept>
    <rtept lat="45.66912499" lon="15.30601290" >
      <name>rte1_324</name>
      <ele>303.52</ele>
    </rtept>
    <rtept lat="45.66917005" lon="15.30598748" >
      <name>rte1_325</name>
      <ele>303.52</ele>
    </rtept>
    <rtept lat="45.66921511" lon="15.30596206" >
      <name>rte1_326</name>
      <ele>303.52</ele>
    </rtept>
    <rtept lat="45.66926016" lon="15.30594305" >
      <name>rte1_327</name>
      <ele>306.18</ele>
    </rtept>
    <rtept lat="45.66930970" lon="15.30592407" >
      <name>rte1_328</name>
      <ele>306.18</ele>
    </rtept>
    <rtept lat="45.66936374" lon="15.30590512" >
      <name>rte1_329</name>
      <ele>306.18</ele>
    </rtept>
    <rtept lat="45.66941776" lon="15.30589258" >
      <name>rte1_330</name>
      <ele>306.18</ele>
    </rtept>
    <rtept lat="45.66947627" lon="15.30588648" >
      <name>rte1_331</name>
      <ele>310.00</ele>
    </rtept>
    <rtept lat="45.66982707" lon="15.30593333" >
      <name>rte1_332</name>
      <ele>312.38</ele>
    </rtept>
    <rtept lat="45.66988092" lon="15.30598496" >
      <name>rte1_333</name>
      <ele>312.38</ele>
    </rtept>
    <rtept lat="45.66993476" lon="15.30604301" >
      <name>rte1_334</name>
      <ele>315.00</ele>
    </rtept>
    <rtept lat="45.66997956" lon="15.30611385" >
      <name>rte1_335</name>
      <ele>315.00</ele>
    </rtept>
    <rtept lat="45.67001982" lon="15.30619749" >
      <name>rte1_336</name>
      <ele>315.00</ele>
    </rtept>
    <rtept lat="45.67006009" lon="15.30628114" >
      <name>rte1_337</name>
      <ele>315.00</ele>
    </rtept>
    <rtept lat="45.67010032" lon="15.30637762" >
      <name>rte1_338</name>
      <ele>315.00</ele>
    </rtept>
    <rtept lat="45.67013604" lon="15.30648049" >
      <name>rte1_339</name>
      <ele>315.00</ele>
    </rtept>
    <rtept lat="45.67017623" lon="15.30658981" >
      <name>rte1_340</name>
      <ele>315.00</ele>
    </rtept>
    <rtept lat="45.67020299" lon="15.30667980" >
      <name>rte1_341</name>
      <ele>315.00</ele>
    </rtept>
    <rtept lat="45.67023425" lon="15.30676340" >
      <name>rte1_342</name>
      <ele>315.00</ele>
    </rtept>
    <rtept lat="45.67026552" lon="15.30684700" >
      <name>rte1_343</name>
      <ele>312.39</ele>
    </rtept>
    <rtept lat="45.67029681" lon="15.30692418" >
      <name>rte1_344</name>
      <ele>312.39</ele>
    </rtept>
    <rtept lat="45.67032359" lon="15.30700133" >
      <name>rte1_345</name>
      <ele>312.39</ele>
    </rtept>
    <rtept lat="45.67035490" lon="15.30707209" >
      <name>rte1_346</name>
      <ele>315.00</ele>
    </rtept>
    <rtept lat="45.67039071" lon="15.30713647" >
      <name>rte1_347</name>
      <ele>313.52</ele>
    </rtept>
    <rtept lat="45.67042653" lon="15.30720084" >
      <name>rte1_348</name>
      <ele>313.52</ele>
    </rtept>
    <rtept lat="45.67046235" lon="15.30726521" >
      <name>rte1_349</name>
      <ele>313.52</ele>
    </rtept>
    <rtept lat="45.67050269" lon="15.30732319" >
      <name>rte1_350</name>
      <ele>313.52</ele>
    </rtept>
    <rtept lat="45.67054752" lon="15.30738119" >
      <name>rte1_351</name>
      <ele>313.52</ele>
    </rtept>
    <rtept lat="45.67059237" lon="15.30743278" >
      <name>rte1_352</name>
      <ele>315.00</ele>
    </rtept>
    <rtept lat="45.67064171" lon="15.30749080" >
      <name>rte1_353</name>
      <ele>315.00</ele>
    </rtept>
    <rtept lat="45.67069557" lon="15.30753602" >
      <name>rte1_354</name>
      <ele>315.00</ele>
    </rtept>
    <rtept lat="45.67075392" lon="15.30758768" >
      <name>rte1_355</name>
      <ele>315.00</ele>
    </rtept>
    <rtept lat="45.67082127" lon="15.30763939" >
      <name>rte1_356</name>
      <ele>315.00</ele>
    </rtept>
    <rtept lat="45.67087967" lon="15.30767180" >
      <name>rte1_357</name>
      <ele>315.00</ele>
    </rtept>
    <rtept lat="45.67093357" lon="15.30770419" >
      <name>rte1_358</name>
      <ele>315.00</ele>
    </rtept>
    <rtept lat="45.67098749" lon="15.30773015" >
      <name>rte1_359</name>
      <ele>315.00</ele>
    </rtept>
    <rtept lat="45.67104594" lon="15.30774331" >
      <name>rte1_360</name>
      <ele>315.00</ele>
    </rtept>
    <rtept lat="45.67109540" lon="15.30775642" >
      <name>rte1_361</name>
      <ele>315.00</ele>
    </rtept>
    <rtept lat="45.67114937" lon="15.30776313" >
      <name>rte1_362</name>
      <ele>315.00</ele>
    </rtept>
    <rtept lat="45.67120336" lon="15.30776343" >
      <name>rte1_363</name>
      <ele>315.00</ele>
    </rtept>
    <rtept lat="45.67125737" lon="15.30775731" >
      <name>rte1_364</name>
      <ele>313.40</ele>
    </rtept>
    <rtept lat="45.67130685" lon="15.30775759" >
      <name>rte1_365</name>
      <ele>313.40</ele>
    </rtept>
    <rtept lat="45.67136538" lon="15.30774507" >
      <name>rte1_366</name>
      <ele>313.40</ele>
    </rtept>
    <rtept lat="45.67141938" lon="15.30773895" >
      <name>rte1_367</name>
      <ele>313.40</ele>
    </rtept>
    <rtept lat="45.67147789" lon="15.30773286" >
      <name>rte1_368</name>
      <ele>311.90</ele>
    </rtept>
    <rtept lat="45.67153641" lon="15.30772035" >
      <name>rte1_369</name>
      <ele>311.90</ele>
    </rtept>
    <rtept lat="45.67159942" lon="15.30771428" >
      <name>rte1_370</name>
      <ele>311.90</ele>
    </rtept>
    <rtept lat="45.67166242" lon="15.30770821" >
      <name>rte1_371</name>
      <ele>311.90</ele>
    </rtept>
    <rtept lat="45.67173440" lon="15.30770860" >
      <name>rte1_372</name>
      <ele>310.60</ele>
    </rtept>
    <rtept lat="45.67178391" lon="15.30770246" >
      <name>rte1_373</name>
      <ele>310.60</ele>
    </rtept>
    <rtept lat="45.67183342" lon="15.30769631" >
      <name>rte1_374</name>
      <ele>310.60</ele>
    </rtept>
    <rtept lat="45.67187841" lon="15.30769656" >
      <name>rte1_375</name>
      <ele>310.60</ele>
    </rtept>
    <rtept lat="45.67192338" lon="15.30770323" >
      <name>rte1_376</name>
      <ele>310.00</ele>
    </rtept>
    <rtept lat="45.67200883" lon="15.30771653" >
      <name>rte1_377</name>
      <ele>310.00</ele>
    </rtept>
    <rtept lat="45.67209421" lon="15.30775551" >
      <name>rte1_378</name>
      <ele>310.00</ele>
    </rtept>
    <rtept lat="45.67217055" lon="15.30780727" >
      <name>rte1_379</name>
      <ele>309.61</ele>
    </rtept>
    <rtept lat="45.67224235" lon="15.30787826" >
      <name>rte1_380</name>
      <ele>309.61</ele>
    </rtept>
    <rtept lat="45.67227823" lon="15.30791696" >
      <name>rte1_381</name>
      <ele>309.61</ele>
    </rtept>
    <rtept lat="45.67231409" lon="15.30796850" >
      <name>rte1_382</name>
      <ele>309.61</ele>
    </rtept>
    <rtept lat="45.67234992" lon="15.30802646" >
      <name>rte1_383</name>
      <ele>309.61</ele>
    </rtept>
    <rtept lat="45.67238574" lon="15.30809083" >
      <name>rte1_384</name>
      <ele>312.06</ele>
    </rtept>
    <rtept lat="45.67255983" lon="15.30859879" >
      <name>rte1_385</name>
      <ele>318.78</ele>
    </rtept>
    <rtept lat="45.67259554" lon="15.30870167" >
      <name>rte1_386</name>
      <ele>321.09</ele>
    </rtept>
    <rtept lat="45.67262674" lon="15.30881094" >
      <name>rte1_387</name>
      <ele>324.11</ele>
    </rtept>
    <rtept lat="45.67266245" lon="15.30891382" >
      <name>rte1_388</name>
      <ele>324.11</ele>
    </rtept>
    <rtept lat="45.67269367" lon="15.30901667" >
      <name>rte1_389</name>
      <ele>324.11</ele>
    </rtept>
    <rtept lat="45.67272490" lon="15.30911311" >
      <name>rte1_390</name>
      <ele>325.00</ele>
    </rtept>
    <rtept lat="45.67275611" lon="15.30921597" >
      <name>rte1_391</name>
      <ele>325.00</ele>
    </rtept>
    <rtept lat="45.67278733" lon="15.30931882" >
      <name>rte1_392</name>
      <ele>325.00</ele>
    </rtept>
    <rtept lat="45.67281852" lon="15.30942809" >
      <name>rte1_393</name>
      <ele>325.00</ele>
    </rtept>
    <rtept lat="45.67284527" lon="15.30951809" >
      <name>rte1_394</name>
      <ele>325.00</ele>
    </rtept>
    <rtept lat="45.67287202" lon="15.30960809" >
      <name>rte1_395</name>
      <ele>325.00</ele>
    </rtept>
    <rtept lat="45.67289875" lon="15.30970450" >
      <name>rte1_396</name>
      <ele>325.00</ele>
    </rtept>
    <rtept lat="45.67292548" lon="15.30980091" >
      <name>rte1_397</name>
      <ele>325.00</ele>
    </rtept>
    <rtept lat="45.67295220" lon="15.30990374" >
      <name>rte1_398</name>
      <ele>325.00</ele>
    </rtept>
    <rtept lat="45.67297891" lon="15.31000657" >
      <name>rte1_399</name>
      <ele>325.00</ele>
    </rtept>
    <rtept lat="45.67301009" lon="15.31012227" >
      <name>rte1_400</name>
      <ele>325.00</ele>
    </rtept>
    <rtept lat="45.67304127" lon="15.31023796" >
      <name>rte1_401</name>
      <ele>325.00</ele>
    </rtept>
    <rtept lat="45.67305456" lon="15.31031504" >
      <name>rte1_402</name>
      <ele>325.00</ele>
    </rtept>
    <rtept lat="45.67306786" lon="15.31038571" >
      <name>rte1_403</name>
      <ele>325.00</ele>
    </rtept>
    <rtept lat="45.67307666" lon="15.31045636" >
      <name>rte1_404</name>
      <ele>325.00</ele>
    </rtept>
    <rtept lat="45.67308549" lon="15.31052058" >
      <name>rte1_405</name>
      <ele>325.00</ele>
    </rtept>
    <rtept lat="45.67308979" lon="15.31059120" >
      <name>rte1_406</name>
      <ele>325.00</ele>
    </rtept>
    <rtept lat="45.67309410" lon="15.31066182" >
      <name>rte1_407</name>
      <ele>325.00</ele>
    </rtept>
    <rtept lat="45.67309837" lon="15.31074527" >
      <name>rte1_408</name>
      <ele>325.00</ele>
    </rtept>
    <rtept lat="45.67310712" lon="15.31083517" >
      <name>rte1_409</name>
      <ele>325.00</ele>
    </rtept>
    <rtept lat="45.67311138" lon="15.31092504" >
      <name>rte1_410</name>
      <ele>325.00</ele>
    </rtept>
    <rtept lat="45.67312013" lon="15.31101494" >
      <name>rte1_411</name>
      <ele>318.80</ele>
    </rtept>
    <rtept lat="45.67312890" lon="15.31109842" >
      <name>rte1_412</name>
      <ele>318.80</ele>
    </rtept>
    <rtept lat="45.67313767" lon="15.31118189" >
      <name>rte1_413</name>
      <ele>318.80</ele>
    </rtept>
    <rtept lat="45.67314645" lon="15.31125896" >
      <name>rte1_414</name>
      <ele>318.80</ele>
    </rtept>
    <rtept lat="45.67315524" lon="15.31133602" >
      <name>rte1_415</name>
      <ele>315.00</ele>
    </rtept>
    <rtept lat="45.67316405" lon="15.31140666" >
      <name>rte1_416</name>
      <ele>315.00</ele>
    </rtept>
    <rtept lat="45.67316833" lon="15.31148370" >
      <name>rte1_417</name>
      <ele>315.00</ele>
    </rtept>
    <rtept lat="45.67317262" lon="15.31156073" >
      <name>rte1_418</name>
      <ele>315.00</ele>
    </rtept>
    <rtept lat="45.67317693" lon="15.31163135" >
      <name>rte1_419</name>
      <ele>311.00</ele>
    </rtept>
    <rtept lat="45.67317672" lon="15.31170836" >
      <name>rte1_420</name>
      <ele>311.00</ele>
    </rtept>
    <rtept lat="45.67317650" lon="15.31178538" >
      <name>rte1_421</name>
      <ele>311.00</ele>
    </rtept>
    <rtept lat="45.67317627" lon="15.31186880" >
      <name>rte1_422</name>
      <ele>311.00</ele>
    </rtept>
    <rtept lat="45.67317155" lon="15.31195221" >
      <name>rte1_423</name>
      <ele>310.00</ele>
    </rtept>
    <rtept lat="45.67316230" lon="15.31204200" >
      <name>rte1_424</name>
      <ele>310.00</ele>
    </rtept>
    <rtept lat="45.67315304" lon="15.31213822" >
      <name>rte1_425</name>
      <ele>310.00</ele>
    </rtept>
    <rtept lat="45.67313937" lon="15.31220232" >
      <name>rte1_426</name>
      <ele>310.00</ele>
    </rtept>
    <rtept lat="45.67312569" lon="15.31226642" >
      <name>rte1_427</name>
      <ele>313.26</ele>
    </rtept>
    <rtept lat="45.67310752" lon="15.31233049" >
      <name>rte1_428</name>
      <ele>313.26</ele>
    </rtept>
    <rtept lat="45.67309386" lon="15.31238818" >
      <name>rte1_429</name>
      <ele>313.26</ele>
    </rtept>
    <rtept lat="45.67306205" lon="15.31250352" >
      <name>rte1_430</name>
      <ele>313.26</ele>
    </rtept>
    <rtept lat="45.67302130" lon="15.31259955" >
      <name>rte1_431</name>
      <ele>315.00</ele>
    </rtept>
    <rtept lat="45.67297604" lon="15.31269557" >
      <name>rte1_432</name>
      <ele>315.00</ele>
    </rtept>
    <rtept lat="45.67291730" lon="15.31278508" >
      <name>rte1_433</name>
      <ele>315.00</ele>
    </rtept>
    <rtept lat="45.67285407" lon="15.31287458" >
      <name>rte1_434</name>
      <ele>315.00</ele>
    </rtept>
    <rtept lat="45.67281795" lon="15.31291930" >
      <name>rte1_435</name>
      <ele>315.00</ele>
    </rtept>
    <rtept lat="45.67278182" lon="15.31297044" >
      <name>rte1_436</name>
      <ele>315.00</ele>
    </rtept>
    <rtept lat="45.67273656" lon="15.31306645" >
      <name>rte1_437</name>
      <ele>315.00</ele>
    </rtept>
    <rtept lat="45.67270029" lon="15.31316893" >
      <name>rte1_438</name>
      <ele>315.00</ele>
    </rtept>
    <rtept lat="45.67267303" lon="15.31326504" >
      <name>rte1_439</name>
      <ele>316.79</ele>
    </rtept>
    <rtept lat="45.67264575" lon="15.31336757" >
      <name>rte1_440</name>
      <ele>316.79</ele>
    </rtept>
    <rtept lat="45.67262299" lon="15.31346370" >
      <name>rte1_441</name>
      <ele>316.79</ele>
    </rtept>
    <rtept lat="45.67260471" lon="15.31356628" >
      <name>rte1_442</name>
      <ele>319.22</ele>
    </rtept>
    <rtept lat="45.67258195" lon="15.31366242" >
      <name>rte1_443</name>
      <ele>319.22</ele>
    </rtept>
    <rtept lat="45.67256371" lon="15.31375216" >
      <name>rte1_444</name>
      <ele>315.00</ele>
    </rtept>
    <rtept lat="45.67254096" lon="15.31384188" >
      <name>rte1_445</name>
      <ele>315.00</ele>
    </rtept>
    <rtept lat="45.67251822" lon="15.31393160" >
      <name>rte1_446</name>
      <ele>315.89</ele>
    </rtept>
    <rtept lat="45.67248649" lon="15.31401485" >
      <name>rte1_447</name>
      <ele>315.89</ele>
    </rtept>
    <rtept lat="45.67245477" lon="15.31409810" >
      <name>rte1_448</name>
      <ele>315.89</ele>
    </rtept>
    <rtept lat="45.67241407" lon="15.31417489" >
      <name>rte1_449</name>
      <ele>315.89</ele>
    </rtept>
    <rtept lat="45.67236438" lon="15.31424520" >
      <name>rte1_450</name>
      <ele>318.83</ele>
    </rtept>
    <rtept lat="45.67230572" lon="15.31430905" >
      <name>rte1_451</name>
      <ele>312.69</ele>
    </rtept>
    <rtept lat="45.67223805" lon="15.31437284" >
      <name>rte1_452</name>
      <ele>312.69</ele>
    </rtept>
    <rtept lat="45.67217946" lon="15.31441102" >
      <name>rte1_453</name>
      <ele>312.69</ele>
    </rtept>
    <rtept lat="45.67212086" lon="15.31444919" >
      <name>rte1_454</name>
      <ele>312.69</ele>
    </rtept>
    <rtept lat="45.67206675" lon="15.31449381" >
      <name>rte1_455</name>
      <ele>308.15</ele>
    </rtept>
    <rtept lat="45.67201265" lon="15.31453201" >
      <name>rte1_456</name>
      <ele>310.55</ele>
    </rtept>
    <rtept lat="45.67195858" lon="15.31456379" >
      <name>rte1_457</name>
      <ele>310.55</ele>
    </rtept>
    <rtept lat="45.67190448" lon="15.31460199" >
      <name>rte1_458</name>
      <ele>310.55</ele>
    </rtept>
    <rtept lat="45.67185490" lon="15.31463380" >
      <name>rte1_459</name>
      <ele>310.00</ele>
    </rtept>
    <rtept lat="45.67180531" lon="15.31467203" >
      <name>rte1_460</name>
      <ele>310.00</ele>
    </rtept>
    <rtept lat="45.67175573" lon="15.31470384" >
      <name>rte1_461</name>
      <ele>310.00</ele>
    </rtept>
    <rtept lat="45.67171065" lon="15.31473567" >
      <name>rte1_462</name>
      <ele>310.00</ele>
    </rtept>
    <rtept lat="45.67166105" lon="15.31477390" >
      <name>rte1_463</name>
      <ele>300.00</ele>
    </rtept>
    <rtept lat="45.67161597" lon="15.31480573" >
      <name>rte1_464</name>
      <ele>300.00</ele>
    </rtept>
    <rtept lat="45.67157089" lon="15.31483756" >
      <name>rte1_465</name>
      <ele>304.44</ele>
    </rtept>
    <rtept lat="45.67152580" lon="15.31487581" >
      <name>rte1_466</name>
      <ele>304.44</ele>
    </rtept>
    <rtept lat="45.67148072" lon="15.31490765" >
      <name>rte1_467</name>
      <ele>304.44</ele>
    </rtept>
    <rtept lat="45.67144012" lon="15.31494592" >
      <name>rte1_468</name>
      <ele>300.00</ele>
    </rtept>
    <rtept lat="45.67139502" lon="15.31498417" >
      <name>rte1_469</name>
      <ele>300.00</ele>
    </rtept>
    <rtept lat="45.67135442" lon="15.31502245" >
      <name>rte1_470</name>
      <ele>300.00</ele>
    </rtept>
    <rtept lat="45.67131382" lon="15.31506072" >
      <name>rte1_471</name>
      <ele>300.00</ele>
    </rtept>
    <rtept lat="45.67126871" lon="15.31510539" >
      <name>rte1_472</name>
      <ele>300.00</ele>
    </rtept>
    <rtept lat="45.67122811" lon="15.31514367" >
      <name>rte1_473</name>
      <ele>300.00</ele>
    </rtept>
    <rtept lat="45.67118750" lon="15.31518836" >
      <name>rte1_474</name>
      <ele>300.00</ele>
    </rtept>
    <rtept lat="45.67114686" lon="15.31523947" >
      <name>rte1_475</name>
      <ele>300.00</ele>
    </rtept>
    <rtept lat="45.67111074" lon="15.31528419" >
      <name>rte1_476</name>
      <ele>300.00</ele>
    </rtept>
    <rtept lat="45.67107011" lon="15.31533530" >
      <name>rte1_477</name>
      <ele>300.00</ele>
    </rtept>
    <rtept lat="45.67102946" lon="15.31539283" >
      <name>rte1_478</name>
      <ele>300.00</ele>
    </rtept>
    <rtept lat="45.67098881" lon="15.31545036" >
      <name>rte1_479</name>
      <ele>290.00</ele>
    </rtept>
    <rtept lat="45.67095265" lon="15.31550791" >
      <name>rte1_480</name>
      <ele>295.83</ele>
    </rtept>
    <rtept lat="45.67091198" lon="15.31557185" >
      <name>rte1_481</name>
      <ele>295.83</ele>
    </rtept>
    <rtept lat="45.67087131" lon="15.31563580" >
      <name>rte1_482</name>
      <ele>295.83</ele>
    </rtept>
    <rtept lat="45.67083063" lon="15.31570616" >
      <name>rte1_483</name>
      <ele>295.83</ele>
    </rtept>
    <rtept lat="45.67079442" lon="15.31578296" >
      <name>rte1_484</name>
      <ele>300.00</ele>
    </rtept>
    <rtept lat="45.67075825" lon="15.31584693" >
      <name>rte1_485</name>
      <ele>293.70</ele>
    </rtept>
    <rtept lat="45.67072208" lon="15.31591090" >
      <name>rte1_486</name>
      <ele>293.70</ele>
    </rtept>
    <rtept lat="45.67069041" lon="15.31597490" >
      <name>rte1_487</name>
      <ele>293.70</ele>
    </rtept>
    <rtept lat="45.67065875" lon="15.31603247" >
      <name>rte1_488</name>
      <ele>293.70</ele>
    </rtept>
    <rtept lat="45.67062708" lon="15.31609647" >
      <name>rte1_489</name>
      <ele>293.70</ele>
    </rtept>
    <rtept lat="45.67059543" lon="15.31615405" >
      <name>rte1_490</name>
      <ele>296.10</ele>
    </rtept>
    <rtept lat="45.67056825" lon="15.31621807" >
      <name>rte1_491</name>
      <ele>296.10</ele>
    </rtept>
    <rtept lat="45.67054110" lon="15.31627567" >
      <name>rte1_492</name>
      <ele>296.10</ele>
    </rtept>
    <rtept lat="45.67051394" lon="15.31633327" >
      <name>rte1_493</name>
      <ele>290.00</ele>
    </rtept>
    <rtept lat="45.67048679" lon="15.31639088" >
      <name>rte1_494</name>
      <ele>290.00</ele>
    </rtept>
    <rtept lat="45.67046413" lon="15.31644850" >
      <name>rte1_495</name>
      <ele>300.00</ele>
    </rtept>
    <rtept lat="45.67043699" lon="15.31649969" >
      <name>rte1_496</name>
      <ele>300.00</ele>
    </rtept>
    <rtept lat="45.67040984" lon="15.31655729" >
      <name>rte1_497</name>
      <ele>300.00</ele>
    </rtept>
    <rtept lat="45.67038720" lon="15.31660850" >
      <name>rte1_498</name>
      <ele>300.00</ele>
    </rtept>
    <rtept lat="45.67036004" lon="15.31666610" >
      <name>rte1_499</name>
      <ele>300.00</ele>
    </rtept>
    <rtept lat="45.67033741" lon="15.31671731" >
      <name>rte1_500</name>
      <ele>300.00</ele>
    </rtept>
    <rtept lat="45.67031025" lon="15.31677492" >
      <name>rte1_501</name>
      <ele>290.00</ele>
    </rtept>
    <rtept lat="45.67028311" lon="15.31682610" >
      <name>rte1_502</name>
      <ele>290.00</ele>
    </rtept>
    <rtept lat="45.67026047" lon="15.31687731" >
      <name>rte1_503</name>
      <ele>290.00</ele>
    </rtept>
    <rtept lat="45.67023332" lon="15.31693491" >
      <name>rte1_504</name>
      <ele>290.00</ele>
    </rtept>
    <rtept lat="45.67020618" lon="15.31698610" >
      <name>rte1_505</name>
      <ele>290.00</ele>
    </rtept>
    <rtept lat="45.67017454" lon="15.31703726" >
      <name>rte1_506</name>
      <ele>290.00</ele>
    </rtept>
    <rtept lat="45.67014739" lon="15.31709486" >
      <name>rte1_507</name>
      <ele>294.80</ele>
    </rtept>
    <rtept lat="45.67011575" lon="15.31714602" >
      <name>rte1_508</name>
      <ele>294.80</ele>
    </rtept>
    <rtept lat="45.67008412" lon="15.31719718" >
      <name>rte1_509</name>
      <ele>290.00</ele>
    </rtept>
    <rtept lat="45.67005248" lon="15.31724834" >
      <name>rte1_510</name>
      <ele>290.00</ele>
    </rtept>
    <rtept lat="45.67001633" lon="15.31730589" >
      <name>rte1_511</name>
      <ele>290.00</ele>
    </rtept>
    <rtept lat="45.66998019" lon="15.31735702" >
      <name>rte1_512</name>
      <ele>290.00</ele>
    </rtept>
    <rtept lat="45.66994404" lon="15.31741457" >
      <name>rte1_513</name>
      <ele>290.00</ele>
    </rtept>
    <rtept lat="45.66990340" lon="15.31746568" >
      <name>rte1_514</name>
      <ele>290.00</ele>
    </rtept>
    <rtept lat="45.66986275" lon="15.31752320" >
      <name>rte1_515</name>
      <ele>290.00</ele>
    </rtept>
    <rtept lat="45.66982209" lon="15.31758073" >
      <name>rte1_516</name>
      <ele>290.00</ele>
    </rtept>
    <rtept lat="45.66951062" lon="15.31795116" >
      <name>rte1_517</name>
      <ele>280.00</ele>
    </rtept>
    <rtept lat="45.66944743" lon="15.31802139" >
      <name>rte1_518</name>
      <ele>280.00</ele>
    </rtept>
    <rtept lat="45.66938875" lon="15.31809165" >
      <name>rte1_519</name>
      <ele>280.00</ele>
    </rtept>
    <rtept lat="45.66933008" lon="15.31815548" >
      <name>rte1_520</name>
      <ele>280.00</ele>
    </rtept>
    <rtept lat="45.66927140" lon="15.31822574" >
      <name>rte1_521</name>
      <ele>280.00</ele>
    </rtept>
    <rtept lat="45.66921273" lon="15.31828958" >
      <name>rte1_522</name>
      <ele>280.00</ele>
    </rtept>
    <rtept lat="45.66915406" lon="15.31835342" >
      <name>rte1_523</name>
      <ele>280.00</ele>
    </rtept>
    <rtept lat="45.66909091" lon="15.31841081" >
      <name>rte1_524</name>
      <ele>280.00</ele>
    </rtept>
    <rtept lat="45.66902775" lon="15.31847462" >
      <name>rte1_525</name>
      <ele>280.00</ele>
    </rtept>
    <rtept lat="45.66894225" lon="15.31848055" >
      <name>rte1_526</name>
      <ele>275.00</ele>
    </rtept>
    <rtept lat="45.66889286" lon="15.31844177" >
      <name>rte1_527</name>
      <ele>275.00</ele>
    </rtept>
    <rtept lat="45.66883454" lon="15.31838368" >
      <name>rte1_528</name>
      <ele>275.00</ele>
    </rtept>
    <rtept lat="45.66877627" lon="15.31830634" >
      <name>rte1_529</name>
      <ele>273.50</ele>
    </rtept>
    <rtept lat="45.66874042" lon="15.31825480" >
      <name>rte1_530</name>
      <ele>273.50</ele>
    </rtept>
    <rtept lat="45.66870909" lon="15.31819687" >
      <name>rte1_531</name>
      <ele>270.00</ele>
    </rtept>
    <rtept lat="45.66867325" lon="15.31813891" >
      <name>rte1_532</name>
      <ele>270.00</ele>
    </rtept>
    <rtept lat="45.66864194" lon="15.31807456" >
      <name>rte1_533</name>
      <ele>270.00</ele>
    </rtept>
    <rtept lat="45.66860616" lon="15.31799735" >
      <name>rte1_534</name>
      <ele>268.60</ele>
    </rtept>
    <rtept lat="45.66857037" lon="15.31792655" >
      <name>rte1_535</name>
      <ele>268.60</ele>
    </rtept>
    <rtept lat="45.66847589" lon="15.31792602" >
      <name>rte1_536</name>
      <ele>265.20</ele>
    </rtept>
    <rtept lat="45.66842179" lon="15.31796421" >
      <name>rte1_537</name>
      <ele>265.20</ele>
    </rtept>
    <rtept lat="45.66836768" lon="15.31800882" >
      <name>rte1_538</name>
      <ele>265.20</ele>
    </rtept>
    <rtept lat="45.66831355" lon="15.31805985" >
      <name>rte1_539</name>
      <ele>270.00</ele>
    </rtept>
    <rtept lat="45.66825941" lon="15.31811088" >
      <name>rte1_540</name>
      <ele>265.00</ele>
    </rtept>
    <rtept lat="45.66820526" lon="15.31816833" >
      <name>rte1_541</name>
      <ele>265.00</ele>
    </rtept>
    <rtept lat="45.66815109" lon="15.31823219" >
      <name>rte1_542</name>
      <ele>265.00</ele>
    </rtept>
    <rtept lat="45.66810142" lon="15.31829608" >
      <name>rte1_543</name>
      <ele>265.00</ele>
    </rtept>
    <rtept lat="45.66805170" lon="15.31837922" >
      <name>rte1_544</name>
      <ele>261.50</ele>
    </rtept>
    <rtept lat="45.66782194" lon="15.31848700" >
      <name>rte1_545</name>
      <ele>260.00</ele>
    </rtept>
    <rtept lat="45.66773635" lon="15.31852501" >
      <name>rte1_546</name>
      <ele>260.00</ele>
    </rtept>
    <rtept lat="45.66769131" lon="15.31854400" >
      <name>rte1_547</name>
      <ele>260.00</ele>
    </rtept>
    <rtept lat="45.66764628" lon="15.31855658" >
      <name>rte1_548</name>
      <ele>260.00</ele>
    </rtept>
    <rtept lat="45.66759677" lon="15.31856272" >
      <name>rte1_549</name>
      <ele>260.00</ele>
    </rtept>
    <rtept lat="45.66754725" lon="15.31857527" >
      <name>rte1_550</name>
      <ele>260.00</ele>
    </rtept>
    <rtept lat="45.66749774" lon="15.31858140" >
      <name>rte1_551</name>
      <ele>260.00</ele>
    </rtept>
    <rtept lat="45.66744823" lon="15.31858754" >
      <name>rte1_552</name>
      <ele>260.00</ele>
    </rtept>
    <rtept lat="45.66739874" lon="15.31858725" >
      <name>rte1_553</name>
      <ele>260.00</ele>
    </rtept>
    <rtept lat="45.66734474" lon="15.31859336" >
      <name>rte1_554</name>
      <ele>255.80</ele>
    </rtept>
    <rtept lat="45.66729525" lon="15.31859308" >
      <name>rte1_555</name>
      <ele>255.80</ele>
    </rtept>
    <rtept lat="45.66724126" lon="15.31859277" >
      <name>rte1_556</name>
      <ele>255.80</ele>
    </rtept>
    <rtept lat="45.66719177" lon="15.31859249" >
      <name>rte1_557</name>
      <ele>255.80</ele>
    </rtept>
    <rtept lat="45.66713778" lon="15.31859218" >
      <name>rte1_558</name>
      <ele>253.50</ele>
    </rtept>
    <rtept lat="45.66708379" lon="15.31859187" >
      <name>rte1_559</name>
      <ele>253.50</ele>
    </rtept>
    <rtept lat="45.66703428" lon="15.31859801" >
      <name>rte1_560</name>
      <ele>253.50</ele>
    </rtept>
    <rtept lat="45.66698481" lon="15.31859131" >
      <name>rte1_561</name>
      <ele>253.50</ele>
    </rtept>
    <rtept lat="45.66693982" lon="15.31859105" >
      <name>rte1_562</name>
      <ele>253.50</ele>
    </rtept>
    <rtept lat="45.66685436" lon="15.31858415" >
      <name>rte1_563</name>
      <ele>250.00</ele>
    </rtept>
    <rtept lat="45.66677339" lon="15.31857727" >
      <name>rte1_564</name>
      <ele>250.00</ele>
    </rtept>
    <rtept lat="45.66669695" lon="15.31856400" >
      <name>rte1_565</name>
      <ele>242.89</ele>
    </rtept>
    <rtept lat="45.66662050" lon="15.31855073" >
      <name>rte1_566</name>
      <ele>242.89</ele>
    </rtept>
    <rtept lat="45.66654853" lon="15.31854390" >
      <name>rte1_567</name>
      <ele>242.89</ele>
    </rtept>
    <rtept lat="45.66647658" lon="15.31853066" >
      <name>rte1_568</name>
      <ele>240.00</ele>
    </rtept>
    <rtept lat="45.66640911" lon="15.31852386" >
      <name>rte1_569</name>
      <ele>240.00</ele>
    </rtept>
    <rtept lat="45.66634165" lon="15.31851705" >
      <name>rte1_570</name>
      <ele>240.00</ele>
    </rtept>
    <rtept lat="45.66626968" lon="15.31851023" >
      <name>rte1_571</name>
      <ele>240.00</ele>
    </rtept>
    <rtept lat="45.66620217" lon="15.31851626" >
      <name>rte1_572</name>
      <ele>238.90</ele>
    </rtept>
    <rtept lat="45.66613017" lon="15.31852226" >
      <name>rte1_573</name>
      <ele>238.90</ele>
    </rtept>
    <rtept lat="45.66605365" lon="15.31853466" >
      <name>rte1_574</name>
      <ele>238.90</ele>
    </rtept>
    <rtept lat="45.66597710" lon="15.31855989" >
      <name>rte1_575</name>
      <ele>236.10</ele>
    </rtept>
    <rtept lat="45.66589604" lon="15.31858510" >
      <name>rte1_576</name>
      <ele>236.10</ele>
    </rtept>
    <rtept lat="45.66585100" lon="15.31860409" >
      <name>rte1_577</name>
      <ele>236.10</ele>
    </rtept>
    <rtept lat="45.66581043" lon="15.31862953" >
      <name>rte1_578</name>
      <ele>236.10</ele>
    </rtept>
    <rtept lat="45.66567136" lon="15.31848756" >
      <name>rte1_579</name>
      <ele>235.00</ele>
    </rtept>
    <rtept lat="45.66561310" lon="15.31840381" >
      <name>rte1_580</name>
      <ele>235.00</ele>
    </rtept>
    <rtept lat="45.66555931" lon="15.31833292" >
      <name>rte1_581</name>
      <ele>234.04</ele>
    </rtept>
    <rtept lat="45.66550552" lon="15.31826203" >
      <name>rte1_582</name>
      <ele>235.00</ele>
    </rtept>
    <rtept lat="45.66545171" lon="15.31819755" >
      <name>rte1_583</name>
      <ele>235.00</ele>
    </rtept>
    <rtept lat="45.66539339" lon="15.31813947" >
      <name>rte1_584</name>
      <ele>235.00</ele>
    </rtept>
    <rtept lat="45.66532604" lon="15.31808775" >
      <name>rte1_585</name>
      <ele>233.28</ele>
    </rtept>
    <rtept lat="45.66525420" lon="15.31803601" >
      <name>rte1_586</name>
      <ele>233.28</ele>
    </rtept>
    <rtept lat="45.66517333" lon="15.31799705" >
      <name>rte1_587</name>
      <ele>233.28</ele>
    </rtept>
    <rtept lat="45.66508795" lon="15.31795806" >
      <name>rte1_588</name>
      <ele>230.00</ele>
    </rtept>
    <rtept lat="45.66501158" lon="15.31791912" >
      <name>rte1_589</name>
      <ele>230.00</ele>
    </rtept>
    <rtept lat="45.66493970" lon="15.31788022" >
      <name>rte1_590</name>
      <ele>230.00</ele>
    </rtept>
    <rtept lat="45.66486782" lon="15.31784131" >
      <name>rte1_591</name>
      <ele>226.70</ele>
    </rtept>
    <rtept lat="45.66480044" lon="15.31780242" >
      <name>rte1_592</name>
      <ele>226.70</ele>
    </rtept>
    <rtept lat="45.66473757" lon="15.31776356" >
      <name>rte1_593</name>
      <ele>226.70</ele>
    </rtept>
    <rtept lat="45.66467019" lon="15.31772468" >
      <name>rte1_594</name>
      <ele>225.00</ele>
    </rtept>
    <rtept lat="45.66460729" lon="15.31769224" >
      <name>rte1_595</name>
      <ele>225.00</ele>
    </rtept>
    <rtept lat="45.66454439" lon="15.31765980" >
      <name>rte1_596</name>
      <ele>223.17</ele>
    </rtept>
    <rtept lat="45.66448150" lon="15.31762736" >
      <name>rte1_597</name>
      <ele>223.17</ele>
    </rtept>
    <rtept lat="45.66441408" lon="15.31760130" >
      <name>rte1_598</name>
      <ele>222.03</ele>
    </rtept>
    <rtept lat="45.66434667" lon="15.31757525" >
      <name>rte1_599</name>
      <ele>222.03</ele>
    </rtept>
    <rtept lat="45.66427474" lon="15.31755560" >
      <name>rte1_600</name>
      <ele>222.03</ele>
    </rtept>
    <rtept lat="45.66419831" lon="15.31753591" >
      <name>rte1_601</name>
      <ele>220.00</ele>
    </rtept>
    <rtept lat="45.66411736" lon="15.31752262" >
      <name>rte1_602</name>
      <ele>220.00</ele>
    </rtept>
    <rtept lat="45.66403189" lon="15.31751571" >
      <name>rte1_603</name>
      <ele>220.00</ele>
    </rtept>
    <rtept lat="45.66394645" lon="15.31750240" >
      <name>rte1_604</name>
      <ele>218.53</ele>
    </rtept>
    <rtept lat="45.66387000" lon="15.31748913" >
      <name>rte1_605</name>
      <ele>218.53</ele>
    </rtept>
    <rtept lat="45.66379807" lon="15.31746947" >
      <name>rte1_606</name>
      <ele>218.53</ele>
    </rtept>
    <rtept lat="45.66373066" lon="15.31744342" >
      <name>rte1_607</name>
      <ele>215.24</ele>
    </rtept>
    <rtept lat="45.66366778" lon="15.31740456" >
      <name>rte1_608</name>
      <ele>215.24</ele>
    </rtept>
    <rtept lat="45.66360493" lon="15.31735287" >
      <name>rte1_609</name>
      <ele>215.24</ele>
    </rtept>
    <rtept lat="45.66354662" lon="15.31728837" >
      <name>rte1_610</name>
      <ele>210.00</ele>
    </rtept>
    <rtept lat="45.66348835" lon="15.31721104" >
      <name>rte1_611</name>
      <ele>210.00</ele>
    </rtept>
    <rtept lat="45.66343460" lon="15.31712732" >
      <name>rte1_612</name>
      <ele>210.00</ele>
    </rtept>
    <rtept lat="45.66338530" lon="15.31705646" >
      <name>rte1_613</name>
      <ele>210.00</ele>
    </rtept>
    <rtept lat="45.66333153" lon="15.31697916" >
      <name>rte1_614</name>
      <ele>208.70</ele>
    </rtept>
    <rtept lat="45.66328222" lon="15.31691471" >
      <name>rte1_615</name>
      <ele>208.70</ele>
    </rtept>
    <rtept lat="45.66323742" lon="15.31684387" >
      <name>rte1_616</name>
      <ele>208.70</ele>
    </rtept>
    <rtept lat="45.66318810" lon="15.31678585" >
      <name>rte1_617</name>
      <ele>208.70</ele>
    </rtept>
    <rtept lat="45.66313427" lon="15.31672779" >
      <name>rte1_618</name>
      <ele>208.70</ele>
    </rtept>
    <rtept lat="45.66308492" lon="15.31667618" >
      <name>rte1_619</name>
      <ele>205.00</ele>
    </rtept>
    <rtept lat="45.66303106" lon="15.31663096" >
      <name>rte1_620</name>
      <ele>205.00</ele>
    </rtept>
    <rtept lat="45.66297718" lon="15.31659215" >
      <name>rte1_621</name>
      <ele>205.00</ele>
    </rtept>
    <rtept lat="45.66292328" lon="15.31655977" >
      <name>rte1_622</name>
      <ele>205.00</ele>
    </rtept>
    <rtept lat="45.66286036" lon="15.31653374" >
      <name>rte1_623</name>
      <ele>205.00</ele>
    </rtept>
    <rtept lat="45.66279743" lon="15.31651414" >
      <name>rte1_624</name>
      <ele>205.00</ele>
    </rtept>
    <rtept lat="45.66273448" lon="15.31650095" >
      <name>rte1_625</name>
      <ele>205.00</ele>
    </rtept>
    <rtept lat="45.66266249" lon="15.31650054" >
      <name>rte1_626</name>
      <ele>205.00</ele>
    </rtept>
    <rtept lat="45.66259049" lon="15.31650655" >
      <name>rte1_627</name>
      <ele>205.00</ele>
    </rtept>
    <rtept lat="45.66253648" lon="15.31651266" >
      <name>rte1_628</name>
      <ele>205.00</ele>
    </rtept>
    <rtept lat="45.66249147" lon="15.31651882" >
      <name>rte1_629</name>
      <ele>205.00</ele>
    </rtept>
    <rtept lat="45.66244647" lon="15.31652498" >
      <name>rte1_630</name>
      <ele>205.00</ele>
    </rtept>
    <rtept lat="45.66240144" lon="15.31653756" >
      <name>rte1_631</name>
      <ele>205.00</ele>
    </rtept>
    <rtept lat="45.66231592" lon="15.31654991" >
      <name>rte1_632</name>
      <ele>205.00</ele>
    </rtept>
    <rtept lat="45.66223940" lon="15.31656230" >
      <name>rte1_633</name>
      <ele>205.00</ele>
    </rtept>
    <rtept lat="45.66215842" lon="15.31656185" >
      <name>rte1_634</name>
      <ele>205.00</ele>
    </rtept>
    <rtept lat="45.66207745" lon="15.31655497" >
      <name>rte1_635</name>
      <ele>205.00</ele>
    </rtept>
    <rtept lat="45.66199654" lon="15.31652885" >
      <name>rte1_636</name>
      <ele>205.00</ele>
    </rtept>
    <rtept lat="45.66195160" lon="15.31650934" >
      <name>rte1_637</name>
      <ele>205.00</ele>
    </rtept>
    <rtept lat="45.66190669" lon="15.31648342" >
      <name>rte1_638</name>
      <ele>205.00</ele>
    </rtept>
    <rtept lat="45.66184830" lon="15.31644459" >
      <name>rte1_639</name>
      <ele>205.00</ele>
    </rtept>
    <rtept lat="45.66179892" lon="15.31640581" >
      <name>rte1_640</name>
      <ele>205.00</ele>
    </rtept>
    <rtept lat="45.66174954" lon="15.31636704" >
      <name>rte1_641</name>
      <ele>203.40</ele>
    </rtept>
    <rtept lat="45.66170914" lon="15.31633473" >
      <name>rte1_642</name>
      <ele>203.40</ele>
    </rtept>
    <rtept lat="45.66166427" lon="15.31628956" >
      <name>rte1_643</name>
      <ele>203.40</ele>
    </rtept>
    <rtept lat="45.66162839" lon="15.31625086" >
      <name>rte1_644</name>
      <ele>203.40</ele>
    </rtept>
    <rtept lat="45.66158800" lon="15.31621213" >
      <name>rte1_645</name>
      <ele>203.40</ele>
    </rtept>
    <rtept lat="45.66155212" lon="15.31617343" >
      <name>rte1_646</name>
      <ele>203.40</ele>
    </rtept>
    <rtept lat="45.66151173" lon="15.31613470" >
      <name>rte1_647</name>
      <ele>204.30</ele>
    </rtept>
    <rtept lat="45.66147135" lon="15.31609597" >
      <name>rte1_648</name>
      <ele>204.30</ele>
    </rtept>
    <rtept lat="45.66143546" lon="15.31605727" >
      <name>rte1_649</name>
      <ele>204.30</ele>
    </rtept>
    <rtept lat="45.66139058" lon="15.31601852" >
      <name>rte1_650</name>
      <ele>203.70</ele>
    </rtept>
    <rtept lat="45.66135019" lon="15.31597979" >
      <name>rte1_651</name>
      <ele>203.70</ele>
    </rtept>
    <rtept lat="45.66130081" lon="15.31594102" >
      <name>rte1_652</name>
      <ele>205.00</ele>
    </rtept>
    <rtept lat="45.66125143" lon="15.31590224" >
      <name>rte1_653</name>
      <ele>205.00</ele>
    </rtept>
    <rtept lat="45.66119753" lon="15.31586985" >
      <name>rte1_654</name>
      <ele>205.00</ele>
    </rtept>
    <rtept lat="45.66112567" lon="15.31582453" >
      <name>rte1_655</name>
      <ele>205.00</ele>
    </rtept>
    <rtept lat="45.66105829" lon="15.31578565" >
      <name>rte1_656</name>
      <ele>205.00</ele>
    </rtept>
    <rtept lat="45.66099091" lon="15.31574677" >
      <name>rte1_657</name>
      <ele>205.00</ele>
    </rtept>
    <rtept lat="45.66093251" lon="15.31571436" >
      <name>rte1_658</name>
      <ele>205.00</ele>
    </rtept>
    <rtept lat="45.66087413" lon="15.31567553" >
      <name>rte1_659</name>
      <ele>205.00</ele>
    </rtept>
    <rtept lat="45.66081572" lon="15.31564954" >
      <name>rte1_660</name>
      <ele>205.00</ele>
    </rtept>
    <rtept lat="45.66075732" lon="15.31561713" >
      <name>rte1_661</name>
      <ele>205.00</ele>
    </rtept>
    <rtept lat="45.66070340" lon="15.31559116" >
      <name>rte1_662</name>
      <ele>205.00</ele>
    </rtept>
    <rtept lat="45.66064498" lon="15.31556516" >
      <name>rte1_663</name>
      <ele>205.00</ele>
    </rtept>
    <rtept lat="45.66058657" lon="15.31553917" >
      <name>rte1_664</name>
      <ele>205.00</ele>
    </rtept>
    <rtept lat="45.66052817" lon="15.31550676" >
      <name>rte1_665</name>
      <ele>205.00</ele>
    </rtept>
    <rtept lat="45.66046975" lon="15.31548076" >
      <name>rte1_666</name>
      <ele>205.00</ele>
    </rtept>
    <rtept lat="45.66040234" lon="15.31545471" >
      <name>rte1_667</name>
      <ele>205.00</ele>
    </rtept>
    <rtept lat="45.66033942" lon="15.31542869" >
      <name>rte1_668</name>
      <ele>205.00</ele>
    </rtept>
    <rtept lat="45.66026753" lon="15.31539621" >
      <name>rte1_669</name>
      <ele>205.00</ele>
    </rtept>
    <rtept lat="45.66019561" lon="15.31537014" >
      <name>rte1_670</name>
      <ele>205.00</ele>
    </rtept>
    <rtept lat="45.66005635" lon="15.31529236" >
      <name>rte1_671</name>
      <ele>205.00</ele>
    </rtept>
    <rtept lat="45.66002054" lon="15.31522799" >
      <name>rte1_672</name>
      <ele>205.00</ele>
    </rtept>
    <rtept lat="45.65998469" lon="15.31517646" >
      <name>rte1_673</name>
      <ele>205.00</ele>
    </rtept>
    <rtept lat="45.65994886" lon="15.31511851" >
      <name>rte1_674</name>
      <ele>205.00</ele>
    </rtept>
    <rtept lat="45.65991752" lon="15.31506059" >
      <name>rte1_675</name>
      <ele>205.00</ele>
    </rtept>
    <rtept lat="45.65988167" lon="15.31500906" >
      <name>rte1_676</name>
      <ele>205.00</ele>
    </rtept>
    <rtept lat="45.65984582" lon="15.31495753" >
      <name>rte1_677</name>
      <ele>205.00</ele>
    </rtept>
    <rtept lat="45.65981447" lon="15.31490602" >
      <name>rte1_678</name>
      <ele>205.00</ele>
    </rtept>
    <rtept lat="45.65977862" lon="15.31485449" >
      <name>rte1_679</name>
      <ele>205.00</ele>
    </rtept>
    <rtept lat="45.65974727" lon="15.31480298" >
      <name>rte1_680</name>
      <ele>205.00</ele>
    </rtept>
    <rtept lat="45.65971140" lon="15.31475787" >
      <name>rte1_681</name>
      <ele>205.90</ele>
    </rtept>
    <rtept lat="45.65967555" lon="15.31470633" >
      <name>rte1_682</name>
      <ele>205.50</ele>
    </rtept>
    <rtept lat="45.65963968" lon="15.31466122" >
      <name>rte1_683</name>
      <ele>205.50</ele>
    </rtept>
    <rtept lat="45.65960832" lon="15.31461613" >
      <name>rte1_684</name>
      <ele>205.50</ele>
    </rtept>
    <rtept lat="45.65957245" lon="15.31457101" >
      <name>rte1_685</name>
      <ele>205.50</ele>
    </rtept>
    <rtept lat="45.65953658" lon="15.31452590" >
      <name>rte1_686</name>
      <ele>205.50</ele>
    </rtept>
    <rtept lat="45.65950069" lon="15.31448720" >
      <name>rte1_687</name>
      <ele>207.90</ele>
    </rtept>
    <rtept lat="45.65946033" lon="15.31444206" >
      <name>rte1_688</name>
      <ele>207.90</ele>
    </rtept>
    <rtept lat="45.65942444" lon="15.31440336" >
      <name>rte1_689</name>
      <ele>207.80</ele>
    </rtept>
    <rtept lat="45.65938857" lon="15.31435825" >
      <name>rte1_690</name>
      <ele>207.80</ele>
    </rtept>
    <rtept lat="45.65934819" lon="15.31431952" >
      <name>rte1_691</name>
      <ele>207.80</ele>
    </rtept>
    <rtept lat="45.65931230" lon="15.31428082" >
      <name>rte1_692</name>
      <ele>207.80</ele>
    </rtept>
    <rtept lat="45.65927192" lon="15.31424210" >
      <name>rte1_693</name>
      <ele>210.00</ele>
    </rtept>
    <rtept lat="45.65923153" lon="15.31420338" >
      <name>rte1_694</name>
      <ele>210.00</ele>
    </rtept>
    <rtept lat="45.65919115" lon="15.31416465" >
      <name>rte1_695</name>
      <ele>210.00</ele>
    </rtept>
    <rtept lat="45.65915074" lon="15.31413234" >
      <name>rte1_696</name>
      <ele>210.00</ele>
    </rtept>
    <rtept lat="45.65911036" lon="15.31409362" >
      <name>rte1_697</name>
      <ele>210.00</ele>
    </rtept>
    <rtept lat="45.65906547" lon="15.31405487" >
      <name>rte1_698</name>
      <ele>210.00</ele>
    </rtept>
    <rtept lat="45.65902057" lon="15.31402254" >
      <name>rte1_699</name>
      <ele>210.00</ele>
    </rtept>
    <rtept lat="45.65898019" lon="15.31398382" >
      <name>rte1_700</name>
      <ele>210.00</ele>
    </rtept>
    <rtept lat="45.65893079" lon="15.31395146" >
      <name>rte1_701</name>
      <ele>210.00</ele>
    </rtept>
    <rtept lat="45.65888588" lon="15.31391912" >
      <name>rte1_702</name>
      <ele>210.00</ele>
    </rtept>
    <rtept lat="45.65884098" lon="15.31388679" >
      <name>rte1_703</name>
      <ele>210.00</ele>
    </rtept>
    <rtept lat="45.65878710" lon="15.31384799" >
      <name>rte1_704</name>
      <ele>210.00</ele>
    </rtept>
    <rtept lat="45.65873322" lon="15.31380919" >
      <name>rte1_705</name>
      <ele>210.00</ele>
    </rtept>
    <rtept lat="45.65868382" lon="15.31377684" >
      <name>rte1_706</name>
      <ele>210.00</ele>
    </rtept>
    <rtept lat="45.65863891" lon="15.31374450" >
      <name>rte1_707</name>
      <ele>210.00</ele>
    </rtept>
    <rtept lat="45.65859401" lon="15.31371217" >
      <name>rte1_708</name>
      <ele>210.00</ele>
    </rtept>
    <rtept lat="45.65854911" lon="15.31367984" >
      <name>rte1_709</name>
      <ele>210.00</ele>
    </rtept>
    <rtept lat="45.65850869" lon="15.31365395" >
      <name>rte1_710</name>
      <ele>210.00</ele>
    </rtept>
    <rtept lat="45.65846829" lon="15.31362164" >
      <name>rte1_711</name>
      <ele>210.00</ele>
    </rtept>
    <rtept lat="45.65839193" lon="15.31357630" >
      <name>rte1_712</name>
      <ele>206.06</ele>
    </rtept>
    <rtept lat="45.65832006" lon="15.31353098" >
      <name>rte1_713</name>
      <ele>206.06</ele>
    </rtept>
    <rtept lat="45.65825268" lon="15.31349211" >
      <name>rte1_714</name>
      <ele>206.06</ele>
    </rtept>
    <rtept lat="45.65818977" lon="15.31346609" >
      <name>rte1_715</name>
      <ele>206.06</ele>
    </rtept>
    <rtept lat="45.65812685" lon="15.31344008" >
      <name>rte1_716</name>
      <ele>205.00</ele>
    </rtept>
    <rtept lat="45.65806840" lon="15.31342692" >
      <name>rte1_717</name>
      <ele>205.00</ele>
    </rtept>
    <rtept lat="45.65800543" lon="15.31342015" >
      <name>rte1_718</name>
      <ele>205.00</ele>
    </rtept>
    <rtept lat="45.65794692" lon="15.31342623" >
      <name>rte1_719</name>
      <ele>200.00</ele>
    </rtept>
    <rtept lat="45.65788390" lon="15.31343871" >
      <name>rte1_720</name>
      <ele>200.00</ele>
    </rtept>
    <rtept lat="45.65781635" lon="15.31346400" >
      <name>rte1_721</name>
      <ele>203.38</ele>
    </rtept>
    <rtept lat="45.65774427" lon="15.31349567" >
      <name>rte1_722</name>
      <ele>203.38</ele>
    </rtept>
    <rtept lat="45.65767215" lon="15.31354659" >
      <name>rte1_723</name>
      <ele>201.56</ele>
    </rtept>
    <rtept lat="45.65762257" lon="15.31357840" >
      <name>rte1_724</name>
      <ele>201.56</ele>
    </rtept>
    <rtept lat="45.65757299" lon="15.31361020" >
      <name>rte1_725</name>
      <ele>201.56</ele>
    </rtept>
    <rtept lat="45.65752791" lon="15.31364202" >
      <name>rte1_726</name>
      <ele>201.56</ele>
    </rtept>
    <rtept lat="45.65748283" lon="15.31367385" >
      <name>rte1_727</name>
      <ele>196.36</ele>
    </rtept>
    <rtept lat="45.65743777" lon="15.31369926" >
      <name>rte1_728</name>
      <ele>196.36</ele>
    </rtept>
    <rtept lat="45.65739719" lon="15.31373111" >
      <name>rte1_729</name>
      <ele>196.36</ele>
    </rtept>
    <rtept lat="45.65735213" lon="15.31375652" >
      <name>rte1_730</name>
      <ele>196.36</ele>
    </rtept>
    <rtept lat="45.65731156" lon="15.31378196" >
      <name>rte1_731</name>
      <ele>200.00</ele>
    </rtept>
    <rtept lat="45.65726650" lon="15.31380737" >
      <name>rte1_732</name>
      <ele>200.00</ele>
    </rtept>
    <rtept lat="45.65722594" lon="15.31383280" >
      <name>rte1_733</name>
      <ele>200.00</ele>
    </rtept>
    <rtept lat="45.65714483" lon="15.31387726" >
      <name>rte1_734</name>
      <ele>200.00</ele>
    </rtept>
    <rtept lat="45.65705924" lon="15.31391527" >
      <name>rte1_735</name>
      <ele>200.00</ele>
    </rtept>
    <rtept lat="45.65697817" lon="15.31394690" >
      <name>rte1_736</name>
      <ele>196.90</ele>
    </rtept>
    <rtept lat="45.65689712" lon="15.31397211" >
      <name>rte1_737</name>
      <ele>196.90</ele>
    </rtept>
    <rtept lat="45.65681158" lon="15.31399087" >
      <name>rte1_738</name>
      <ele>195.00</ele>
    </rtept>
    <rtept lat="45.65672606" lon="15.31400322" >
      <name>rte1_739</name>
      <ele>195.00</ele>
    </rtept>
    <rtept lat="45.65663608" lon="15.31400272" >
      <name>rte1_740</name>
      <ele>195.00</ele>
    </rtept>
    <rtept lat="45.65654610" lon="15.31400221" >
      <name>rte1_741</name>
      <ele>193.70</ele>
    </rtept>
    <rtept lat="45.65649663" lon="15.31399552" >
      <name>rte1_742</name>
      <ele>193.70</ele>
    </rtept>
    <rtept lat="45.65644718" lon="15.31398241" >
      <name>rte1_743</name>
      <ele>193.70</ele>
    </rtept>
    <rtept lat="45.65639770" lon="15.31397571" >
      <name>rte1_744</name>
      <ele>193.70</ele>
    </rtept>
    <rtept lat="45.65634825" lon="15.31396260" >
      <name>rte1_745</name>
      <ele>190.00</ele>
    </rtept>
    <rtept lat="45.65629431" lon="15.31394305" >
      <name>rte1_746</name>
      <ele>190.00</ele>
    </rtept>
    <rtept lat="45.65624486" lon="15.31392994" >
      <name>rte1_747</name>
      <ele>190.00</ele>
    </rtept>
    <rtept lat="45.65615945" lon="15.31390380" >
      <name>rte1_748</name>
      <ele>190.00</ele>
    </rtept>
    <rtept lat="45.65608298" lon="15.31389696" >
      <name>rte1_749</name>
      <ele>190.00</ele>
    </rtept>
    <rtept lat="45.65601100" lon="15.31389655" >
      <name>rte1_750</name>
      <ele>190.00</ele>
    </rtept>
    <rtept lat="45.65594349" lon="15.31390259" >
      <name>rte1_751</name>
      <ele>190.00</ele>
    </rtept>
    <rtept lat="45.65587597" lon="15.31391504" >
      <name>rte1_752</name>
      <ele>190.00</ele>
    </rtept>
    <rtept lat="45.65581293" lon="15.31393393" >
      <name>rte1_753</name>
      <ele>190.00</ele>
    </rtept>
    <rtept lat="45.65574987" lon="15.31395924" >
      <name>rte1_754</name>
      <ele>190.00</ele>
    </rtept>
    <rtept lat="45.65569130" lon="15.31399099" >
      <name>rte1_755</name>
      <ele>182.52</ele>
    </rtept>
    <rtept lat="45.65562820" lon="15.31402913" >
      <name>rte1_756</name>
      <ele>182.52</ele>
    </rtept>
    <rtept lat="45.65556511" lon="15.31406727" >
      <name>rte1_757</name>
      <ele>182.52</ele>
    </rtept>
    <rtept lat="45.65550650" lon="15.31411185" >
      <name>rte1_758</name>
      <ele>187.70</ele>
    </rtept>
    <rtept lat="45.65543889" lon="15.31415638" >
      <name>rte1_759</name>
      <ele>187.01</ele>
    </rtept>
    <rtept lat="45.65537576" lon="15.31420735" >
      <name>rte1_760</name>
      <ele>187.01</ele>
    </rtept>
    <rtept lat="45.65530815" lon="15.31425188" >
      <name>rte1_761</name>
      <ele>187.01</ele>
    </rtept>
    <rtept lat="45.65523604" lon="15.31429638" >
      <name>rte1_762</name>
      <ele>187.81</ele>
    </rtept>
    <rtept lat="45.65516391" lon="15.31434730" >
      <name>rte1_763</name>
      <ele>187.81</ele>
    </rtept>
    <rtept lat="45.65509184" lon="15.31437897" >
      <name>rte1_764</name>
      <ele>187.81</ele>
    </rtept>
    <rtept lat="45.65502424" lon="15.31441709" >
      <name>rte1_765</name>
      <ele>194.14</ele>
    </rtept>
    <rtept lat="45.65496115" lon="15.31445523" >
      <name>rte1_766</name>
      <ele>192.29</ele>
    </rtept>
    <rtept lat="45.65490256" lon="15.31449339" >
      <name>rte1_767</name>
      <ele>192.29</ele>
    </rtept>
    <rtept lat="45.65484846" lon="15.31453158" >
      <name>rte1_768</name>
      <ele>192.29</ele>
    </rtept>
    <rtept lat="45.65479435" lon="15.31457618" >
      <name>rte1_769</name>
      <ele>190.00</ele>
    </rtept>
    <rtept lat="45.65474025" lon="15.31461437" >
      <name>rte1_770</name>
      <ele>190.00</ele>
    </rtept>
    <rtept lat="45.65469064" lon="15.31465900" >
      <name>rte1_771</name>
      <ele>190.00</ele>
    </rtept>
    <rtept lat="45.65464104" lon="15.31469722" >
      <name>rte1_772</name>
      <ele>190.00</ele>
    </rtept>
    <rtept lat="45.65459141" lon="15.31474826" >
      <name>rte1_773</name>
      <ele>193.85</ele>
    </rtept>
    <rtept lat="45.65454180" lon="15.31479289" >
      <name>rte1_774</name>
      <ele>187.70</ele>
    </rtept>
    <rtept lat="45.65449216" lon="15.31484393" >
      <name>rte1_775</name>
      <ele>187.70</ele>
    </rtept>
    <rtept lat="45.65443803" lon="15.31489495" >
      <name>rte1_776</name>
      <ele>187.70</ele>
    </rtept>
    <rtept lat="45.65438838" lon="15.31495241" >
      <name>rte1_777</name>
      <ele>187.70</ele>
    </rtept>
    <rtept lat="45.65433423" lon="15.31500985" >
      <name>rte1_778</name>
      <ele>179.01</ele>
    </rtept>
    <rtept lat="45.65428007" lon="15.31507370" >
      <name>rte1_779</name>
      <ele>180.00</ele>
    </rtept>
    <rtept lat="45.65345127" lon="15.31379235" >
      <name>rte1_780</name>
      <ele>162.59</ele>
    </rtept>
  </rte>
</gpx>
