<?xml version="1.0" encoding="UTF-8"?>
<gpx creator="https://gpx.studio" version="1.1" xmlns="http://www.topografix.com/GPX/1/1" xmlns:xsi="http://www.w3.org/2001/XMLSchema-instance" xsi:schemaLocation="http://www.topografix.com/GPX/1/1 http://www.topografix.com/GPX/1/1/gpx.xsd http://www.garmin.com/xmlschemas/GpxExtensions/v3 http://www.garmin.com/xmlschemas/GpxExtensionsv3.xsd http://www.garmin.com/xmlschemas/TrackPointExtension/v1 http://www.garmin.com/xmlschemas/TrackPointExtensionv1.xsd http://www.garmin.com/xmlschemas/PowerExtension/v1 http://www.garmin.com/xmlschemas/PowerExtensionv1.xsd http://www.topografix.com/GPX/gpx_style/0/2 http://www.topografix.com/GPX/gpx_style/0/2/gpx_style.xsd" xmlns:gpxtpx="http://www.garmin.com/xmlschemas/TrackPointExtension/v1" xmlns:gpxx="http://www.garmin.com/xmlschemas/GpxExtensions/v3" xmlns:gpxpx="http://www.garmin.com/xmlschemas/PowerExtension/v1" xmlns:gpx_style="http://www.topografix.com/GPX/gpx_style/0/2">
  <metadata>
    <name>New file 1</name>
    <author>
      <name>gpx.studio</name>
      <link href="https://gpx.studio"/>
    </author>
  </metadata>
  <trk>
    <name>New file 1</name>
    <trkseg>
      <trkpt lat="45.570734" lon="15.192703">
        <ele>152.45</ele>
      </trkpt>
      <trkpt lat="45.570714" lon="15.192789">
        <ele>152.38</ele>
      </trkpt>
      <trkpt lat="45.570897" lon="15.193044">
        <ele>150.61</ele>
      </trkpt>
      <trkpt lat="45.570989" lon="15.193144">
        <ele>150.18</ele>
      </trkpt>
      <trkpt lat="45.571098" lon="15.193195">
        <ele>150.22</ele>
      </trkpt>
      <trkpt lat="45.571176" lon="15.193206">
        <ele>150.37</ele>
      </trkpt>
      <trkpt lat="45.571249" lon="15.193203">
        <ele>150.56</ele>
      </trkpt>
      <trkpt lat="45.571312" lon="15.193184">
        <ele>150.75</ele>
      </trkpt>
      <trkpt lat="45.571424" lon="15.193126">
        <ele>151.08</ele>
      </trkpt>
      <trkpt lat="45.571478" lon="15.193086">
        <ele>151.21</ele>
      </trkpt>
      <trkpt lat="45.571637" lon="15.192909">
        <ele>151.41</ele>
      </trkpt>
      <trkpt lat="45.571811" lon="15.19276">
        <ele>152.17</ele>
      </trkpt>
      <trkpt lat="45.571918" lon="15.192667">
        <ele>152.63</ele>
      </trkpt>
      <trkpt lat="45.572088" lon="15.192497">
        <ele>153.93</ele>
      </trkpt>
      <trkpt lat="45.572438" lon="15.19204">
        <ele>155.01</ele>
      </trkpt>
      <trkpt lat="45.573192" lon="15.191208">
        <ele>159.22</ele>
      </trkpt>
      <trkpt lat="45.573169" lon="15.191152">
        <ele>158.61</ele>
      </trkpt>
      <trkpt lat="45.573399" lon="15.190857">
        <ele>159.56</ele>
      </trkpt>
      <trkpt lat="45.573442" lon="15.190742">
        <ele>158.94</ele>
      </trkpt>
      <trkpt lat="45.573671" lon="15.190306">
        <ele>157.35</ele>
      </trkpt>
      <trkpt lat="45.573822" lon="15.189914">
        <ele>156.7</ele>
      </trkpt>
      <trkpt lat="45.573921" lon="15.189634">
        <ele>157.04</ele>
      </trkpt>
      <trkpt lat="45.573976" lon="15.189397">
        <ele>157.28</ele>
      </trkpt>
      <trkpt lat="45.573985" lon="15.189116">
        <ele>156.54</ele>
      </trkpt>
      <trkpt lat="45.573987" lon="15.188636">
        <ele>153.88</ele>
      </trkpt>
      <trkpt lat="45.574021" lon="15.188174">
        <ele>152.79</ele>
      </trkpt>
      <trkpt lat="45.574003" lon="15.188021">
        <ele>152.55</ele>
      </trkpt>
      <trkpt lat="45.573973" lon="15.187947">
        <ele>152.2</ele>
      </trkpt>
      <trkpt lat="45.573948" lon="15.187885">
        <ele>151.93</ele>
      </trkpt>
      <trkpt lat="45.573853" lon="15.187752">
        <ele>150.94</ele>
      </trkpt>
      <trkpt lat="45.573323" lon="15.187148">
        <ele>149.53</ele>
      </trkpt>
      <trkpt lat="45.573251" lon="15.186938">
        <ele>150.66</ele>
      </trkpt>
      <trkpt lat="45.573221" lon="15.186783">
        <ele>151.49</ele>
      </trkpt>
      <trkpt lat="45.573192" lon="15.18654">
        <ele>152.16</ele>
      </trkpt>
      <trkpt lat="45.573177" lon="15.186298">
        <ele>152.56</ele>
      </trkpt>
      <trkpt lat="45.573266" lon="15.186285">
        <ele>152.91</ele>
      </trkpt>
      <trkpt lat="45.573273" lon="15.186119">
        <ele>153.21</ele>
      </trkpt>
      <trkpt lat="45.573243" lon="15.186079">
        <ele>153.18</ele>
      </trkpt>
      <trkpt lat="45.573207" lon="15.185672">
        <ele>154.1</ele>
      </trkpt>
      <trkpt lat="45.57317" lon="15.184947">
        <ele>156.17</ele>
      </trkpt>
      <trkpt lat="45.573169" lon="15.184716">
        <ele>156.44</ele>
      </trkpt>
      <trkpt lat="45.573128" lon="15.184464">
        <ele>156.59</ele>
      </trkpt>
      <trkpt lat="45.572933" lon="15.183757">
        <ele>156.74</ele>
      </trkpt>
      <trkpt lat="45.572843" lon="15.183488">
        <ele>156.74</ele>
      </trkpt>
      <trkpt lat="45.57278" lon="15.183526">
        <ele>156.47</ele>
      </trkpt>
      <trkpt lat="45.57271" lon="15.183296">
        <ele>156.3</ele>
      </trkpt>
      <trkpt lat="45.572572" lon="15.182842">
        <ele>155.96</ele>
      </trkpt>
      <trkpt lat="45.572593" lon="15.182729">
        <ele>156</ele>
      </trkpt>
      <trkpt lat="45.572489" lon="15.182277">
        <ele>155.93</ele>
      </trkpt>
      <trkpt lat="45.572417" lon="15.181801">
        <ele>155.89</ele>
      </trkpt>
      <trkpt lat="45.572394" lon="15.18173">
        <ele>155.78</ele>
      </trkpt>
      <trkpt lat="45.572358" lon="15.181385">
        <ele>155.09</ele>
      </trkpt>
      <trkpt lat="45.572349" lon="15.181044">
        <ele>154.5</ele>
      </trkpt>
      <trkpt lat="45.572413" lon="15.180962">
        <ele>154.83</ele>
      </trkpt>
      <trkpt lat="45.572469" lon="15.180832">
        <ele>155.04</ele>
      </trkpt>
      <trkpt lat="45.572487" lon="15.180761">
        <ele>155.08</ele>
      </trkpt>
      <trkpt lat="45.57249" lon="15.180705">
        <ele>155.03</ele>
      </trkpt>
      <trkpt lat="45.572482" lon="15.18062">
        <ele>154.85</ele>
      </trkpt>
      <trkpt lat="45.57247" lon="15.18056">
        <ele>154.68</ele>
      </trkpt>
      <trkpt lat="45.572401" lon="15.180443">
        <ele>153.98</ele>
      </trkpt>
      <trkpt lat="45.572355" lon="15.180399">
        <ele>153.55</ele>
      </trkpt>
      <trkpt lat="45.572269" lon="15.180347">
        <ele>152.78</ele>
      </trkpt>
      <trkpt lat="45.572219" lon="15.179999">
        <ele>151.78</ele>
      </trkpt>
      <trkpt lat="45.572179" lon="15.179597">
        <ele>150.72</ele>
      </trkpt>
      <trkpt lat="45.572167" lon="15.179553">
        <ele>150.53</ele>
      </trkpt>
      <trkpt lat="45.572124" lon="15.179515">
        <ele>150.07</ele>
      </trkpt>
      <trkpt lat="45.572084" lon="15.179258">
        <ele>149.21</ele>
      </trkpt>
      <trkpt lat="45.57205" lon="15.179099">
        <ele>148.95</ele>
      </trkpt>
      <trkpt lat="45.572003" lon="15.178906">
        <ele>148.96</ele>
      </trkpt>
      <trkpt lat="45.571909" lon="15.178626">
        <ele>148.98</ele>
      </trkpt>
      <trkpt lat="45.57173" lon="15.178174">
        <ele>148.83</ele>
      </trkpt>
      <trkpt lat="45.571671" lon="15.177969">
        <ele>148.61</ele>
      </trkpt>
      <trkpt lat="45.571645" lon="15.177803">
        <ele>148.58</ele>
      </trkpt>
      <trkpt lat="45.571641" lon="15.177647">
        <ele>148.65</ele>
      </trkpt>
      <trkpt lat="45.57165" lon="15.177497">
        <ele>148.79</ele>
      </trkpt>
      <trkpt lat="45.572008" lon="15.17562">
        <ele>152.39</ele>
      </trkpt>
      <trkpt lat="45.572173" lon="15.17482">
        <ele>153.31</ele>
      </trkpt>
      <trkpt lat="45.572181" lon="15.17478">
        <ele>153.36</ele>
      </trkpt>
      <trkpt lat="45.572275" lon="15.174568">
        <ele>153.38</ele>
      </trkpt>
      <trkpt lat="45.572343" lon="15.174467">
        <ele>153.36</ele>
      </trkpt>
      <trkpt lat="45.572419" lon="15.17438">
        <ele>153.3</ele>
      </trkpt>
      <trkpt lat="45.572486" lon="15.174326">
        <ele>153.25</ele>
      </trkpt>
      <trkpt lat="45.573063" lon="15.173972">
        <ele>154.94</ele>
      </trkpt>
      <trkpt lat="45.573333" lon="15.173765">
        <ele>155.63</ele>
      </trkpt>
      <trkpt lat="45.573448" lon="15.173662">
        <ele>155.83</ele>
      </trkpt>
      <trkpt lat="45.57353" lon="15.173574">
        <ele>156.06</ele>
      </trkpt>
      <trkpt lat="45.57372" lon="15.173335">
        <ele>156.41</ele>
      </trkpt>
      <trkpt lat="45.573792" lon="15.173227">
        <ele>156.77</ele>
      </trkpt>
      <trkpt lat="45.573956" lon="15.172913">
        <ele>157.39</ele>
      </trkpt>
      <trkpt lat="45.574116" lon="15.172533">
        <ele>157.65</ele>
      </trkpt>
      <trkpt lat="45.574238" lon="15.172146">
        <ele>155.67</ele>
      </trkpt>
      <trkpt lat="45.574291" lon="15.171939">
        <ele>154.53</ele>
      </trkpt>
      <trkpt lat="45.574325" lon="15.171761">
        <ele>153.59</ele>
      </trkpt>
      <trkpt lat="45.574359" lon="15.171431">
        <ele>153.11</ele>
      </trkpt>
      <trkpt lat="45.574374" lon="15.17101">
        <ele>152.8</ele>
      </trkpt>
      <trkpt lat="45.57438" lon="15.17039">
        <ele>152.95</ele>
      </trkpt>
      <trkpt lat="45.574391" lon="15.17006">
        <ele>153.22</ele>
      </trkpt>
      <trkpt lat="45.574412" lon="15.169869">
        <ele>153.28</ele>
      </trkpt>
      <trkpt lat="45.574567" lon="15.168989">
        <ele>153.3</ele>
      </trkpt>
      <trkpt lat="45.574578" lon="15.168823">
        <ele>152.62</ele>
      </trkpt>
      <trkpt lat="45.574572" lon="15.168654">
        <ele>151.74</ele>
      </trkpt>
      <trkpt lat="45.574548" lon="15.168461">
        <ele>150.56</ele>
      </trkpt>
      <trkpt lat="45.574511" lon="15.168307">
        <ele>149.62</ele>
      </trkpt>
      <trkpt lat="45.574314" lon="15.167761">
        <ele>147.42</ele>
      </trkpt>
      <trkpt lat="45.574225" lon="15.16745">
        <ele>147.92</ele>
      </trkpt>
      <trkpt lat="45.574171" lon="15.167115">
        <ele>150.35</ele>
      </trkpt>
      <trkpt lat="45.574119" lon="15.16672">
        <ele>153.1</ele>
      </trkpt>
      <trkpt lat="45.574086" lon="15.166333">
        <ele>156.07</ele>
      </trkpt>
      <trkpt lat="45.574079" lon="15.16616">
        <ele>157.29</ele>
      </trkpt>
      <trkpt lat="45.574111" lon="15.165915">
        <ele>158.46</ele>
      </trkpt>
      <trkpt lat="45.574146" lon="15.16579">
        <ele>158.93</ele>
      </trkpt>
      <trkpt lat="45.57421" lon="15.165608">
        <ele>159.66</ele>
      </trkpt>
      <trkpt lat="45.574348" lon="15.165276">
        <ele>160.99</ele>
      </trkpt>
      <trkpt lat="45.574622" lon="15.164682">
        <ele>163.49</ele>
      </trkpt>
      <trkpt lat="45.575128" lon="15.163683">
        <ele>169.86</ele>
      </trkpt>
      <trkpt lat="45.575268" lon="15.16337">
        <ele>170.45</ele>
      </trkpt>
      <trkpt lat="45.575315" lon="15.163239">
        <ele>170.53</ele>
      </trkpt>
      <trkpt lat="45.57537" lon="15.163019">
        <ele>170.96</ele>
      </trkpt>
      <trkpt lat="45.575497" lon="15.162175">
        <ele>174.47</ele>
      </trkpt>
      <trkpt lat="45.575564" lon="15.161876">
        <ele>175.93</ele>
      </trkpt>
      <trkpt lat="45.575903" lon="15.16088">
        <ele>181.95</ele>
      </trkpt>
      <trkpt lat="45.576067" lon="15.160231">
        <ele>186.47</ele>
      </trkpt>
      <trkpt lat="45.576224" lon="15.159509">
        <ele>189.61</ele>
      </trkpt>
      <trkpt lat="45.576326" lon="15.159147">
        <ele>190.66</ele>
      </trkpt>
      <trkpt lat="45.576501" lon="15.158583">
        <ele>190.02</ele>
      </trkpt>
      <trkpt lat="45.576925" lon="15.157308">
        <ele>187.58</ele>
      </trkpt>
      <trkpt lat="45.577196" lon="15.156581">
        <ele>185.67</ele>
      </trkpt>
      <trkpt lat="45.577303" lon="15.156214">
        <ele>184.7</ele>
      </trkpt>
      <trkpt lat="45.577361" lon="15.155829">
        <ele>183.39</ele>
      </trkpt>
      <trkpt lat="45.577379" lon="15.155434">
        <ele>182.86</ele>
      </trkpt>
      <trkpt lat="45.577377" lon="15.155215">
        <ele>182.54</ele>
      </trkpt>
      <trkpt lat="45.577405" lon="15.154722">
        <ele>183.04</ele>
      </trkpt>
      <trkpt lat="45.577423" lon="15.154194">
        <ele>184.41</ele>
      </trkpt>
      <trkpt lat="45.577426" lon="15.153565">
        <ele>187.26</ele>
      </trkpt>
      <trkpt lat="45.577377" lon="15.152657">
        <ele>187.38</ele>
      </trkpt>
      <trkpt lat="45.57739" lon="15.152495">
        <ele>187.15</ele>
      </trkpt>
      <trkpt lat="45.577425" lon="15.152329">
        <ele>186.68</ele>
      </trkpt>
      <trkpt lat="45.57755" lon="15.151936">
        <ele>185.71</ele>
      </trkpt>
      <trkpt lat="45.577627" lon="15.151992">
        <ele>186.13</ele>
      </trkpt>
      <trkpt lat="45.577779" lon="15.152055">
        <ele>186.72</ele>
      </trkpt>
      <trkpt lat="45.57786" lon="15.152088">
        <ele>187.03</ele>
      </trkpt>
      <trkpt lat="45.578113" lon="15.152149">
        <ele>188</ele>
      </trkpt>
      <trkpt lat="45.578349" lon="15.152151">
        <ele>188.64</ele>
      </trkpt>
      <trkpt lat="45.578744" lon="15.152125">
        <ele>185.6</ele>
      </trkpt>
      <trkpt lat="45.579043" lon="15.152119">
        <ele>182.69</ele>
      </trkpt>
      <trkpt lat="45.57937" lon="15.152064">
        <ele>179.19</ele>
      </trkpt>
      <trkpt lat="45.579535" lon="15.151998">
        <ele>177.37</ele>
      </trkpt>
      <trkpt lat="45.579858" lon="15.151799">
        <ele>174.43</ele>
      </trkpt>
      <trkpt lat="45.579928" lon="15.15174">
        <ele>173.98</ele>
      </trkpt>
      <trkpt lat="45.580019" lon="15.151683">
        <ele>173.48</ele>
      </trkpt>
      <trkpt lat="45.580457" lon="15.152032">
        <ele>170.53</ele>
      </trkpt>
      <trkpt lat="45.580673" lon="15.152177">
        <ele>168.96</ele>
      </trkpt>
      <trkpt lat="45.580771" lon="15.152264">
        <ele>168.09</ele>
      </trkpt>
      <trkpt lat="45.580879" lon="15.15237">
        <ele>167.03</ele>
      </trkpt>
      <trkpt lat="45.581143" lon="15.152688">
        <ele>166.17</ele>
      </trkpt>
      <trkpt lat="45.581401" lon="15.153019">
        <ele>166.28</ele>
      </trkpt>
      <trkpt lat="45.581572" lon="15.153194">
        <ele>166.55</ele>
      </trkpt>
      <trkpt lat="45.582124" lon="15.153635">
        <ele>167.36</ele>
      </trkpt>
      <trkpt lat="45.582269" lon="15.153725">
        <ele>167.35</ele>
      </trkpt>
      <trkpt lat="45.582329" lon="15.153781">
        <ele>167.33</ele>
      </trkpt>
      <trkpt lat="45.582406" lon="15.15389">
        <ele>167.29</ele>
      </trkpt>
      <trkpt lat="45.582507" lon="15.154051">
        <ele>167.18</ele>
      </trkpt>
      <trkpt lat="45.582657" lon="15.154323">
        <ele>167.58</ele>
      </trkpt>
      <trkpt lat="45.582762" lon="15.154486">
        <ele>168.24</ele>
      </trkpt>
      <trkpt lat="45.583025" lon="15.154849">
        <ele>169.18</ele>
      </trkpt>
      <trkpt lat="45.583121" lon="15.15495">
        <ele>169.27</ele>
      </trkpt>
      <trkpt lat="45.58351" lon="15.155602">
        <ele>168.74</ele>
      </trkpt>
      <trkpt lat="45.583853" lon="15.156297">
        <ele>166.42</ele>
      </trkpt>
      <trkpt lat="45.583899" lon="15.156419">
        <ele>165.8</ele>
      </trkpt>
      <trkpt lat="45.583958" lon="15.156643">
        <ele>164.72</ele>
      </trkpt>
      <trkpt lat="45.58399" lon="15.156806">
        <ele>163.89</ele>
      </trkpt>
      <trkpt lat="45.584007" lon="15.156938">
        <ele>163.28</ele>
      </trkpt>
      <trkpt lat="45.583989" lon="15.15716">
        <ele>162.63</ele>
      </trkpt>
      <trkpt lat="45.583992" lon="15.157402">
        <ele>161.73</ele>
      </trkpt>
      <trkpt lat="45.584023" lon="15.157496">
        <ele>161.14</ele>
      </trkpt>
      <trkpt lat="45.584078" lon="15.157598">
        <ele>160.39</ele>
      </trkpt>
      <trkpt lat="45.58419" lon="15.15775">
        <ele>159.09</ele>
      </trkpt>
      <trkpt lat="45.584358" lon="15.157946">
        <ele>158.11</ele>
      </trkpt>
      <trkpt lat="45.584403" lon="15.157968">
        <ele>158.15</ele>
      </trkpt>
      <trkpt lat="45.584486" lon="15.15796">
        <ele>158.27</ele>
      </trkpt>
      <trkpt lat="45.584609" lon="15.157929">
        <ele>158.39</ele>
      </trkpt>
      <trkpt lat="45.584662" lon="15.157944">
        <ele>158.48</ele>
      </trkpt>
      <trkpt lat="45.584741" lon="15.158">
        <ele>158.75</ele>
      </trkpt>
      <trkpt lat="45.584792" lon="15.158018">
        <ele>158.91</ele>
      </trkpt>
      <trkpt lat="45.584905" lon="15.158">
        <ele>159.05</ele>
      </trkpt>
      <trkpt lat="45.585124" lon="15.157939">
        <ele>159.16</ele>
      </trkpt>
      <trkpt lat="45.585422" lon="15.157831">
        <ele>160.43</ele>
      </trkpt>
      <trkpt lat="45.585639" lon="15.157772">
        <ele>161.4</ele>
      </trkpt>
      <trkpt lat="45.585874" lon="15.157759">
        <ele>162.85</ele>
      </trkpt>
      <trkpt lat="45.586218" lon="15.157689">
        <ele>162.97</ele>
      </trkpt>
      <trkpt lat="45.586282" lon="15.157692">
        <ele>163.09</ele>
      </trkpt>
      <trkpt lat="45.586393" lon="15.157729">
        <ele>163.64</ele>
      </trkpt>
      <trkpt lat="45.586557" lon="15.157831">
        <ele>164.95</ele>
      </trkpt>
      <trkpt lat="45.586744" lon="15.157979">
        <ele>166.84</ele>
      </trkpt>
      <trkpt lat="45.586881" lon="15.158116">
        <ele>168.22</ele>
      </trkpt>
      <trkpt lat="45.587157" lon="15.158554">
        <ele>172.27</ele>
      </trkpt>
      <trkpt lat="45.587395" lon="15.158898">
        <ele>175.25</ele>
      </trkpt>
      <trkpt lat="45.587436" lon="15.158982">
        <ele>176.02</ele>
      </trkpt>
      <trkpt lat="45.587466" lon="15.159071">
        <ele>176.85</ele>
      </trkpt>
      <trkpt lat="45.587518" lon="15.159345">
        <ele>178.55</ele>
      </trkpt>
      <trkpt lat="45.587599" lon="15.159532">
        <ele>179.23</ele>
      </trkpt>
      <trkpt lat="45.587654" lon="15.159591">
        <ele>179.91</ele>
      </trkpt>
      <trkpt lat="45.587716" lon="15.159626">
        <ele>180.54</ele>
      </trkpt>
      <trkpt lat="45.587776" lon="15.159642">
        <ele>181.08</ele>
      </trkpt>
      <trkpt lat="45.587876" lon="15.159644">
        <ele>181.9</ele>
      </trkpt>
      <trkpt lat="45.587984" lon="15.159641">
        <ele>182.78</ele>
      </trkpt>
      <trkpt lat="45.588061" lon="15.159625">
        <ele>183.41</ele>
      </trkpt>
      <trkpt lat="45.588108" lon="15.159634">
        <ele>183.8</ele>
      </trkpt>
      <trkpt lat="45.588144" lon="15.159672">
        <ele>184.12</ele>
      </trkpt>
      <trkpt lat="45.588178" lon="15.159735">
        <ele>184.4</ele>
      </trkpt>
      <trkpt lat="45.588187" lon="15.159808">
        <ele>184.49</ele>
      </trkpt>
      <trkpt lat="45.588181" lon="15.159873">
        <ele>184.46</ele>
      </trkpt>
      <trkpt lat="45.588095" lon="15.160157">
        <ele>184.23</ele>
      </trkpt>
      <trkpt lat="45.588082" lon="15.160282">
        <ele>184.42</ele>
      </trkpt>
      <trkpt lat="45.588082" lon="15.160403">
        <ele>184.66</ele>
      </trkpt>
      <trkpt lat="45.588129" lon="15.160645">
        <ele>185.26</ele>
      </trkpt>
      <trkpt lat="45.588138" lon="15.160726">
        <ele>185.42</ele>
      </trkpt>
      <trkpt lat="45.588142" lon="15.160838">
        <ele>185.62</ele>
      </trkpt>
      <trkpt lat="45.588131" lon="15.160961">
        <ele>185.76</ele>
      </trkpt>
      <trkpt lat="45.588089" lon="15.161148">
        <ele>185.93</ele>
      </trkpt>
      <trkpt lat="45.587988" lon="15.161409">
        <ele>186.13</ele>
      </trkpt>
      <trkpt lat="45.587881" lon="15.161586">
        <ele>186.21</ele>
      </trkpt>
      <trkpt lat="45.588117" lon="15.162398">
        <ele>184.71</ele>
      </trkpt>
      <trkpt lat="45.588138" lon="15.162461">
        <ele>184.71</ele>
      </trkpt>
      <trkpt lat="45.588208" lon="15.162607">
        <ele>184.64</ele>
      </trkpt>
      <trkpt lat="45.588215" lon="15.162753">
        <ele>183.82</ele>
      </trkpt>
      <trkpt lat="45.588235" lon="15.162875">
        <ele>183.29</ele>
      </trkpt>
      <trkpt lat="45.588281" lon="15.163093">
        <ele>182.53</ele>
      </trkpt>
      <trkpt lat="45.588347" lon="15.163257">
        <ele>182.43</ele>
      </trkpt>
      <trkpt lat="45.588458" lon="15.163424">
        <ele>182.75</ele>
      </trkpt>
      <trkpt lat="45.588647" lon="15.163584">
        <ele>182.23</ele>
      </trkpt>
      <trkpt lat="45.58906" lon="15.163853">
        <ele>180.81</ele>
      </trkpt>
      <trkpt lat="45.589156" lon="15.163898">
        <ele>180.48</ele>
      </trkpt>
      <trkpt lat="45.589596" lon="15.16407">
        <ele>178.37</ele>
      </trkpt>
      <trkpt lat="45.589785" lon="15.164132">
        <ele>177.37</ele>
      </trkpt>
      <trkpt lat="45.589918" lon="15.164158">
        <ele>176.8</ele>
      </trkpt>
      <trkpt lat="45.590002" lon="15.164188">
        <ele>176.3</ele>
      </trkpt>
      <trkpt lat="45.591267" lon="15.16484">
        <ele>174.28</ele>
      </trkpt>
      <trkpt lat="45.591455" lon="15.164904">
        <ele>174.64</ele>
      </trkpt>
      <trkpt lat="45.591618" lon="15.164947">
        <ele>175.05</ele>
      </trkpt>
      <trkpt lat="45.591695" lon="15.164982">
        <ele>175.1</ele>
      </trkpt>
      <trkpt lat="45.591739" lon="15.165013">
        <ele>175.01</ele>
      </trkpt>
      <trkpt lat="45.591911" lon="15.165194">
        <ele>174.43</ele>
      </trkpt>
      <trkpt lat="45.592111" lon="15.16533">
        <ele>174.18</ele>
      </trkpt>
      <trkpt lat="45.592356" lon="15.165429">
        <ele>174.26</ele>
      </trkpt>
      <trkpt lat="45.592787" lon="15.16557">
        <ele>173.41</ele>
      </trkpt>
      <trkpt lat="45.592874" lon="15.165619">
        <ele>172.8</ele>
      </trkpt>
      <trkpt lat="45.593281" lon="15.165915">
        <ele>169.65</ele>
      </trkpt>
      <trkpt lat="45.593439" lon="15.166017">
        <ele>168.5</ele>
      </trkpt>
      <trkpt lat="45.593548" lon="15.166071">
        <ele>168.05</ele>
      </trkpt>
      <trkpt lat="45.593799" lon="15.166157">
        <ele>167.47</ele>
      </trkpt>
      <trkpt lat="45.593968" lon="15.166231">
        <ele>167.02</ele>
      </trkpt>
      <trkpt lat="45.594111" lon="15.16631">
        <ele>166.57</ele>
      </trkpt>
      <trkpt lat="45.594381" lon="15.166519">
        <ele>165.58</ele>
      </trkpt>
      <trkpt lat="45.594694" lon="15.166802">
        <ele>164.25</ele>
      </trkpt>
      <trkpt lat="45.595085" lon="15.167112">
        <ele>163.5</ele>
      </trkpt>
      <trkpt lat="45.595339" lon="15.16736">
        <ele>162.83</ele>
      </trkpt>
      <trkpt lat="45.595398" lon="15.167445">
        <ele>162.44</ele>
      </trkpt>
      <trkpt lat="45.595438" lon="15.16753">
        <ele>162.01</ele>
      </trkpt>
      <trkpt lat="45.595741" lon="15.168316">
        <ele>166.43</ele>
      </trkpt>
      <trkpt lat="45.596277" lon="15.169448">
        <ele>169.55</ele>
      </trkpt>
      <trkpt lat="45.596485" lon="15.170023">
        <ele>170.34</ele>
      </trkpt>
      <trkpt lat="45.59662" lon="15.170432">
        <ele>170.76</ele>
      </trkpt>
      <trkpt lat="45.59668" lon="15.17069">
        <ele>171.08</ele>
      </trkpt>
      <trkpt lat="45.596729" lon="15.170958">
        <ele>171.67</ele>
      </trkpt>
      <trkpt lat="45.59678" lon="15.17133">
        <ele>173.23</ele>
      </trkpt>
      <trkpt lat="45.596812" lon="15.171626">
        <ele>174.57</ele>
      </trkpt>
      <trkpt lat="45.596842" lon="15.17221">
        <ele>175.38</ele>
      </trkpt>
      <trkpt lat="45.596815" lon="15.172871">
        <ele>174.3</ele>
      </trkpt>
      <trkpt lat="45.59678" lon="15.173262">
        <ele>172.51</ele>
      </trkpt>
      <trkpt lat="45.596691" lon="15.173944">
        <ele>172.66</ele>
      </trkpt>
      <trkpt lat="45.596614" lon="15.174472">
        <ele>174.14</ele>
      </trkpt>
      <trkpt lat="45.5966" lon="15.174569">
        <ele>174.41</ele>
      </trkpt>
      <trkpt lat="45.596164" lon="15.174772">
        <ele>174.04</ele>
      </trkpt>
      <trkpt lat="45.595928" lon="15.17486">
        <ele>173.6</ele>
      </trkpt>
      <trkpt lat="45.594942" lon="15.175171">
        <ele>174.85</ele>
      </trkpt>
      <trkpt lat="45.59477" lon="15.175239">
        <ele>175.88</ele>
      </trkpt>
      <trkpt lat="45.594589" lon="15.175335">
        <ele>177.12</ele>
      </trkpt>
      <trkpt lat="45.594176" lon="15.175675">
        <ele>180.41</ele>
      </trkpt>
      <trkpt lat="45.593639" lon="15.176057">
        <ele>185.54</ele>
      </trkpt>
      <trkpt lat="45.593497" lon="15.176133">
        <ele>187.36</ele>
      </trkpt>
      <trkpt lat="45.592912" lon="15.176502">
        <ele>191.5</ele>
      </trkpt>
      <trkpt lat="45.592773" lon="15.176607">
        <ele>191.69</ele>
      </trkpt>
      <trkpt lat="45.592601" lon="15.176769">
        <ele>192.07</ele>
      </trkpt>
      <trkpt lat="45.592417" lon="15.17697">
        <ele>195.1</ele>
      </trkpt>
      <trkpt lat="45.592007" lon="15.17748">
        <ele>198.44</ele>
      </trkpt>
      <trkpt lat="45.591762" lon="15.177767">
        <ele>199.27</ele>
      </trkpt>
      <trkpt lat="45.591467" lon="15.178095">
        <ele>200.99</ele>
      </trkpt>
      <trkpt lat="45.591073" lon="15.178385">
        <ele>201.06</ele>
      </trkpt>
      <trkpt lat="45.590953" lon="15.17846">
        <ele>201.16</ele>
      </trkpt>
      <trkpt lat="45.589965" lon="15.178967">
        <ele>206.51</ele>
      </trkpt>
      <trkpt lat="45.589761" lon="15.179109">
        <ele>206.22</ele>
      </trkpt>
      <trkpt lat="45.589426" lon="15.179383">
        <ele>205.73</ele>
      </trkpt>
      <trkpt lat="45.589129" lon="15.17968">
        <ele>206</ele>
      </trkpt>
      <trkpt lat="45.588943" lon="15.179907">
        <ele>205.84</ele>
      </trkpt>
      <trkpt lat="45.588757" lon="15.180184">
        <ele>204.96</ele>
      </trkpt>
      <trkpt lat="45.588555" lon="15.180534">
        <ele>203.64</ele>
      </trkpt>
      <trkpt lat="45.588193" lon="15.181353">
        <ele>201.13</ele>
      </trkpt>
      <trkpt lat="45.588104" lon="15.181519">
        <ele>200.33</ele>
      </trkpt>
      <trkpt lat="45.588013" lon="15.181646">
        <ele>199.45</ele>
      </trkpt>
      <trkpt lat="45.58788" lon="15.181798">
        <ele>197.92</ele>
      </trkpt>
      <trkpt lat="45.587722" lon="15.181929">
        <ele>196.37</ele>
      </trkpt>
      <trkpt lat="45.58736" lon="15.182132">
        <ele>195.62</ele>
      </trkpt>
      <trkpt lat="45.587016" lon="15.182308">
        <ele>194.8</ele>
      </trkpt>
      <trkpt lat="45.586736" lon="15.182454">
        <ele>193.87</ele>
      </trkpt>
      <trkpt lat="45.586546" lon="15.182571">
        <ele>195.31</ele>
      </trkpt>
      <trkpt lat="45.586436" lon="15.182662">
        <ele>196.21</ele>
      </trkpt>
      <trkpt lat="45.586292" lon="15.182811">
        <ele>196.91</ele>
      </trkpt>
      <trkpt lat="45.585808" lon="15.183428">
        <ele>195.85</ele>
      </trkpt>
      <trkpt lat="45.585612" lon="15.183611">
        <ele>198.16</ele>
      </trkpt>
      <trkpt lat="45.585424" lon="15.183717">
        <ele>199.68</ele>
      </trkpt>
      <trkpt lat="45.585316" lon="15.183764">
        <ele>200.41</ele>
      </trkpt>
      <trkpt lat="45.585199" lon="15.183794">
        <ele>200.97</ele>
      </trkpt>
      <trkpt lat="45.584754" lon="15.183808">
        <ele>201.49</ele>
      </trkpt>
      <trkpt lat="45.584329" lon="15.183802">
        <ele>201.65</ele>
      </trkpt>
      <trkpt lat="45.584273" lon="15.183743">
        <ele>201.18</ele>
      </trkpt>
      <trkpt lat="45.584214" lon="15.183744">
        <ele>201.02</ele>
      </trkpt>
      <trkpt lat="45.584071" lon="15.183761">
        <ele>200.66</ele>
      </trkpt>
      <trkpt lat="45.583657" lon="15.18386">
        <ele>199.7</ele>
      </trkpt>
      <trkpt lat="45.583593" lon="15.183854">
        <ele>199.42</ele>
      </trkpt>
      <trkpt lat="45.583546" lon="15.18381">
        <ele>199.04</ele>
      </trkpt>
      <trkpt lat="45.583404" lon="15.183857">
        <ele>198.64</ele>
      </trkpt>
      <trkpt lat="45.583343" lon="15.183941">
        <ele>198.56</ele>
      </trkpt>
      <trkpt lat="45.583291" lon="15.183973">
        <ele>198.33</ele>
      </trkpt>
      <trkpt lat="45.58304" lon="15.184088">
        <ele>196.75</ele>
      </trkpt>
      <trkpt lat="45.582766" lon="15.184196">
        <ele>194.42</ele>
      </trkpt>
      <trkpt lat="45.581975" lon="15.184435">
        <ele>188.92</ele>
      </trkpt>
      <trkpt lat="45.581796" lon="15.184516">
        <ele>187.48</ele>
      </trkpt>
      <trkpt lat="45.581692" lon="15.184574">
        <ele>186.29</ele>
      </trkpt>
      <trkpt lat="45.581592" lon="15.184643">
        <ele>185</ele>
      </trkpt>
      <trkpt lat="45.581498" lon="15.184724">
        <ele>183.79</ele>
      </trkpt>
      <trkpt lat="45.581408" lon="15.184822">
        <ele>182.6</ele>
      </trkpt>
      <trkpt lat="45.581304" lon="15.184965">
        <ele>181.17</ele>
      </trkpt>
      <trkpt lat="45.58122" lon="15.185112">
        <ele>180.16</ele>
      </trkpt>
      <trkpt lat="45.581076" lon="15.185423">
        <ele>178.86</ele>
      </trkpt>
      <trkpt lat="45.580956" lon="15.185735">
        <ele>177.97</ele>
      </trkpt>
      <trkpt lat="45.580961" lon="15.185809">
        <ele>178.31</ele>
      </trkpt>
      <trkpt lat="45.580932" lon="15.185858">
        <ele>178.02</ele>
      </trkpt>
      <trkpt lat="45.580863" lon="15.185919">
        <ele>177.62</ele>
      </trkpt>
      <trkpt lat="45.580812" lon="15.185932">
        <ele>177.24</ele>
      </trkpt>
      <trkpt lat="45.580616" lon="15.185932">
        <ele>175.57</ele>
      </trkpt>
      <trkpt lat="45.580539" lon="15.185948">
        <ele>174.97</ele>
      </trkpt>
      <trkpt lat="45.580483" lon="15.185971">
        <ele>174.56</ele>
      </trkpt>
      <trkpt lat="45.580373" lon="15.186061">
        <ele>173.88</ele>
      </trkpt>
      <trkpt lat="45.580104" lon="15.186363">
        <ele>172.26</ele>
      </trkpt>
      <trkpt lat="45.579921" lon="15.186526">
        <ele>171.45</ele>
      </trkpt>
      <trkpt lat="45.579299" lon="15.186942">
        <ele>167.57</ele>
      </trkpt>
      <trkpt lat="45.578537" lon="15.187392">
        <ele>166.24</ele>
      </trkpt>
      <trkpt lat="45.57822" lon="15.187551">
        <ele>165.48</ele>
      </trkpt>
      <trkpt lat="45.578064" lon="15.187612">
        <ele>165.07</ele>
      </trkpt>
      <trkpt lat="45.578021" lon="15.187688">
        <ele>164.92</ele>
      </trkpt>
      <trkpt lat="45.577891" lon="15.187699">
        <ele>164.64</ele>
      </trkpt>
      <trkpt lat="45.577817" lon="15.187753">
        <ele>164.46</ele>
      </trkpt>
      <trkpt lat="45.577658" lon="15.187801">
        <ele>164.12</ele>
      </trkpt>
      <trkpt lat="45.577574" lon="15.187775">
        <ele>164.02</ele>
      </trkpt>
      <trkpt lat="45.577468" lon="15.187813">
        <ele>164.16</ele>
      </trkpt>
      <trkpt lat="45.577125" lon="15.187994">
        <ele>164.94</ele>
      </trkpt>
      <trkpt lat="45.576979" lon="15.188097">
        <ele>165.51</ele>
      </trkpt>
      <trkpt lat="45.576843" lon="15.188218">
        <ele>166.26</ele>
      </trkpt>
      <trkpt lat="45.576843" lon="15.188218">
        <ele>166.26</ele>
      </trkpt>
      <trkpt lat="45.576759" lon="15.188293">
        <ele>166.73</ele>
      </trkpt>
      <trkpt lat="45.576077" lon="15.188978">
        <ele>165.01</ele>
      </trkpt>
      <trkpt lat="45.575889" lon="15.189145">
        <ele>164.98</ele>
      </trkpt>
      <trkpt lat="45.575602" lon="15.18933">
        <ele>165.84</ele>
      </trkpt>
      <trkpt lat="45.575487" lon="15.189418">
        <ele>166.16</ele>
      </trkpt>
      <trkpt lat="45.575328" lon="15.189611">
        <ele>166.63</ele>
      </trkpt>
      <trkpt lat="45.575156" lon="15.189861">
        <ele>166.9</ele>
      </trkpt>
      <trkpt lat="45.57514" lon="15.189975">
        <ele>167.03</ele>
      </trkpt>
      <trkpt lat="45.575141" lon="15.190085">
        <ele>167.44</ele>
      </trkpt>
      <trkpt lat="45.574946" lon="15.190075">
        <ele>166.36</ele>
      </trkpt>
      <trkpt lat="45.574701" lon="15.190152">
        <ele>165.42</ele>
      </trkpt>
      <trkpt lat="45.573861" lon="15.1907">
        <ele>162.77</ele>
      </trkpt>
      <trkpt lat="45.573383" lon="15.191053">
        <ele>160.58</ele>
      </trkpt>
      <trkpt lat="45.573192" lon="15.191208">
        <ele>159.22</ele>
      </trkpt>
      <trkpt lat="45.572448" lon="15.192029">
        <ele>155.07</ele>
      </trkpt>
      <trkpt lat="45.572088" lon="15.192497">
        <ele>153.93</ele>
      </trkpt>
      <trkpt lat="45.571918" lon="15.192667">
        <ele>152.63</ele>
      </trkpt>
      <trkpt lat="45.571637" lon="15.192909">
        <ele>151.41</ele>
      </trkpt>
      <trkpt lat="45.571478" lon="15.193086">
        <ele>151.21</ele>
      </trkpt>
      <trkpt lat="45.571424" lon="15.193126">
        <ele>151.08</ele>
      </trkpt>
      <trkpt lat="45.571312" lon="15.193184">
        <ele>150.75</ele>
      </trkpt>
      <trkpt lat="45.571249" lon="15.193203">
        <ele>150.56</ele>
      </trkpt>
      <trkpt lat="45.571176" lon="15.193206">
        <ele>150.37</ele>
      </trkpt>
      <trkpt lat="45.571098" lon="15.193195">
        <ele>150.22</ele>
      </trkpt>
      <trkpt lat="45.570989" lon="15.193144">
        <ele>150.18</ele>
      </trkpt>
      <trkpt lat="45.570897" lon="15.193044">
        <ele>150.61</ele>
      </trkpt>
      <trkpt lat="45.570714" lon="15.192789">
        <ele>152.38</ele>
      </trkpt>
      <trkpt lat="45.570763" lon="15.192583">
        <ele>152.56</ele>
      </trkpt>
    </trkseg>
  </trk>
</gpx>
