<?xml version="1.0" encoding="UTF-8"?>
<gpx creator="https://gpx.studio" version="1.1" xmlns="http://www.topografix.com/GPX/1/1" xmlns:xsi="http://www.w3.org/2001/XMLSchema-instance" xsi:schemaLocation="http://www.topografix.com/GPX/1/1 http://www.topografix.com/GPX/1/1/gpx.xsd http://www.garmin.com/xmlschemas/GpxExtensions/v3 http://www.garmin.com/xmlschemas/GpxExtensionsv3.xsd http://www.garmin.com/xmlschemas/TrackPointExtension/v1 http://www.garmin.com/xmlschemas/TrackPointExtensionv1.xsd http://www.garmin.com/xmlschemas/PowerExtension/v1 http://www.garmin.com/xmlschemas/PowerExtensionv1.xsd http://www.topografix.com/GPX/gpx_style/0/2 http://www.topografix.com/GPX/gpx_style/0/2/gpx_style.xsd" xmlns:gpxtpx="http://www.garmin.com/xmlschemas/TrackPointExtension/v1" xmlns:gpxx="http://www.garmin.com/xmlschemas/GpxExtensions/v3" xmlns:gpxpx="http://www.garmin.com/xmlschemas/PowerExtension/v1" xmlns:gpx_style="http://www.topografix.com/GPX/gpx_style/0/2">
  <metadata>
    <name>New file 1</name>
    <author>
      <name>gpx.studio</name>
      <link href="https://gpx.studio"/>
    </author>
  </metadata>
  <trk>
    <name>New file 1</name>
    <trkseg>
      <trkpt lat="45.651225" lon="15.316513">
        <ele>161.93</ele>
      </trkpt>
      <trkpt lat="45.651257" lon="15.3164">
        <ele>161.79</ele>
      </trkpt>
      <trkpt lat="45.65129" lon="15.316342">
        <ele>161.72</ele>
      </trkpt>
      <trkpt lat="45.651418" lon="15.316227">
        <ele>161.59</ele>
      </trkpt>
      <trkpt lat="45.651727" lon="15.316067">
        <ele>161.08</ele>
      </trkpt>
      <trkpt lat="45.651796" lon="15.316022">
        <ele>160.85</ele>
      </trkpt>
      <trkpt lat="45.651836" lon="15.315967">
        <ele>160.56</ele>
      </trkpt>
      <trkpt lat="45.651879" lon="15.315841">
        <ele>160.57</ele>
      </trkpt>
      <trkpt lat="45.65199" lon="15.315879">
        <ele>160.32</ele>
      </trkpt>
      <trkpt lat="45.652066" lon="15.315883">
        <ele>160.38</ele>
      </trkpt>
      <trkpt lat="45.652139" lon="15.315873">
        <ele>160.54</ele>
      </trkpt>
      <trkpt lat="45.652208" lon="15.315841">
        <ele>160.86</ele>
      </trkpt>
      <trkpt lat="45.652254" lon="15.315809">
        <ele>161.14</ele>
      </trkpt>
      <trkpt lat="45.652531" lon="15.315523">
        <ele>162.85</ele>
      </trkpt>
      <trkpt lat="45.652661" lon="15.315361">
        <ele>163.96</ele>
      </trkpt>
      <trkpt lat="45.652756" lon="15.315226">
        <ele>165.1</ele>
      </trkpt>
      <trkpt lat="45.652853" lon="15.315055">
        <ele>165.88</ele>
      </trkpt>
      <trkpt lat="45.652992" lon="15.314759">
        <ele>167.74</ele>
      </trkpt>
      <trkpt lat="45.653082" lon="15.31452">
        <ele>168.55</ele>
      </trkpt>
      <trkpt lat="45.653348" lon="15.313704">
        <ele>168.85</ele>
      </trkpt>
      <trkpt lat="45.653528" lon="15.313161">
        <ele>169.61</ele>
      </trkpt>
      <trkpt lat="45.65368" lon="15.312674">
        <ele>170.06</ele>
      </trkpt>
      <trkpt lat="45.653745" lon="15.312443">
        <ele>169.86</ele>
      </trkpt>
      <trkpt lat="45.653806" lon="15.312177">
        <ele>169.5</ele>
      </trkpt>
      <trkpt lat="45.653814" lon="15.312084">
        <ele>169.41</ele>
      </trkpt>
      <trkpt lat="45.653807" lon="15.311918">
        <ele>169.35</ele>
      </trkpt>
      <trkpt lat="45.653772" lon="15.311782">
        <ele>169.45</ele>
      </trkpt>
      <trkpt lat="45.653696" lon="15.311642">
        <ele>169.82</ele>
      </trkpt>
      <trkpt lat="45.653646" lon="15.311578">
        <ele>170.11</ele>
      </trkpt>
      <trkpt lat="45.653528" lon="15.311473">
        <ele>170.82</ele>
      </trkpt>
      <trkpt lat="45.652814" lon="15.311033">
        <ele>173.19</ele>
      </trkpt>
      <trkpt lat="45.652698" lon="15.310917">
        <ele>173.71</ele>
      </trkpt>
      <trkpt lat="45.652639" lon="15.310799">
        <ele>174.13</ele>
      </trkpt>
      <trkpt lat="45.652622" lon="15.310746">
        <ele>174.3</ele>
      </trkpt>
      <trkpt lat="45.652488" lon="15.31014">
        <ele>175.25</ele>
      </trkpt>
      <trkpt lat="45.652377" lon="15.309792">
        <ele>174.66</ele>
      </trkpt>
      <trkpt lat="45.651952" lon="15.308795">
        <ele>172.31</ele>
      </trkpt>
      <trkpt lat="45.651915" lon="15.308684">
        <ele>172.18</ele>
      </trkpt>
      <trkpt lat="45.651887" lon="15.308583">
        <ele>172.1</ele>
      </trkpt>
      <trkpt lat="45.651858" lon="15.308373">
        <ele>172.01</ele>
      </trkpt>
      <trkpt lat="45.651844" lon="15.307964">
        <ele>172.51</ele>
      </trkpt>
      <trkpt lat="45.651826" lon="15.307767">
        <ele>172.74</ele>
      </trkpt>
      <trkpt lat="45.651785" lon="15.307571">
        <ele>172.98</ele>
      </trkpt>
      <trkpt lat="45.651743" lon="15.307445">
        <ele>172.69</ele>
      </trkpt>
      <trkpt lat="45.651491" lon="15.306823">
        <ele>170.72</ele>
      </trkpt>
      <trkpt lat="45.65144" lon="15.306645">
        <ele>170.42</ele>
      </trkpt>
      <trkpt lat="45.651403" lon="15.306465">
        <ele>170.35</ele>
      </trkpt>
      <trkpt lat="45.651382" lon="15.306305">
        <ele>170.34</ele>
      </trkpt>
      <trkpt lat="45.65137" lon="15.305909">
        <ele>170.53</ele>
      </trkpt>
      <trkpt lat="45.651419" lon="15.30528">
        <ele>171.55</ele>
      </trkpt>
      <trkpt lat="45.65142" lon="15.305081">
        <ele>171.83</ele>
      </trkpt>
      <trkpt lat="45.651397" lon="15.30485">
        <ele>171.71</ele>
      </trkpt>
      <trkpt lat="45.65134" lon="15.304618">
        <ele>171.41</ele>
      </trkpt>
      <trkpt lat="45.651273" lon="15.304411">
        <ele>171.14</ele>
      </trkpt>
      <trkpt lat="45.651195" lon="15.30424">
        <ele>170.9</ele>
      </trkpt>
      <trkpt lat="45.651132" lon="15.304135">
        <ele>170.86</ele>
      </trkpt>
      <trkpt lat="45.651094" lon="15.304049">
        <ele>170.91</ele>
      </trkpt>
      <trkpt lat="45.650919" lon="15.30382">
        <ele>170.94</ele>
      </trkpt>
      <trkpt lat="45.650874" lon="15.303736">
        <ele>171.12</ele>
      </trkpt>
      <trkpt lat="45.650869" lon="15.303686">
        <ele>171.24</ele>
      </trkpt>
      <trkpt lat="45.650834" lon="15.303598">
        <ele>171.45</ele>
      </trkpt>
      <trkpt lat="45.650792" lon="15.303554">
        <ele>171.56</ele>
      </trkpt>
      <trkpt lat="45.650742" lon="15.303533">
        <ele>171.6</ele>
      </trkpt>
      <trkpt lat="45.650703" lon="15.303534">
        <ele>171.59</ele>
      </trkpt>
      <trkpt lat="45.650666" lon="15.30355">
        <ele>171.54</ele>
      </trkpt>
      <trkpt lat="45.650633" lon="15.303579">
        <ele>171.44</ele>
      </trkpt>
      <trkpt lat="45.650565" lon="15.303556">
        <ele>171.49</ele>
      </trkpt>
      <trkpt lat="45.650416" lon="15.303462">
        <ele>171.75</ele>
      </trkpt>
      <trkpt lat="45.65038" lon="15.303362">
        <ele>172.05</ele>
      </trkpt>
      <trkpt lat="45.6503" lon="15.3032">
        <ele>172.44</ele>
      </trkpt>
      <trkpt lat="45.650113" lon="15.302732">
        <ele>173.56</ele>
      </trkpt>
      <trkpt lat="45.650038" lon="15.302483">
        <ele>173.69</ele>
      </trkpt>
      <trkpt lat="45.650008" lon="15.302318">
        <ele>173.17</ele>
      </trkpt>
      <trkpt lat="45.649972" lon="15.302124">
        <ele>172.55</ele>
      </trkpt>
      <trkpt lat="45.649916" lon="15.301697">
        <ele>171.39</ele>
      </trkpt>
      <trkpt lat="45.649886" lon="15.300974">
        <ele>168.8</ele>
      </trkpt>
      <trkpt lat="45.649931" lon="15.300126">
        <ele>168.52</ele>
      </trkpt>
      <trkpt lat="45.649936" lon="15.299716">
        <ele>167.91</ele>
      </trkpt>
      <trkpt lat="45.649893" lon="15.299653">
        <ele>167.48</ele>
      </trkpt>
      <trkpt lat="45.64984" lon="15.299527">
        <ele>166.9</ele>
      </trkpt>
      <trkpt lat="45.649803" lon="15.299411">
        <ele>166.46</ele>
      </trkpt>
      <trkpt lat="45.649768" lon="15.299258">
        <ele>166.02</ele>
      </trkpt>
      <trkpt lat="45.6497" lon="15.298762">
        <ele>166.91</ele>
      </trkpt>
      <trkpt lat="45.649668" lon="15.298601">
        <ele>167.22</ele>
      </trkpt>
      <trkpt lat="45.649415" lon="15.297791">
        <ele>166.2</ele>
      </trkpt>
      <trkpt lat="45.649186" lon="15.296971">
        <ele>165.13</ele>
      </trkpt>
      <trkpt lat="45.648998" lon="15.296351">
        <ele>168.01</ele>
      </trkpt>
      <trkpt lat="45.648915" lon="15.296152">
        <ele>169.93</ele>
      </trkpt>
      <trkpt lat="45.648657" lon="15.295541">
        <ele>175.86</ele>
      </trkpt>
      <trkpt lat="45.648332" lon="15.294853">
        <ele>182.05</ele>
      </trkpt>
      <trkpt lat="45.648033" lon="15.294275">
        <ele>183.82</ele>
      </trkpt>
      <trkpt lat="45.647893" lon="15.294062">
        <ele>183.8</ele>
      </trkpt>
      <trkpt lat="45.647877" lon="15.294025">
        <ele>183.83</ele>
      </trkpt>
      <trkpt lat="45.64786" lon="15.293866">
        <ele>184.21</ele>
      </trkpt>
      <trkpt lat="45.647855" lon="15.293626">
        <ele>184.89</ele>
      </trkpt>
      <trkpt lat="45.647872" lon="15.293503">
        <ele>185.29</ele>
      </trkpt>
      <trkpt lat="45.647868" lon="15.293414">
        <ele>185.53</ele>
      </trkpt>
      <trkpt lat="45.647823" lon="15.293264">
        <ele>185.87</ele>
      </trkpt>
      <trkpt lat="45.647598" lon="15.29284">
        <ele>186.99</ele>
      </trkpt>
      <trkpt lat="45.647461" lon="15.292557">
        <ele>188.67</ele>
      </trkpt>
      <trkpt lat="45.647131" lon="15.292068">
        <ele>189.14</ele>
      </trkpt>
      <trkpt lat="45.646825" lon="15.291394">
        <ele>189.01</ele>
      </trkpt>
      <trkpt lat="45.646801" lon="15.291315">
        <ele>188.93</ele>
      </trkpt>
      <trkpt lat="45.646788" lon="15.29122">
        <ele>188.76</ele>
      </trkpt>
      <trkpt lat="45.646773" lon="15.291113">
        <ele>188.56</ele>
      </trkpt>
      <trkpt lat="45.646698" lon="15.290807">
        <ele>188.24</ele>
      </trkpt>
      <trkpt lat="45.646698" lon="15.290726">
        <ele>188.11</ele>
      </trkpt>
      <trkpt lat="45.646745" lon="15.290533">
        <ele>187.67</ele>
      </trkpt>
      <trkpt lat="45.646765" lon="15.290391">
        <ele>187.43</ele>
      </trkpt>
      <trkpt lat="45.646743" lon="15.290064">
        <ele>187.02</ele>
      </trkpt>
      <trkpt lat="45.646716" lon="15.289952">
        <ele>186.64</ele>
      </trkpt>
      <trkpt lat="45.646191" lon="15.28898">
        <ele>181.98</ele>
      </trkpt>
      <trkpt lat="45.646154" lon="15.288868">
        <ele>181.67</ele>
      </trkpt>
      <trkpt lat="45.646137" lon="15.288691">
        <ele>181.25</ele>
      </trkpt>
      <trkpt lat="45.646113" lon="15.288605">
        <ele>181.08</ele>
      </trkpt>
      <trkpt lat="45.645891" lon="15.28813">
        <ele>181.38</ele>
      </trkpt>
      <trkpt lat="45.645848" lon="15.287999">
        <ele>181.62</ele>
      </trkpt>
      <trkpt lat="45.645835" lon="15.287889">
        <ele>181.79</ele>
      </trkpt>
      <trkpt lat="45.64584" lon="15.28779">
        <ele>181.92</ele>
      </trkpt>
      <trkpt lat="45.64595" lon="15.28747">
        <ele>182.03</ele>
      </trkpt>
      <trkpt lat="45.645979" lon="15.287336">
        <ele>181.99</ele>
      </trkpt>
      <trkpt lat="45.646" lon="15.28713">
        <ele>182.11</ele>
      </trkpt>
      <trkpt lat="45.646006" lon="15.286899">
        <ele>182.37</ele>
      </trkpt>
      <trkpt lat="45.64597" lon="15.286448">
        <ele>182.56</ele>
      </trkpt>
      <trkpt lat="45.645968" lon="15.286091">
        <ele>182.21</ele>
      </trkpt>
      <trkpt lat="45.645931" lon="15.285671">
        <ele>181.53</ele>
      </trkpt>
      <trkpt lat="45.645843" lon="15.285054">
        <ele>179.78</ele>
      </trkpt>
      <trkpt lat="45.645861" lon="15.284871">
        <ele>179.79</ele>
      </trkpt>
      <trkpt lat="45.64591" lon="15.284665">
        <ele>179.91</ele>
      </trkpt>
      <trkpt lat="45.645901" lon="15.284485">
        <ele>179.87</ele>
      </trkpt>
      <trkpt lat="45.645865" lon="15.284284">
        <ele>179.73</ele>
      </trkpt>
      <trkpt lat="45.645795" lon="15.284161">
        <ele>179.67</ele>
      </trkpt>
      <trkpt lat="45.645609" lon="15.284007">
        <ele>179.55</ele>
      </trkpt>
      <trkpt lat="45.645208" lon="15.2837">
        <ele>179.21</ele>
      </trkpt>
      <trkpt lat="45.644965" lon="15.283533">
        <ele>178.83</ele>
      </trkpt>
      <trkpt lat="45.644642" lon="15.283354">
        <ele>177.91</ele>
      </trkpt>
      <trkpt lat="45.644543" lon="15.283267">
        <ele>177.93</ele>
      </trkpt>
      <trkpt lat="45.64444" lon="15.283109">
        <ele>178.36</ele>
      </trkpt>
      <trkpt lat="45.644356" lon="15.282937">
        <ele>179</ele>
      </trkpt>
      <trkpt lat="45.644175" lon="15.282269">
        <ele>180.89</ele>
      </trkpt>
      <trkpt lat="45.643803" lon="15.281092">
        <ele>178.54</ele>
      </trkpt>
      <trkpt lat="45.643578" lon="15.280813">
        <ele>177.15</ele>
      </trkpt>
      <trkpt lat="45.643542" lon="15.280762">
        <ele>177.01</ele>
      </trkpt>
      <trkpt lat="45.643503" lon="15.280679">
        <ele>176.93</ele>
      </trkpt>
      <trkpt lat="45.643413" lon="15.280269">
        <ele>177.27</ele>
      </trkpt>
      <trkpt lat="45.643346" lon="15.280021">
        <ele>177.25</ele>
      </trkpt>
      <trkpt lat="45.64324" lon="15.279721">
        <ele>175.78</ele>
      </trkpt>
      <trkpt lat="45.643223" lon="15.279641">
        <ele>175.46</ele>
      </trkpt>
      <trkpt lat="45.643179" lon="15.279131">
        <ele>174.01</ele>
      </trkpt>
      <trkpt lat="45.643167" lon="15.278893">
        <ele>173.64</ele>
      </trkpt>
      <trkpt lat="45.643165" lon="15.278627">
        <ele>173.31</ele>
      </trkpt>
      <trkpt lat="45.643178" lon="15.278423">
        <ele>173.11</ele>
      </trkpt>
      <trkpt lat="45.643209" lon="15.27816">
        <ele>173.58</ele>
      </trkpt>
      <trkpt lat="45.643223" lon="15.277871">
        <ele>174.15</ele>
      </trkpt>
      <trkpt lat="45.64319" lon="15.277727">
        <ele>174.35</ele>
      </trkpt>
      <trkpt lat="45.642959" lon="15.277273">
        <ele>175.31</ele>
      </trkpt>
      <trkpt lat="45.64293" lon="15.277199">
        <ele>175.45</ele>
      </trkpt>
      <trkpt lat="45.642916" lon="15.277112">
        <ele>175.66</ele>
      </trkpt>
      <trkpt lat="45.642891" lon="15.276851">
        <ele>176.31</ele>
      </trkpt>
      <trkpt lat="45.642869" lon="15.276766">
        <ele>176.43</ele>
      </trkpt>
      <trkpt lat="45.642797" lon="15.276636">
        <ele>176.09</ele>
      </trkpt>
      <trkpt lat="45.642728" lon="15.276479">
        <ele>175.53</ele>
      </trkpt>
      <trkpt lat="45.642661" lon="15.276232">
        <ele>174.82</ele>
      </trkpt>
      <trkpt lat="45.642608" lon="15.275872">
        <ele>174.02</ele>
      </trkpt>
      <trkpt lat="45.642544" lon="15.275306">
        <ele>175.05</ele>
      </trkpt>
      <trkpt lat="45.642518" lon="15.275011">
        <ele>175.78</ele>
      </trkpt>
      <trkpt lat="45.642514" lon="15.274827">
        <ele>176.84</ele>
      </trkpt>
      <trkpt lat="45.642539" lon="15.274561">
        <ele>178.53</ele>
      </trkpt>
      <trkpt lat="45.642537" lon="15.274427">
        <ele>179.31</ele>
      </trkpt>
      <trkpt lat="45.64252" lon="15.274293">
        <ele>180.01</ele>
      </trkpt>
      <trkpt lat="45.642331" lon="15.273683">
        <ele>182.09</ele>
      </trkpt>
      <trkpt lat="45.642202" lon="15.273249">
        <ele>183.29</ele>
      </trkpt>
      <trkpt lat="45.642139" lon="15.273013">
        <ele>183.39</ele>
      </trkpt>
      <trkpt lat="45.642059" lon="15.272573">
        <ele>183.67</ele>
      </trkpt>
      <trkpt lat="45.64204" lon="15.272428">
        <ele>183.79</ele>
      </trkpt>
      <trkpt lat="45.64201" lon="15.272345">
        <ele>183.76</ele>
      </trkpt>
      <trkpt lat="45.641942" lon="15.27227">
        <ele>183.54</ele>
      </trkpt>
      <trkpt lat="45.641821" lon="15.272177">
        <ele>183.12</ele>
      </trkpt>
      <trkpt lat="45.641702" lon="15.272147">
        <ele>182.62</ele>
      </trkpt>
      <trkpt lat="45.641509" lon="15.272125">
        <ele>181.73</ele>
      </trkpt>
      <trkpt lat="45.641076" lon="15.272109">
        <ele>179.62</ele>
      </trkpt>
      <trkpt lat="45.640985" lon="15.272097">
        <ele>179.15</ele>
      </trkpt>
      <trkpt lat="45.640719" lon="15.271975">
        <ele>177.95</ele>
      </trkpt>
      <trkpt lat="45.640373" lon="15.27172">
        <ele>177.31</ele>
      </trkpt>
      <trkpt lat="45.640292" lon="15.271699">
        <ele>177.2</ele>
      </trkpt>
      <trkpt lat="45.64017" lon="15.271697">
        <ele>177.06</ele>
      </trkpt>
      <trkpt lat="45.639983" lon="15.271714">
        <ele>175.8</ele>
      </trkpt>
      <trkpt lat="45.639861" lon="15.27171">
        <ele>174.63</ele>
      </trkpt>
      <trkpt lat="45.639681" lon="15.271664">
        <ele>172.8</ele>
      </trkpt>
      <trkpt lat="45.639502" lon="15.271634">
        <ele>170.96</ele>
      </trkpt>
      <trkpt lat="45.639296" lon="15.271621">
        <ele>168.9</ele>
      </trkpt>
      <trkpt lat="45.639099" lon="15.271651">
        <ele>165.64</ele>
      </trkpt>
      <trkpt lat="45.639021" lon="15.271718">
        <ele>164.46</ele>
      </trkpt>
      <trkpt lat="45.638982" lon="15.271781">
        <ele>163.82</ele>
      </trkpt>
      <trkpt lat="45.638909" lon="15.271973">
        <ele>162.81</ele>
      </trkpt>
      <trkpt lat="45.638865" lon="15.27205">
        <ele>162.24</ele>
      </trkpt>
      <trkpt lat="45.638807" lon="15.272123">
        <ele>161.49</ele>
      </trkpt>
      <trkpt lat="45.638748" lon="15.272168">
        <ele>160.72</ele>
      </trkpt>
      <trkpt lat="45.638596" lon="15.272364">
        <ele>159.22</ele>
      </trkpt>
      <trkpt lat="45.638561" lon="15.272426">
        <ele>158.98</ele>
      </trkpt>
      <trkpt lat="45.638514" lon="15.272538">
        <ele>158.86</ele>
      </trkpt>
      <trkpt lat="45.638445" lon="15.272745">
        <ele>159.02</ele>
      </trkpt>
      <trkpt lat="45.638403" lon="15.27292">
        <ele>159.57</ele>
      </trkpt>
      <trkpt lat="45.638359" lon="15.273158">
        <ele>160.5</ele>
      </trkpt>
      <trkpt lat="45.63831" lon="15.273547">
        <ele>161.98</ele>
      </trkpt>
      <trkpt lat="45.638272" lon="15.273673">
        <ele>162.25</ele>
      </trkpt>
      <trkpt lat="45.638216" lon="15.273799">
        <ele>162.44</ele>
      </trkpt>
      <trkpt lat="45.638147" lon="15.273923">
        <ele>162.55</ele>
      </trkpt>
      <trkpt lat="45.638053" lon="15.274067">
        <ele>162.62</ele>
      </trkpt>
      <trkpt lat="45.637765" lon="15.274378">
        <ele>162.12</ele>
      </trkpt>
      <trkpt lat="45.637187" lon="15.275347">
        <ele>160.87</ele>
      </trkpt>
      <trkpt lat="45.637057" lon="15.27551">
        <ele>159.74</ele>
      </trkpt>
      <trkpt lat="45.636933" lon="15.275631">
        <ele>158.82</ele>
      </trkpt>
      <trkpt lat="45.636836" lon="15.275685">
        <ele>158.3</ele>
      </trkpt>
      <trkpt lat="45.636768" lon="15.275698">
        <ele>158.06</ele>
      </trkpt>
      <trkpt lat="45.636463" lon="15.275717">
        <ele>155.82</ele>
      </trkpt>
      <trkpt lat="45.636217" lon="15.275797">
        <ele>153.9</ele>
      </trkpt>
      <trkpt lat="45.636088" lon="15.275883">
        <ele>152.91</ele>
      </trkpt>
      <trkpt lat="45.636033" lon="15.275929">
        <ele>152.55</ele>
      </trkpt>
      <trkpt lat="45.635908" lon="15.276063">
        <ele>151.82</ele>
      </trkpt>
      <trkpt lat="45.635511" lon="15.276563">
        <ele>149.85</ele>
      </trkpt>
      <trkpt lat="45.635382" lon="15.27669">
        <ele>149.31</ele>
      </trkpt>
      <trkpt lat="45.635287" lon="15.276772">
        <ele>148.84</ele>
      </trkpt>
      <trkpt lat="45.635184" lon="15.276843">
        <ele>148.26</ele>
      </trkpt>
      <trkpt lat="45.634998" lon="15.27694">
        <ele>148.01</ele>
      </trkpt>
      <trkpt lat="45.634664" lon="15.277172">
        <ele>148.16</ele>
      </trkpt>
      <trkpt lat="45.634482" lon="15.277387">
        <ele>147.62</ele>
      </trkpt>
      <trkpt lat="45.63438" lon="15.27749">
        <ele>147.24</ele>
      </trkpt>
      <trkpt lat="45.634277" lon="15.277652">
        <ele>146.87</ele>
      </trkpt>
      <trkpt lat="45.633752" lon="15.278418">
        <ele>145.94</ele>
      </trkpt>
      <trkpt lat="45.633585" lon="15.278681">
        <ele>145.31</ele>
      </trkpt>
      <trkpt lat="45.633266" lon="15.279182">
        <ele>144.09</ele>
      </trkpt>
      <trkpt lat="45.633196" lon="15.279359">
        <ele>144.07</ele>
      </trkpt>
      <trkpt lat="45.633084" lon="15.279961">
        <ele>144.13</ele>
      </trkpt>
      <trkpt lat="45.632939" lon="15.280489">
        <ele>143.8</ele>
      </trkpt>
      <trkpt lat="45.632929" lon="15.280766">
        <ele>143.78</ele>
      </trkpt>
      <trkpt lat="45.632919" lon="15.280847">
        <ele>143.75</ele>
      </trkpt>
      <trkpt lat="45.632922" lon="15.28094">
        <ele>143.58</ele>
      </trkpt>
      <trkpt lat="45.632952" lon="15.281038">
        <ele>143.39</ele>
      </trkpt>
      <trkpt lat="45.633007" lon="15.281122">
        <ele>143.36</ele>
      </trkpt>
      <trkpt lat="45.633101" lon="15.281235">
        <ele>143.5</ele>
      </trkpt>
      <trkpt lat="45.633414" lon="15.281564">
        <ele>144.84</ele>
      </trkpt>
      <trkpt lat="45.633986" lon="15.282127">
        <ele>144.66</ele>
      </trkpt>
      <trkpt lat="45.634041" lon="15.282195">
        <ele>144.57</ele>
      </trkpt>
      <trkpt lat="45.634087" lon="15.282293">
        <ele>144.39</ele>
      </trkpt>
      <trkpt lat="45.634106" lon="15.282377">
        <ele>144.21</ele>
      </trkpt>
      <trkpt lat="45.634114" lon="15.282522">
        <ele>143.87</ele>
      </trkpt>
      <trkpt lat="45.634071" lon="15.282793">
        <ele>143.69</ele>
      </trkpt>
      <trkpt lat="45.63402" lon="15.282928">
        <ele>143.56</ele>
      </trkpt>
      <trkpt lat="45.63396" lon="15.283129">
        <ele>143.36</ele>
      </trkpt>
      <trkpt lat="45.633737" lon="15.283711">
        <ele>142.71</ele>
      </trkpt>
      <trkpt lat="45.633634" lon="15.284029">
        <ele>142.47</ele>
      </trkpt>
      <trkpt lat="45.633443" lon="15.284675">
        <ele>143.67</ele>
      </trkpt>
      <trkpt lat="45.633237" lon="15.285493">
        <ele>146.45</ele>
      </trkpt>
      <trkpt lat="45.633176" lon="15.285849">
        <ele>147.94</ele>
      </trkpt>
      <trkpt lat="45.633057" lon="15.286907">
        <ele>153.8</ele>
      </trkpt>
      <trkpt lat="45.63303" lon="15.287421">
        <ele>155.15</ele>
      </trkpt>
      <trkpt lat="45.633023" lon="15.287553">
        <ele>155.5</ele>
      </trkpt>
      <trkpt lat="45.633023" lon="15.287848">
        <ele>155.5</ele>
      </trkpt>
      <trkpt lat="45.633046" lon="15.288146">
        <ele>155.58</ele>
      </trkpt>
      <trkpt lat="45.633143" lon="15.288846">
        <ele>152.95</ele>
      </trkpt>
      <trkpt lat="45.633179" lon="15.289394">
        <ele>150.11</ele>
      </trkpt>
      <trkpt lat="45.633212" lon="15.289519">
        <ele>149.82</ele>
      </trkpt>
      <trkpt lat="45.633321" lon="15.289831">
        <ele>149.22</ele>
      </trkpt>
      <trkpt lat="45.633364" lon="15.289992">
        <ele>148.85</ele>
      </trkpt>
      <trkpt lat="45.633383" lon="15.290123">
        <ele>148.73</ele>
      </trkpt>
      <trkpt lat="45.633387" lon="15.290249">
        <ele>148.73</ele>
      </trkpt>
      <trkpt lat="45.633369" lon="15.290387">
        <ele>148.63</ele>
      </trkpt>
      <trkpt lat="45.633314" lon="15.290566">
        <ele>148.31</ele>
      </trkpt>
      <trkpt lat="45.633116" lon="15.291128">
        <ele>147.49</ele>
      </trkpt>
      <trkpt lat="45.63271" lon="15.292025">
        <ele>146.26</ele>
      </trkpt>
      <trkpt lat="45.632598" lon="15.292197">
        <ele>146.44</ele>
      </trkpt>
      <trkpt lat="45.63236" lon="15.292459">
        <ele>146.78</ele>
      </trkpt>
      <trkpt lat="45.632245" lon="15.292572">
        <ele>146.51</ele>
      </trkpt>
      <trkpt lat="45.632184" lon="15.292663">
        <ele>146.36</ele>
      </trkpt>
      <trkpt lat="45.63199" lon="15.292953">
        <ele>145.92</ele>
      </trkpt>
      <trkpt lat="45.63184" lon="15.293248">
        <ele>145.37</ele>
      </trkpt>
      <trkpt lat="45.631614" lon="15.294121">
        <ele>148.81</ele>
      </trkpt>
      <trkpt lat="45.631551" lon="15.294272">
        <ele>148.9</ele>
      </trkpt>
      <trkpt lat="45.631434" lon="15.294425">
        <ele>148.3</ele>
      </trkpt>
      <trkpt lat="45.631258" lon="15.294583">
        <ele>147.48</ele>
      </trkpt>
      <trkpt lat="45.631084" lon="15.294795">
        <ele>147.94</ele>
      </trkpt>
      <trkpt lat="45.630865" lon="15.295122">
        <ele>150.34</ele>
      </trkpt>
      <trkpt lat="45.630722" lon="15.295289">
        <ele>151.27</ele>
      </trkpt>
      <trkpt lat="45.630587" lon="15.295383">
        <ele>151.28</ele>
      </trkpt>
      <trkpt lat="45.630386" lon="15.295471">
        <ele>150.59</ele>
      </trkpt>
      <trkpt lat="45.630135" lon="15.29549">
        <ele>148.55</ele>
      </trkpt>
      <trkpt lat="45.629911" lon="15.295544">
        <ele>146.33</ele>
      </trkpt>
      <trkpt lat="45.629729" lon="15.295648">
        <ele>145.03</ele>
      </trkpt>
      <trkpt lat="45.629459" lon="15.295871">
        <ele>143.58</ele>
      </trkpt>
      <trkpt lat="45.629112" lon="15.296069">
        <ele>141.5</ele>
      </trkpt>
      <trkpt lat="45.628915" lon="15.296204">
        <ele>140.61</ele>
      </trkpt>
      <trkpt lat="45.628762" lon="15.296383">
        <ele>140.27</ele>
      </trkpt>
      <trkpt lat="45.628563" lon="15.296683">
        <ele>139.71</ele>
      </trkpt>
      <trkpt lat="45.628118" lon="15.295333">
        <ele>137.79</ele>
      </trkpt>
      <trkpt lat="45.628043" lon="15.295086">
        <ele>140.03</ele>
      </trkpt>
      <trkpt lat="45.627788" lon="15.295296">
        <ele>140.63</ele>
      </trkpt>
      <trkpt lat="45.627526" lon="15.295512">
        <ele>141.25</ele>
      </trkpt>
      <trkpt lat="45.627401" lon="15.295728">
        <ele>140.65</ele>
      </trkpt>
      <trkpt lat="45.627255" lon="15.295854">
        <ele>141.39</ele>
      </trkpt>
      <trkpt lat="45.627089" lon="15.295926">
        <ele>143.18</ele>
      </trkpt>
      <trkpt lat="45.627011" lon="15.295914">
        <ele>144.1</ele>
      </trkpt>
      <trkpt lat="45.62674" lon="15.295897">
        <ele>146.84</ele>
      </trkpt>
      <trkpt lat="45.626609" lon="15.295918">
        <ele>146.28</ele>
      </trkpt>
      <trkpt lat="45.626477" lon="15.295961">
        <ele>145.63</ele>
      </trkpt>
      <trkpt lat="45.626309" lon="15.29607">
        <ele>144.54</ele>
      </trkpt>
      <trkpt lat="45.626232" lon="15.296102">
        <ele>144.1</ele>
      </trkpt>
      <trkpt lat="45.6261" lon="15.296103">
        <ele>143.58</ele>
      </trkpt>
      <trkpt lat="45.625995" lon="15.296123">
        <ele>143.07</ele>
      </trkpt>
      <trkpt lat="45.625884" lon="15.296114">
        <ele>142.68</ele>
      </trkpt>
      <trkpt lat="45.62544" lon="15.296021">
        <ele>141.44</ele>
      </trkpt>
      <trkpt lat="45.625037" lon="15.295929">
        <ele>140.72</ele>
      </trkpt>
      <trkpt lat="45.624664" lon="15.295796">
        <ele>141.3</ele>
      </trkpt>
      <trkpt lat="45.62422" lon="15.295573">
        <ele>141.78</ele>
      </trkpt>
      <trkpt lat="45.623945" lon="15.295374">
        <ele>142.37</ele>
      </trkpt>
      <trkpt lat="45.623576" lon="15.295135">
        <ele>142.88</ele>
      </trkpt>
      <trkpt lat="45.623372" lon="15.294974">
        <ele>143.39</ele>
      </trkpt>
      <trkpt lat="45.623331" lon="15.294926">
        <ele>143.62</ele>
      </trkpt>
      <trkpt lat="45.623021" lon="15.29459">
        <ele>144.77</ele>
      </trkpt>
      <trkpt lat="45.622441" lon="15.293918">
        <ele>144.47</ele>
      </trkpt>
      <trkpt lat="45.62228" lon="15.293692">
        <ele>143.73</ele>
      </trkpt>
      <trkpt lat="45.62212" lon="15.293446">
        <ele>142.77</ele>
      </trkpt>
      <trkpt lat="45.621749" lon="15.292831">
        <ele>141.56</ele>
      </trkpt>
      <trkpt lat="45.621546" lon="15.292416">
        <ele>141.17</ele>
      </trkpt>
      <trkpt lat="45.621092" lon="15.291635">
        <ele>141.47</ele>
      </trkpt>
      <trkpt lat="45.619723" lon="15.289764">
        <ele>146.93</ele>
      </trkpt>
      <trkpt lat="45.619638" lon="15.28969">
        <ele>147.54</ele>
      </trkpt>
      <trkpt lat="45.61952" lon="15.289604">
        <ele>148.36</ele>
      </trkpt>
      <trkpt lat="45.619476" lon="15.289564">
        <ele>148.66</ele>
      </trkpt>
      <trkpt lat="45.619418" lon="15.289487">
        <ele>149.05</ele>
      </trkpt>
      <trkpt lat="45.619081" lon="15.288861">
        <ele>150.01</ele>
      </trkpt>
      <trkpt lat="45.618985" lon="15.288706">
        <ele>149.85</ele>
      </trkpt>
      <trkpt lat="45.618882" lon="15.288578">
        <ele>149.59</ele>
      </trkpt>
      <trkpt lat="45.618675" lon="15.288442">
        <ele>148.89</ele>
      </trkpt>
      <trkpt lat="45.61857" lon="15.288362">
        <ele>148.46</ele>
      </trkpt>
      <trkpt lat="45.618186" lon="15.287997">
        <ele>147.21</ele>
      </trkpt>
      <trkpt lat="45.618009" lon="15.28779">
        <ele>147.09</ele>
      </trkpt>
      <trkpt lat="45.617852" lon="15.287606">
        <ele>146.97</ele>
      </trkpt>
      <trkpt lat="45.617723" lon="15.28747">
        <ele>146.99</ele>
      </trkpt>
      <trkpt lat="45.617368" lon="15.287139">
        <ele>146.72</ele>
      </trkpt>
      <trkpt lat="45.617228" lon="15.287026">
        <ele>146.55</ele>
      </trkpt>
      <trkpt lat="45.616617" lon="15.286465">
        <ele>146.67</ele>
      </trkpt>
      <trkpt lat="45.616426" lon="15.286328">
        <ele>146.96</ele>
      </trkpt>
      <trkpt lat="45.616185" lon="15.286131">
        <ele>147.12</ele>
      </trkpt>
      <trkpt lat="45.615968" lon="15.28593">
        <ele>147.03</ele>
      </trkpt>
      <trkpt lat="45.615593" lon="15.285544">
        <ele>145.61</ele>
      </trkpt>
      <trkpt lat="45.61535" lon="15.285281">
        <ele>144.37</ele>
      </trkpt>
      <trkpt lat="45.615014" lon="15.284993">
        <ele>142.56</ele>
      </trkpt>
      <trkpt lat="45.614893" lon="15.284866">
        <ele>141.92</ele>
      </trkpt>
      <trkpt lat="45.6147" lon="15.284706">
        <ele>141.13</ele>
      </trkpt>
      <trkpt lat="45.614084" lon="15.284258">
        <ele>140.2</ele>
      </trkpt>
      <trkpt lat="45.613799" lon="15.284029">
        <ele>141.13</ele>
      </trkpt>
      <trkpt lat="45.613553" lon="15.283787">
        <ele>142.32</ele>
      </trkpt>
      <trkpt lat="45.613382" lon="15.283649">
        <ele>142.92</ele>
      </trkpt>
      <trkpt lat="45.613155" lon="15.283396">
        <ele>143.28</ele>
      </trkpt>
      <trkpt lat="45.612818" lon="15.282979">
        <ele>143.82</ele>
      </trkpt>
      <trkpt lat="45.612405" lon="15.282526">
        <ele>145.08</ele>
      </trkpt>
      <trkpt lat="45.612273" lon="15.282419">
        <ele>144.63</ele>
      </trkpt>
      <trkpt lat="45.611905" lon="15.282265">
        <ele>143.28</ele>
      </trkpt>
      <trkpt lat="45.611818" lon="15.282211">
        <ele>143.02</ele>
      </trkpt>
      <trkpt lat="45.611743" lon="15.282142">
        <ele>142.91</ele>
      </trkpt>
      <trkpt lat="45.611825" lon="15.2821">
        <ele>143.31</ele>
      </trkpt>
      <trkpt lat="45.611916" lon="15.28202">
        <ele>143.86</ele>
      </trkpt>
      <trkpt lat="45.611986" lon="15.281931">
        <ele>144.33</ele>
      </trkpt>
      <trkpt lat="45.612058" lon="15.281818">
        <ele>144.83</ele>
      </trkpt>
      <trkpt lat="45.612266" lon="15.281417">
        <ele>145.97</ele>
      </trkpt>
      <trkpt lat="45.612356" lon="15.281261">
        <ele>146.21</ele>
      </trkpt>
      <trkpt lat="45.612484" lon="15.280875">
        <ele>146.17</ele>
      </trkpt>
      <trkpt lat="45.612521" lon="15.280714">
        <ele>147.03</ele>
      </trkpt>
      <trkpt lat="45.612578" lon="15.280546">
        <ele>147.71</ele>
      </trkpt>
      <trkpt lat="45.612646" lon="15.280411">
        <ele>148.09</ele>
      </trkpt>
      <trkpt lat="45.612728" lon="15.280281">
        <ele>148.35</ele>
      </trkpt>
      <trkpt lat="45.613059" lon="15.27994">
        <ele>149.39</ele>
      </trkpt>
      <trkpt lat="45.613893" lon="15.27923">
        <ele>151.26</ele>
      </trkpt>
      <trkpt lat="45.614338" lon="15.278802">
        <ele>151.69</ele>
      </trkpt>
      <trkpt lat="45.614801" lon="15.278422">
        <ele>154.16</ele>
      </trkpt>
      <trkpt lat="45.615477" lon="15.277749">
        <ele>156.9</ele>
      </trkpt>
      <trkpt lat="45.616003" lon="15.276956">
        <ele>155.51</ele>
      </trkpt>
      <trkpt lat="45.61612" lon="15.276724">
        <ele>155.67</ele>
      </trkpt>
      <trkpt lat="45.6162" lon="15.276526">
        <ele>156.26</ele>
      </trkpt>
      <trkpt lat="45.616246" lon="15.276449">
        <ele>156.51</ele>
      </trkpt>
      <trkpt lat="45.616302" lon="15.27639">
        <ele>156.75</ele>
      </trkpt>
      <trkpt lat="45.616482" lon="15.276297">
        <ele>157.31</ele>
      </trkpt>
      <trkpt lat="45.616483" lon="15.276302">
        <ele>157.31</ele>
      </trkpt>
      <trkpt lat="45.616483" lon="15.276302">
        <ele>157.31</ele>
      </trkpt>
      <trkpt lat="45.616455" lon="15.276154">
        <ele>157.37</ele>
      </trkpt>
      <trkpt lat="45.61643" lon="15.275957">
        <ele>157.52</ele>
      </trkpt>
      <trkpt lat="45.616412" lon="15.275177">
        <ele>160.1</ele>
      </trkpt>
      <trkpt lat="45.616371" lon="15.274902">
        <ele>160.93</ele>
      </trkpt>
      <trkpt lat="45.616339" lon="15.27477">
        <ele>161.31</ele>
      </trkpt>
      <trkpt lat="45.616244" lon="15.27448">
        <ele>162.74</ele>
      </trkpt>
      <trkpt lat="45.615775" lon="15.273572">
        <ele>167.81</ele>
      </trkpt>
      <trkpt lat="45.615679" lon="15.273357">
        <ele>168.14</ele>
      </trkpt>
      <trkpt lat="45.615664" lon="15.273323">
        <ele>168.2</ele>
      </trkpt>
      <trkpt lat="45.61595" lon="15.273057">
        <ele>163.2</ele>
      </trkpt>
      <trkpt lat="45.616075" lon="15.27291">
        <ele>162.79</ele>
      </trkpt>
      <trkpt lat="45.616225" lon="15.272762">
        <ele>162.84</ele>
      </trkpt>
      <trkpt lat="45.616435" lon="15.272592">
        <ele>163.64</ele>
      </trkpt>
      <trkpt lat="45.616878" lon="15.272344">
        <ele>165.75</ele>
      </trkpt>
      <trkpt lat="45.617308" lon="15.272047">
        <ele>164.28</ele>
      </trkpt>
      <trkpt lat="45.617637" lon="15.271871">
        <ele>162.69</ele>
      </trkpt>
      <trkpt lat="45.617827" lon="15.271809">
        <ele>162.19</ele>
      </trkpt>
      <trkpt lat="45.618221" lon="15.271736">
        <ele>160.84</ele>
      </trkpt>
      <trkpt lat="45.618459" lon="15.271704">
        <ele>159.92</ele>
      </trkpt>
      <trkpt lat="45.618613" lon="15.271623">
        <ele>159.47</ele>
      </trkpt>
      <trkpt lat="45.619" lon="15.271238">
        <ele>158.11</ele>
      </trkpt>
      <trkpt lat="45.619348" lon="15.270845">
        <ele>155.97</ele>
      </trkpt>
      <trkpt lat="45.61945" lon="15.270712">
        <ele>156.37</ele>
      </trkpt>
      <trkpt lat="45.619528" lon="15.270593">
        <ele>156.75</ele>
      </trkpt>
      <trkpt lat="45.619604" lon="15.270446">
        <ele>157.27</ele>
      </trkpt>
      <trkpt lat="45.619806" lon="15.269974">
        <ele>159.14</ele>
      </trkpt>
      <trkpt lat="45.619879" lon="15.269834">
        <ele>159.74</ele>
      </trkpt>
      <trkpt lat="45.620022" lon="15.269621">
        <ele>160.38</ele>
      </trkpt>
      <trkpt lat="45.620898" lon="15.268525">
        <ele>162.64</ele>
      </trkpt>
      <trkpt lat="45.621159" lon="15.268134">
        <ele>163.36</ele>
      </trkpt>
      <trkpt lat="45.621598" lon="15.267666">
        <ele>160.88</ele>
      </trkpt>
      <trkpt lat="45.622172" lon="15.266806">
        <ele>160.75</ele>
      </trkpt>
      <trkpt lat="45.622451" lon="15.2663">
        <ele>160.5</ele>
      </trkpt>
      <trkpt lat="45.622641" lon="15.265791">
        <ele>158.63</ele>
      </trkpt>
      <trkpt lat="45.622833" lon="15.264997">
        <ele>154.21</ele>
      </trkpt>
      <trkpt lat="45.622986" lon="15.264535">
        <ele>148.75</ele>
      </trkpt>
      <trkpt lat="45.623055" lon="15.264354">
        <ele>146.13</ele>
      </trkpt>
      <trkpt lat="45.623141" lon="15.264218">
        <ele>143.41</ele>
      </trkpt>
      <trkpt lat="45.62328" lon="15.264067">
        <ele>140.78</ele>
      </trkpt>
      <trkpt lat="45.623417" lon="15.263965">
        <ele>138.61</ele>
      </trkpt>
      <trkpt lat="45.623854" lon="15.263731">
        <ele>139.86</ele>
      </trkpt>
      <trkpt lat="45.623935" lon="15.263707">
        <ele>140.16</ele>
      </trkpt>
      <trkpt lat="45.624041" lon="15.263718">
        <ele>140.47</ele>
      </trkpt>
      <trkpt lat="45.624249" lon="15.263845">
        <ele>140.81</ele>
      </trkpt>
      <trkpt lat="45.624339" lon="15.263869">
        <ele>141.21</ele>
      </trkpt>
      <trkpt lat="45.624682" lon="15.263871">
        <ele>143.19</ele>
      </trkpt>
      <trkpt lat="45.624893" lon="15.263853">
        <ele>144.48</ele>
      </trkpt>
      <trkpt lat="45.625236" lon="15.263791">
        <ele>146.01</ele>
      </trkpt>
      <trkpt lat="45.625438" lon="15.263768">
        <ele>146.1</ele>
      </trkpt>
      <trkpt lat="45.625835" lon="15.263753">
        <ele>146.11</ele>
      </trkpt>
      <trkpt lat="45.625938" lon="15.263718">
        <ele>146.18</ele>
      </trkpt>
      <trkpt lat="45.626197" lon="15.263566">
        <ele>146.69</ele>
      </trkpt>
      <trkpt lat="45.626718" lon="15.263195">
        <ele>146.81</ele>
      </trkpt>
      <trkpt lat="45.626972" lon="15.263046">
        <ele>147.04</ele>
      </trkpt>
      <trkpt lat="45.627598" lon="15.262703">
        <ele>146.76</ele>
      </trkpt>
      <trkpt lat="45.627679" lon="15.262667">
        <ele>146.92</ele>
      </trkpt>
      <trkpt lat="45.627777" lon="15.262659">
        <ele>147.32</ele>
      </trkpt>
      <trkpt lat="45.627839" lon="15.262672">
        <ele>147.65</ele>
      </trkpt>
      <trkpt lat="45.627895" lon="15.262701">
        <ele>148.02</ele>
      </trkpt>
      <trkpt lat="45.628171" lon="15.262908">
        <ele>149.87</ele>
      </trkpt>
      <trkpt lat="45.628483" lon="15.263109">
        <ele>151.68</ele>
      </trkpt>
      <trkpt lat="45.628548" lon="15.263169">
        <ele>152.16</ele>
      </trkpt>
      <trkpt lat="45.628854" lon="15.263553">
        <ele>154.94</ele>
      </trkpt>
      <trkpt lat="45.62921" lon="15.263961">
        <ele>160.35</ele>
      </trkpt>
      <trkpt lat="45.629992" lon="15.264915">
        <ele>164.32</ele>
      </trkpt>
      <trkpt lat="45.630043" lon="15.264961">
        <ele>164.19</ele>
      </trkpt>
      <trkpt lat="45.630134" lon="15.264987">
        <ele>163.99</ele>
      </trkpt>
      <trkpt lat="45.630206" lon="15.264993">
        <ele>163.95</ele>
      </trkpt>
      <trkpt lat="45.630354" lon="15.264983">
        <ele>163.92</ele>
      </trkpt>
      <trkpt lat="45.630398" lon="15.265024">
        <ele>163.73</ele>
      </trkpt>
      <trkpt lat="45.630427" lon="15.265068">
        <ele>163.51</ele>
      </trkpt>
      <trkpt lat="45.630881" lon="15.26619">
        <ele>158.02</ele>
      </trkpt>
      <trkpt lat="45.630991" lon="15.266381">
        <ele>159.12</ele>
      </trkpt>
      <trkpt lat="45.631476" lon="15.267123">
        <ele>166.98</ele>
      </trkpt>
      <trkpt lat="45.631605" lon="15.267279">
        <ele>167.9</ele>
      </trkpt>
      <trkpt lat="45.632136" lon="15.267654">
        <ele>169.39</ele>
      </trkpt>
      <trkpt lat="45.632392" lon="15.267796">
        <ele>169.78</ele>
      </trkpt>
      <trkpt lat="45.632483" lon="15.267879">
        <ele>169.64</ele>
      </trkpt>
      <trkpt lat="45.632543" lon="15.267971">
        <ele>169.3</ele>
      </trkpt>
      <trkpt lat="45.63259" lon="15.268091">
        <ele>168.69</ele>
      </trkpt>
      <trkpt lat="45.632627" lon="15.26822">
        <ele>167.61</ele>
      </trkpt>
      <trkpt lat="45.632651" lon="15.268356">
        <ele>166.46</ele>
      </trkpt>
      <trkpt lat="45.632655" lon="15.268708">
        <ele>162.14</ele>
      </trkpt>
      <trkpt lat="45.632676" lon="15.268842">
        <ele>160.28</ele>
      </trkpt>
      <trkpt lat="45.632697" lon="15.268912">
        <ele>159.27</ele>
      </trkpt>
      <trkpt lat="45.63274" lon="15.269003">
        <ele>157.9</ele>
      </trkpt>
      <trkpt lat="45.632794" lon="15.269076">
        <ele>156.78</ele>
      </trkpt>
      <trkpt lat="45.632839" lon="15.269108">
        <ele>156.21</ele>
      </trkpt>
      <trkpt lat="45.632903" lon="15.269111">
        <ele>155.87</ele>
      </trkpt>
      <trkpt lat="45.633053" lon="15.26907">
        <ele>155.44</ele>
      </trkpt>
      <trkpt lat="45.633633" lon="15.269027">
        <ele>153.49</ele>
      </trkpt>
      <trkpt lat="45.634006" lon="15.268934">
        <ele>153.89</ele>
      </trkpt>
      <trkpt lat="45.634223" lon="15.268856">
        <ele>154.26</ele>
      </trkpt>
      <trkpt lat="45.63431" lon="15.26881">
        <ele>154.89</ele>
      </trkpt>
      <trkpt lat="45.634403" lon="15.268714">
        <ele>156.39</ele>
      </trkpt>
      <trkpt lat="45.634535" lon="15.268542">
        <ele>158.75</ele>
      </trkpt>
      <trkpt lat="45.634587" lon="15.268507">
        <ele>159.58</ele>
      </trkpt>
      <trkpt lat="45.634923" lon="15.268287">
        <ele>164.83</ele>
      </trkpt>
      <trkpt lat="45.63499" lon="15.268268">
        <ele>165.76</ele>
      </trkpt>
      <trkpt lat="45.63518" lon="15.268242">
        <ele>167.27</ele>
      </trkpt>
      <trkpt lat="45.635226" lon="15.268197">
        <ele>167.35</ele>
      </trkpt>
      <trkpt lat="45.635129" lon="15.268689">
        <ele>165.15</ele>
      </trkpt>
      <trkpt lat="45.635064" lon="15.268925">
        <ele>163.22</ele>
      </trkpt>
      <trkpt lat="45.635043" lon="15.26903">
        <ele>162.38</ele>
      </trkpt>
      <trkpt lat="45.635039" lon="15.269145">
        <ele>161.66</ele>
      </trkpt>
      <trkpt lat="45.635048" lon="15.269266">
        <ele>161.08</ele>
      </trkpt>
      <trkpt lat="45.635073" lon="15.269476">
        <ele>160.14</ele>
      </trkpt>
      <trkpt lat="45.635155" lon="15.269958">
        <ele>157.97</ele>
      </trkpt>
      <trkpt lat="45.635197" lon="15.270135">
        <ele>157.64</ele>
      </trkpt>
      <trkpt lat="45.635289" lon="15.270444">
        <ele>157.69</ele>
      </trkpt>
      <trkpt lat="45.635335" lon="15.270634">
        <ele>157.59</ele>
      </trkpt>
      <trkpt lat="45.635384" lon="15.27091">
        <ele>157.32</ele>
      </trkpt>
      <trkpt lat="45.635415" lon="15.271042">
        <ele>157.48</ele>
      </trkpt>
      <trkpt lat="45.635482" lon="15.271189">
        <ele>157.72</ele>
      </trkpt>
      <trkpt lat="45.635542" lon="15.271251">
        <ele>157.92</ele>
      </trkpt>
      <trkpt lat="45.635643" lon="15.271329">
        <ele>158.16</ele>
      </trkpt>
      <trkpt lat="45.635799" lon="15.271417">
        <ele>158.35</ele>
      </trkpt>
      <trkpt lat="45.636245" lon="15.271543">
        <ele>154.42</ele>
      </trkpt>
      <trkpt lat="45.636314" lon="15.271538">
        <ele>153.66</ele>
      </trkpt>
      <trkpt lat="45.636363" lon="15.271516">
        <ele>153.3</ele>
      </trkpt>
      <trkpt lat="45.636403" lon="15.271482">
        <ele>153.19</ele>
      </trkpt>
      <trkpt lat="45.63659" lon="15.271264">
        <ele>153.61</ele>
      </trkpt>
      <trkpt lat="45.636633" lon="15.271246">
        <ele>153.44</ele>
      </trkpt>
      <trkpt lat="45.636674" lon="15.271254">
        <ele>152.96</ele>
      </trkpt>
      <trkpt lat="45.636765" lon="15.271318">
        <ele>151.28</ele>
      </trkpt>
      <trkpt lat="45.636892" lon="15.271479">
        <ele>148.68</ele>
      </trkpt>
      <trkpt lat="45.637082" lon="15.271667">
        <ele>146.4</ele>
      </trkpt>
      <trkpt lat="45.63737" lon="15.271838">
        <ele>146.69</ele>
      </trkpt>
      <trkpt lat="45.637483" lon="15.271889">
        <ele>147.12</ele>
      </trkpt>
      <trkpt lat="45.637623" lon="15.27193">
        <ele>147.72</ele>
      </trkpt>
      <trkpt lat="45.637874" lon="15.271962">
        <ele>150.17</ele>
      </trkpt>
      <trkpt lat="45.638594" lon="15.271971">
        <ele>157.87</ele>
      </trkpt>
      <trkpt lat="45.638594" lon="15.271971">
        <ele>157.87</ele>
      </trkpt>
      <trkpt lat="45.638622" lon="15.271972">
        <ele>158.19</ele>
      </trkpt>
      <trkpt lat="45.638695" lon="15.272005">
        <ele>159.46</ele>
      </trkpt>
      <trkpt lat="45.638732" lon="15.27209">
        <ele>160.28</ele>
      </trkpt>
      <trkpt lat="45.638748" lon="15.272168">
        <ele>160.72</ele>
      </trkpt>
      <trkpt lat="45.638807" lon="15.272123">
        <ele>161.49</ele>
      </trkpt>
      <trkpt lat="45.638865" lon="15.27205">
        <ele>162.24</ele>
      </trkpt>
      <trkpt lat="45.638909" lon="15.271973">
        <ele>162.81</ele>
      </trkpt>
      <trkpt lat="45.638982" lon="15.271781">
        <ele>163.82</ele>
      </trkpt>
      <trkpt lat="45.639021" lon="15.271718">
        <ele>164.46</ele>
      </trkpt>
      <trkpt lat="45.639099" lon="15.271651">
        <ele>165.64</ele>
      </trkpt>
      <trkpt lat="45.639296" lon="15.271621">
        <ele>168.9</ele>
      </trkpt>
      <trkpt lat="45.639502" lon="15.271634">
        <ele>170.96</ele>
      </trkpt>
      <trkpt lat="45.639681" lon="15.271664">
        <ele>172.8</ele>
      </trkpt>
      <trkpt lat="45.639861" lon="15.27171">
        <ele>174.63</ele>
      </trkpt>
      <trkpt lat="45.639983" lon="15.271714">
        <ele>175.8</ele>
      </trkpt>
      <trkpt lat="45.64017" lon="15.271697">
        <ele>177.06</ele>
      </trkpt>
      <trkpt lat="45.640292" lon="15.271699">
        <ele>177.2</ele>
      </trkpt>
      <trkpt lat="45.640373" lon="15.27172">
        <ele>177.31</ele>
      </trkpt>
      <trkpt lat="45.640719" lon="15.271975">
        <ele>177.95</ele>
      </trkpt>
      <trkpt lat="45.640985" lon="15.272097">
        <ele>179.15</ele>
      </trkpt>
      <trkpt lat="45.641076" lon="15.272109">
        <ele>179.62</ele>
      </trkpt>
      <trkpt lat="45.641509" lon="15.272125">
        <ele>181.73</ele>
      </trkpt>
      <trkpt lat="45.641702" lon="15.272147">
        <ele>182.62</ele>
      </trkpt>
      <trkpt lat="45.641821" lon="15.272177">
        <ele>183.12</ele>
      </trkpt>
      <trkpt lat="45.641942" lon="15.27227">
        <ele>183.54</ele>
      </trkpt>
      <trkpt lat="45.64201" lon="15.272345">
        <ele>183.76</ele>
      </trkpt>
      <trkpt lat="45.64204" lon="15.272428">
        <ele>183.79</ele>
      </trkpt>
      <trkpt lat="45.642059" lon="15.272573">
        <ele>183.67</ele>
      </trkpt>
      <trkpt lat="45.642139" lon="15.273013">
        <ele>183.39</ele>
      </trkpt>
      <trkpt lat="45.642202" lon="15.273249">
        <ele>183.29</ele>
      </trkpt>
      <trkpt lat="45.642331" lon="15.273683">
        <ele>182.09</ele>
      </trkpt>
      <trkpt lat="45.64252" lon="15.274293">
        <ele>180.01</ele>
      </trkpt>
      <trkpt lat="45.642537" lon="15.274427">
        <ele>179.31</ele>
      </trkpt>
      <trkpt lat="45.642539" lon="15.274561">
        <ele>178.53</ele>
      </trkpt>
      <trkpt lat="45.642514" lon="15.274827">
        <ele>176.84</ele>
      </trkpt>
      <trkpt lat="45.642518" lon="15.275011">
        <ele>175.78</ele>
      </trkpt>
      <trkpt lat="45.642544" lon="15.275306">
        <ele>175.05</ele>
      </trkpt>
      <trkpt lat="45.642608" lon="15.275872">
        <ele>174.02</ele>
      </trkpt>
      <trkpt lat="45.642661" lon="15.276232">
        <ele>174.82</ele>
      </trkpt>
      <trkpt lat="45.642728" lon="15.276479">
        <ele>175.53</ele>
      </trkpt>
      <trkpt lat="45.642797" lon="15.276636">
        <ele>176.09</ele>
      </trkpt>
      <trkpt lat="45.642869" lon="15.276766">
        <ele>176.43</ele>
      </trkpt>
      <trkpt lat="45.642891" lon="15.276851">
        <ele>176.31</ele>
      </trkpt>
      <trkpt lat="45.642916" lon="15.277112">
        <ele>175.66</ele>
      </trkpt>
      <trkpt lat="45.64293" lon="15.277199">
        <ele>175.45</ele>
      </trkpt>
      <trkpt lat="45.642959" lon="15.277273">
        <ele>175.31</ele>
      </trkpt>
      <trkpt lat="45.64319" lon="15.277727">
        <ele>174.35</ele>
      </trkpt>
      <trkpt lat="45.643223" lon="15.277871">
        <ele>174.15</ele>
      </trkpt>
      <trkpt lat="45.643209" lon="15.27816">
        <ele>173.58</ele>
      </trkpt>
      <trkpt lat="45.643178" lon="15.278423">
        <ele>173.11</ele>
      </trkpt>
      <trkpt lat="45.643165" lon="15.278627">
        <ele>173.31</ele>
      </trkpt>
      <trkpt lat="45.643167" lon="15.278893">
        <ele>173.64</ele>
      </trkpt>
      <trkpt lat="45.643179" lon="15.279131">
        <ele>174.01</ele>
      </trkpt>
      <trkpt lat="45.643223" lon="15.279641">
        <ele>175.46</ele>
      </trkpt>
      <trkpt lat="45.64324" lon="15.279721">
        <ele>175.78</ele>
      </trkpt>
      <trkpt lat="45.643346" lon="15.280021">
        <ele>177.25</ele>
      </trkpt>
      <trkpt lat="45.643413" lon="15.280269">
        <ele>177.27</ele>
      </trkpt>
      <trkpt lat="45.643503" lon="15.280679">
        <ele>176.93</ele>
      </trkpt>
      <trkpt lat="45.643542" lon="15.280762">
        <ele>177.01</ele>
      </trkpt>
      <trkpt lat="45.643578" lon="15.280813">
        <ele>177.15</ele>
      </trkpt>
      <trkpt lat="45.643803" lon="15.281092">
        <ele>178.54</ele>
      </trkpt>
      <trkpt lat="45.644175" lon="15.282269">
        <ele>180.89</ele>
      </trkpt>
      <trkpt lat="45.644356" lon="15.282937">
        <ele>179</ele>
      </trkpt>
      <trkpt lat="45.64444" lon="15.283109">
        <ele>178.36</ele>
      </trkpt>
      <trkpt lat="45.644543" lon="15.283267">
        <ele>177.93</ele>
      </trkpt>
      <trkpt lat="45.644642" lon="15.283354">
        <ele>177.91</ele>
      </trkpt>
      <trkpt lat="45.644965" lon="15.283533">
        <ele>178.83</ele>
      </trkpt>
      <trkpt lat="45.645208" lon="15.2837">
        <ele>179.21</ele>
      </trkpt>
      <trkpt lat="45.645609" lon="15.284007">
        <ele>179.55</ele>
      </trkpt>
      <trkpt lat="45.645795" lon="15.284161">
        <ele>179.67</ele>
      </trkpt>
      <trkpt lat="45.645865" lon="15.284284">
        <ele>179.73</ele>
      </trkpt>
      <trkpt lat="45.645901" lon="15.284485">
        <ele>179.87</ele>
      </trkpt>
      <trkpt lat="45.64591" lon="15.284665">
        <ele>179.91</ele>
      </trkpt>
      <trkpt lat="45.645861" lon="15.284871">
        <ele>179.79</ele>
      </trkpt>
      <trkpt lat="45.645843" lon="15.285054">
        <ele>179.78</ele>
      </trkpt>
      <trkpt lat="45.645931" lon="15.285671">
        <ele>181.53</ele>
      </trkpt>
      <trkpt lat="45.645968" lon="15.286091">
        <ele>182.21</ele>
      </trkpt>
      <trkpt lat="45.64597" lon="15.286448">
        <ele>182.56</ele>
      </trkpt>
      <trkpt lat="45.646006" lon="15.286899">
        <ele>182.37</ele>
      </trkpt>
      <trkpt lat="45.646" lon="15.28713">
        <ele>182.11</ele>
      </trkpt>
      <trkpt lat="45.645979" lon="15.287336">
        <ele>181.99</ele>
      </trkpt>
      <trkpt lat="45.64595" lon="15.28747">
        <ele>182.03</ele>
      </trkpt>
      <trkpt lat="45.64584" lon="15.28779">
        <ele>181.92</ele>
      </trkpt>
      <trkpt lat="45.645835" lon="15.287889">
        <ele>181.79</ele>
      </trkpt>
      <trkpt lat="45.645848" lon="15.287999">
        <ele>181.62</ele>
      </trkpt>
      <trkpt lat="45.645891" lon="15.28813">
        <ele>181.38</ele>
      </trkpt>
      <trkpt lat="45.646113" lon="15.288605">
        <ele>181.08</ele>
      </trkpt>
      <trkpt lat="45.646137" lon="15.288691">
        <ele>181.25</ele>
      </trkpt>
      <trkpt lat="45.646154" lon="15.288868">
        <ele>181.67</ele>
      </trkpt>
      <trkpt lat="45.646191" lon="15.28898">
        <ele>181.98</ele>
      </trkpt>
      <trkpt lat="45.646716" lon="15.289952">
        <ele>186.64</ele>
      </trkpt>
      <trkpt lat="45.646743" lon="15.290064">
        <ele>187.02</ele>
      </trkpt>
      <trkpt lat="45.646765" lon="15.290391">
        <ele>187.43</ele>
      </trkpt>
      <trkpt lat="45.646745" lon="15.290533">
        <ele>187.67</ele>
      </trkpt>
      <trkpt lat="45.646698" lon="15.290726">
        <ele>188.11</ele>
      </trkpt>
      <trkpt lat="45.646698" lon="15.290807">
        <ele>188.24</ele>
      </trkpt>
      <trkpt lat="45.646773" lon="15.291113">
        <ele>188.56</ele>
      </trkpt>
      <trkpt lat="45.646801" lon="15.291315">
        <ele>188.93</ele>
      </trkpt>
      <trkpt lat="45.646825" lon="15.291394">
        <ele>189.01</ele>
      </trkpt>
      <trkpt lat="45.647131" lon="15.292068">
        <ele>189.14</ele>
      </trkpt>
      <trkpt lat="45.647461" lon="15.292557">
        <ele>188.67</ele>
      </trkpt>
      <trkpt lat="45.647598" lon="15.29284">
        <ele>186.99</ele>
      </trkpt>
      <trkpt lat="45.647823" lon="15.293264">
        <ele>185.87</ele>
      </trkpt>
      <trkpt lat="45.647868" lon="15.293414">
        <ele>185.53</ele>
      </trkpt>
      <trkpt lat="45.647872" lon="15.293503">
        <ele>185.29</ele>
      </trkpt>
      <trkpt lat="45.647855" lon="15.293626">
        <ele>184.89</ele>
      </trkpt>
      <trkpt lat="45.64786" lon="15.293866">
        <ele>184.21</ele>
      </trkpt>
      <trkpt lat="45.647877" lon="15.294025">
        <ele>183.83</ele>
      </trkpt>
      <trkpt lat="45.647893" lon="15.294062">
        <ele>183.8</ele>
      </trkpt>
      <trkpt lat="45.648033" lon="15.294275">
        <ele>183.82</ele>
      </trkpt>
      <trkpt lat="45.648332" lon="15.294853">
        <ele>182.05</ele>
      </trkpt>
      <trkpt lat="45.648657" lon="15.295541">
        <ele>175.86</ele>
      </trkpt>
      <trkpt lat="45.648998" lon="15.296351">
        <ele>168.01</ele>
      </trkpt>
      <trkpt lat="45.649186" lon="15.296971">
        <ele>165.13</ele>
      </trkpt>
      <trkpt lat="45.649415" lon="15.297791">
        <ele>166.2</ele>
      </trkpt>
      <trkpt lat="45.649668" lon="15.298601">
        <ele>167.22</ele>
      </trkpt>
      <trkpt lat="45.6497" lon="15.298762">
        <ele>166.91</ele>
      </trkpt>
      <trkpt lat="45.649768" lon="15.299258">
        <ele>166.02</ele>
      </trkpt>
      <trkpt lat="45.649803" lon="15.299411">
        <ele>166.46</ele>
      </trkpt>
      <trkpt lat="45.64984" lon="15.299527">
        <ele>166.9</ele>
      </trkpt>
      <trkpt lat="45.649893" lon="15.299653">
        <ele>167.48</ele>
      </trkpt>
      <trkpt lat="45.649936" lon="15.299716">
        <ele>167.91</ele>
      </trkpt>
      <trkpt lat="45.649931" lon="15.300126">
        <ele>168.52</ele>
      </trkpt>
      <trkpt lat="45.649886" lon="15.300974">
        <ele>168.8</ele>
      </trkpt>
      <trkpt lat="45.649916" lon="15.301697">
        <ele>171.39</ele>
      </trkpt>
      <trkpt lat="45.649972" lon="15.302124">
        <ele>172.55</ele>
      </trkpt>
      <trkpt lat="45.650038" lon="15.302483">
        <ele>173.69</ele>
      </trkpt>
      <trkpt lat="45.650113" lon="15.302732">
        <ele>173.56</ele>
      </trkpt>
      <trkpt lat="45.6503" lon="15.3032">
        <ele>172.44</ele>
      </trkpt>
      <trkpt lat="45.65038" lon="15.303362">
        <ele>172.05</ele>
      </trkpt>
      <trkpt lat="45.650416" lon="15.303462">
        <ele>171.75</ele>
      </trkpt>
      <trkpt lat="45.650442" lon="15.303534">
        <ele>171.53</ele>
      </trkpt>
      <trkpt lat="45.650579" lon="15.303713">
        <ele>171.04</ele>
      </trkpt>
      <trkpt lat="45.65058" lon="15.303783">
        <ele>170.83</ele>
      </trkpt>
      <trkpt lat="45.650596" lon="15.303849">
        <ele>170.65</ele>
      </trkpt>
      <trkpt lat="45.650627" lon="15.303903">
        <ele>170.52</ele>
      </trkpt>
      <trkpt lat="45.650686" lon="15.303949">
        <ele>170.44</ele>
      </trkpt>
      <trkpt lat="45.650753" lon="15.303954">
        <ele>170.48</ele>
      </trkpt>
      <trkpt lat="45.650806" lon="15.303924">
        <ele>170.6</ele>
      </trkpt>
      <trkpt lat="45.650877" lon="15.303939">
        <ele>170.62</ele>
      </trkpt>
      <trkpt lat="45.650934" lon="15.303971">
        <ele>170.59</ele>
      </trkpt>
      <trkpt lat="45.651132" lon="15.304135">
        <ele>170.86</ele>
      </trkpt>
      <trkpt lat="45.651195" lon="15.30424">
        <ele>170.9</ele>
      </trkpt>
      <trkpt lat="45.651273" lon="15.304411">
        <ele>171.14</ele>
      </trkpt>
      <trkpt lat="45.65134" lon="15.304618">
        <ele>171.41</ele>
      </trkpt>
      <trkpt lat="45.651397" lon="15.304843">
        <ele>171.7</ele>
      </trkpt>
      <trkpt lat="45.65142" lon="15.305081">
        <ele>171.83</ele>
      </trkpt>
      <trkpt lat="45.651419" lon="15.30528">
        <ele>171.55</ele>
      </trkpt>
      <trkpt lat="45.65137" lon="15.305909">
        <ele>170.53</ele>
      </trkpt>
      <trkpt lat="45.651382" lon="15.306305">
        <ele>170.34</ele>
      </trkpt>
      <trkpt lat="45.651403" lon="15.306465">
        <ele>170.35</ele>
      </trkpt>
      <trkpt lat="45.65144" lon="15.306645">
        <ele>170.42</ele>
      </trkpt>
      <trkpt lat="45.651491" lon="15.306823">
        <ele>170.72</ele>
      </trkpt>
      <trkpt lat="45.651743" lon="15.307445">
        <ele>172.69</ele>
      </trkpt>
      <trkpt lat="45.651785" lon="15.307571">
        <ele>172.98</ele>
      </trkpt>
      <trkpt lat="45.651826" lon="15.307767">
        <ele>172.74</ele>
      </trkpt>
      <trkpt lat="45.651844" lon="15.307964">
        <ele>172.51</ele>
      </trkpt>
      <trkpt lat="45.651858" lon="15.308373">
        <ele>172.01</ele>
      </trkpt>
      <trkpt lat="45.651887" lon="15.308583">
        <ele>172.1</ele>
      </trkpt>
      <trkpt lat="45.651952" lon="15.308795">
        <ele>172.31</ele>
      </trkpt>
      <trkpt lat="45.652377" lon="15.309792">
        <ele>174.66</ele>
      </trkpt>
      <trkpt lat="45.652497" lon="15.310169">
        <ele>175.3</ele>
      </trkpt>
      <trkpt lat="45.652622" lon="15.310746">
        <ele>174.3</ele>
      </trkpt>
      <trkpt lat="45.652639" lon="15.310799">
        <ele>174.13</ele>
      </trkpt>
      <trkpt lat="45.652698" lon="15.310917">
        <ele>173.71</ele>
      </trkpt>
      <trkpt lat="45.652732" lon="15.310958">
        <ele>173.54</ele>
      </trkpt>
      <trkpt lat="45.652814" lon="15.311033">
        <ele>173.19</ele>
      </trkpt>
      <trkpt lat="45.653408" lon="15.311399">
        <ele>171.22</ele>
      </trkpt>
      <trkpt lat="45.653528" lon="15.311473">
        <ele>170.82</ele>
      </trkpt>
      <trkpt lat="45.653646" lon="15.311578">
        <ele>170.11</ele>
      </trkpt>
      <trkpt lat="45.65371" lon="15.31166">
        <ele>169.74</ele>
      </trkpt>
      <trkpt lat="45.653772" lon="15.311782">
        <ele>169.45</ele>
      </trkpt>
      <trkpt lat="45.653792" lon="15.311851">
        <ele>169.39</ele>
      </trkpt>
      <trkpt lat="45.653807" lon="15.311918">
        <ele>169.35</ele>
      </trkpt>
      <trkpt lat="45.653814" lon="15.312084">
        <ele>169.41</ele>
      </trkpt>
      <trkpt lat="45.653806" lon="15.312177">
        <ele>169.5</ele>
      </trkpt>
      <trkpt lat="45.653745" lon="15.312443">
        <ele>169.86</ele>
      </trkpt>
      <trkpt lat="45.65368" lon="15.312674">
        <ele>170.06</ele>
      </trkpt>
      <trkpt lat="45.653528" lon="15.313161">
        <ele>169.61</ele>
      </trkpt>
      <trkpt lat="45.653348" lon="15.313704">
        <ele>168.85</ele>
      </trkpt>
      <trkpt lat="45.653082" lon="15.31452">
        <ele>168.55</ele>
      </trkpt>
      <trkpt lat="45.652992" lon="15.314759">
        <ele>167.74</ele>
      </trkpt>
      <trkpt lat="45.652853" lon="15.315055">
        <ele>165.88</ele>
      </trkpt>
      <trkpt lat="45.652756" lon="15.315226">
        <ele>165.1</ele>
      </trkpt>
      <trkpt lat="45.652661" lon="15.315361">
        <ele>163.96</ele>
      </trkpt>
      <trkpt lat="45.652531" lon="15.315523">
        <ele>162.85</ele>
      </trkpt>
      <trkpt lat="45.652254" lon="15.315809">
        <ele>161.14</ele>
      </trkpt>
      <trkpt lat="45.652208" lon="15.315841">
        <ele>160.86</ele>
      </trkpt>
      <trkpt lat="45.652139" lon="15.315873">
        <ele>160.54</ele>
      </trkpt>
      <trkpt lat="45.652066" lon="15.315883">
        <ele>160.38</ele>
      </trkpt>
      <trkpt lat="45.65199" lon="15.315879">
        <ele>160.32</ele>
      </trkpt>
      <trkpt lat="45.651879" lon="15.315841">
        <ele>160.57</ele>
      </trkpt>
      <trkpt lat="45.651836" lon="15.315967">
        <ele>160.56</ele>
      </trkpt>
      <trkpt lat="45.651796" lon="15.316022">
        <ele>160.85</ele>
      </trkpt>
      <trkpt lat="45.651727" lon="15.316067">
        <ele>161.08</ele>
      </trkpt>
      <trkpt lat="45.651418" lon="15.316227">
        <ele>161.59</ele>
      </trkpt>
      <trkpt lat="45.65129" lon="15.316342">
        <ele>161.72</ele>
      </trkpt>
      <trkpt lat="45.651257" lon="15.3164">
        <ele>161.79</ele>
      </trkpt>
      <trkpt lat="45.65121" lon="15.316567">
        <ele>161.99</ele>
      </trkpt>
      <trkpt lat="45.651188" lon="15.316626">
        <ele>162</ele>
      </trkpt>
    </trkseg>
  </trk>
</gpx>
